id,name,prefecture,city,other_address,access,tel,business_hour,hp,wifi,socket,smoking,iccard,lat,lng,chair
0,鹿児島鹿屋店 | 珈琲所コメダ珈琲店,鹿児島県,鹿屋市,笠之原1番1号,鹿屋市役所から徒歩3.4km,0994-40-8008,07:00〜23:00,http://www.komeda.co.jp/search/shopdetail.php?id=809,TRUE,FALSE,TRUE,FALSE,31.3893448,130.882169,"104席
(禁煙:80/喫煙:24)"
1,南さつま加世田店 | 珈琲所コメダ珈琲店,鹿児島県,南さつま市,加世田地頭所町25-5,南さつま市役所徒歩13分,0993-52-6055,07:00〜23:00,http://www.komeda.co.jp/search/shopdetail.php?id=863,TRUE,FALSE,TRUE,FALSE,31.4237527,130.3226932,"74席
(禁煙:54/喫煙:20)"
2,鹿児島七ツ島店 | 珈琲所コメダ珈琲店,鹿児島県,鹿児島市,七ツ島1丁目66-1,五位野駅徒歩19分以上,099-296-7077,08:30〜22:00,http://www.komeda.co.jp/search/shopdetail.php?id=825,TRUE,FALSE,TRUE,FALSE,31.4855056,130.5115477,"98席
(禁煙:78/喫煙:20)"
3,イオンモール鹿児島前店 | 珈琲所コメダ珈琲店,鹿児島県,鹿児島市,東開町3番地65,上塩屋駅徒歩11分以上,099-260-2777,07:00〜23:00,http://www.komeda.co.jp/search/shopdetail.php?id=791,TRUE,FALSE,TRUE,FALSE,31.5298214,130.5352836,"96席
(禁煙:70/喫煙:26)"
4,鹿児島天文館店 | 珈琲所コメダ珈琲店,鹿児島県,鹿児島市,東千石町13番3号VISIONBILD1F,天文館通駅徒歩3分以内,099-208-2227,07:00〜23:00※金･土･休前日07:00〜01:00,http://www.komeda.co.jp/search/shopdetail.php?id=849,TRUE,TRUE,TRUE,FALSE,31.590748,130.554498,"108席
(禁煙:74/喫煙:34)"
5,鹿児島吉野店 | 珈琲所コメダ珈琲店,鹿児島県,鹿児島市,吉野2丁目31-30,竜ヶ水駅徒歩49分以上,099-295-7105,07:00〜23:00,http://www.komeda.co.jp/search/shopdetail.php?id=827,TRUE,FALSE,TRUE,FALSE,31.6572645,130.5678958,"104席
(禁煙:80/喫煙:24)"
6,都城前田店 | 珈琲所コメダ珈琲店,宮崎県,都城市,前田町3街区3号,都城駅徒歩13分以上,0986-46-1571,07:00〜23:00,http://www.komeda.co.jp/search/shopdetail.php?id=824,TRUE,FALSE,TRUE,FALSE,31.729784,131.0676402,"98席
(禁煙:74/喫煙:24)"
7,イオンタウン姶良店 | 珈琲所コメダ珈琲店,鹿児島県,姶良市,東餅田336,帖佐駅徒歩12分以上,0995-66-6630,10:00〜21:00,http://www.komeda.co.jp/search/shopdetail.php?id=826,TRUE,FALSE,TRUE,FALSE,31.7345416,130.6300682,"117席
(禁煙:86/喫煙:31)"
8,鹿児島国分店 | 珈琲所コメダ珈琲店,鹿児島県,霧島市,国分野口町4-26,隼人駅徒歩15分以上,0995-45-7887,07:00〜23:00,http://www.komeda.co.jp/search/shopdetail.php?id=786,TRUE,FALSE,TRUE,FALSE,31.738185,130.7498211,"102席
(禁煙:74/喫煙:28)"
9,鹿児島川内店 | 珈琲所コメダ珈琲店,鹿児島県,薩摩川内市,上川内4231-1,上川内駅徒歩6分以上,0996-20-8211,07:00〜23:00,http://www.komeda.co.jp/search/shopdetail.php?id=814,TRUE,FALSE,TRUE,FALSE,31.8337814,130.2872621,"106席
(禁煙:80/喫煙:26)"
10,宮崎恒久店 | 珈琲所コメダ珈琲店,宮崎県,宮崎市,恒久4378番-1,南宮崎駅徒歩8分以上,0985-34-9032,07:00〜23:00,http://www.komeda.co.jp/search/shopdetail.php?id=776,TRUE,FALSE,TRUE,FALSE,31.894839,131.4289464,"98席
(禁煙:70/喫煙:28)"
11,宮崎柳丸店 | 珈琲所コメダ珈琲店,宮崎県,宮崎市,柳丸町140番地,宮崎駅徒歩17分以上,0985-41-5075,07:00〜23:00,http://www.komeda.co.jp/search/shopdetail.php?id=775,TRUE,FALSE,TRUE,FALSE,31.9262216,131.4356089,"98席
(禁煙:70/喫煙:28)"
12,鹿児島出水店 | 珈琲所コメダ珈琲店,鹿児島県,出水市,米ノ津町6番12号,米ノ津駅徒歩9分以上,0996-64-8339,07:00〜23:00,http://www.komeda.co.jp/search/shopdetail.php?id=872,TRUE,FALSE,TRUE,FALSE,32.1164081,130.340042,"74席
(禁煙:54/喫煙:20)"
13,フレスポ福田店 | 珈琲所コメダ珈琲店,長崎県,長崎市,小浦町714-8フレスポ福田West,浦上駅徒歩57分以上,095-801-2090,07:00〜23:00,http://www.komeda.co.jp/search/shopdetail.php?id=869,TRUE,FALSE,TRUE,FALSE,32.7474343,129.8254316,"88席
(禁煙:70/喫煙:18)"
14,イオンタウン田崎店 | 珈琲所コメダ珈琲店,熊本県,熊本市,西区田崎町字下寄380番地,田崎橋駅徒歩12分以上,096-245-6788,07:00〜23:00,http://www.komeda.co.jp/search/shopdetail.php?id=682,TRUE,FALSE,TRUE,FALSE,32.7835823,130.6785408,"96席
(禁煙:78/喫煙:18)"
15,熊本桜木店 | 珈琲所コメダ珈琲店,熊本県,熊本市,東区桜木6丁目7番1号,健軍町駅徒歩31分以上,096-234-7367,07:00〜23:00,http://www.komeda.co.jp/search/shopdetail.php?id=619,TRUE,FALSE,TRUE,FALSE,32.7900496,130.7805901,"112席
(禁煙:82/喫煙:30)"
16,長崎時津店 | 珈琲所コメダ珈琲店,長崎県,西彼杵郡,時津町日並郷1300-30,高田駅徒歩74分以上,095-801-2103,07:00〜23:00,http://www.komeda.co.jp/search/shopdetail.php?id=779,TRUE,FALSE,TRUE,FALSE,32.8502945,129.8258284,"100席
(禁煙:78/喫煙:22)"
17,熊本大窪店 | 珈琲所コメダ珈琲店,熊本県,熊本市,北区大窪2丁目10番8号,西里駅徒歩12分以上,096-342-6518,07:00〜23:00,http://www.komeda.co.jp/search/shopdetail.php?id=650,TRUE,FALSE,TRUE,FALSE,32.8547097,130.709874,"104席
(禁煙:76/喫煙:28)"
18,熊本合志店 | 珈琲所コメダ珈琲店,熊本県,合志市,幾久富1909-807,武蔵塚駅徒歩20分以上,096-285-9617,07:00〜23:00,http://www.komeda.co.jp/search/shopdetail.php?id=804,TRUE,FALSE,TRUE,FALSE,32.8622621,130.769059,"94席
(禁煙:72/喫煙:22)"
19,熊本菊池店 | 珈琲所コメダ珈琲店,熊本県,菊池市,北宮334-1,御代志駅から12.3km,0968-24-7060,07:00〜23:00,http://www.komeda.co.jp/search/shopdetail.php?id=823,TRUE,FALSE,TRUE,FALSE,32.9745471,130.8088336,"98席
(禁煙:76/喫煙:22)"
20,佐世保駅前店 | 珈琲所コメダ珈琲店,長崎県,佐世保市,潮見町9-7,佐世保駅徒歩5分以上,0956-59-5453,07:00〜23:00,http://www.komeda.co.jp/search/shopdetail.php?id=846,TRUE,FALSE,TRUE,FALSE,33.1622284,129.729684,"94席
(禁煙:76/喫煙:18)"
21,ゆめモール柳川店 | 珈琲所コメダ珈琲店,福岡県,柳川市,三橋町蒲船津1406番地7,西鉄柳川駅徒歩7分以上,0944-77-6001,07:00〜23:00,http://www.komeda.co.jp/search/shopdetail.php?id=621,TRUE,FALSE,TRUE,FALSE,33.1668807,130.4248232,"102席
(禁煙:76/喫煙:26)"
22,ゆめモール筑後店 | 珈琲所コメダ珈琲店,福岡県,筑後市,前津土地区画整理事業区域内10画地,羽犬塚駅徒歩23分以上,0942-52-0811,07:00〜23:00,http://www.komeda.co.jp/search/shopdetail.php?id=719,TRUE,FALSE,TRUE,FALSE,33.2171695,130.5129272,"100席
(禁煙:76/喫煙:24)"
23,大分明野店 | 珈琲所コメダ珈琲店,大分県,大分市,明野東2丁目32番20号,高城駅徒歩28分以上,097-573-1800,07:00〜23:00,http://www.komeda.co.jp/search/shopdetail.php?id=697,TRUE,FALSE,TRUE,FALSE,33.2247943,131.6594379,"98席
(禁煙:80/喫煙:18)"
24,大分志手椎迫店 | 珈琲所コメダ珈琲店,大分県,大分市,大字三芳2037-1,南大分駅徒歩19分以上,097-573-5058,07:00〜23:00,http://www.komeda.co.jp/search/shopdetail.php?id=800,TRUE,FALSE,TRUE,FALSE,33.2252862,131.5917908,"100席
(禁煙:76/喫煙:24)"
25,大分中央町店 | 珈琲所コメダ珈琲店,大分県,大分市,中央町2丁目3-4,大分駅徒歩4分以上,097-532-7007,07:00〜23:00,http://www.komeda.co.jp/search/shopdetail.php?id=837,TRUE,TRUE,TRUE,FALSE,33.2361523,131.6062668,"84席
(禁煙:68/喫煙:16)"
26,佐賀兵庫店 | 珈琲所コメダ珈琲店,佐賀県,佐賀市,兵庫北3丁目7-14,佐賀駅徒歩12分以上,0952-97-7084,07:00〜23:00,http://www.komeda.co.jp/search/shopdetail.php?id=608,TRUE,FALSE,TRUE,FALSE,33.2680623,130.3059681,"100席
(禁煙:78/喫煙:22)"
27,久留米大石町店 | 珈琲所コメダ珈琲店,福岡県,久留米市,大石町256-2,久留米駅徒歩12分以上,0942-31-1131,07:00〜23:00,http://www.komeda.co.jp/search/shopdetail.php?id=625,TRUE,FALSE,TRUE,FALSE,33.313484,130.4956856,"98席
(禁煙:70/喫煙:28)"
28,久留米インター店 | 珈琲所コメダ珈琲店,福岡県,久留米市,東合川2丁目5番11号,久留米大学前駅徒歩14分以上,0942-65-5180,07:00〜23:00,http://www.komeda.co.jp/search/shopdetail.php?id=628,TRUE,FALSE,TRUE,FALSE,33.3201537,130.5494562,"126席
(禁煙:94/喫煙:32)"
29,ゆめタウン久留米店 | 珈琲所コメダ珈琲店,福岡県,久留米市,新合川1丁目2-1,五郎丸駅徒歩13分以上,0942-27-7781,09:30〜22:00,http://www.komeda.co.jp/search/shopdetail.php?id=718,TRUE,FALSE,TRUE,FALSE,33.3217812,130.5384903,"94席
(禁煙:80/喫煙:14)"
30,鳥栖弥生が丘店 | 珈琲所コメダ珈琲店,佐賀県,鳥栖市,弥生が丘6丁目5,弥生が丘駅徒歩9分以上,0942-50-6111,07:00〜23:00,http://www.komeda.co.jp/search/shopdetail.php?id=622,TRUE,FALSE,TRUE,FALSE,33.4018419,130.5211199,"100席
(禁煙:80/喫煙:20)"
31,福岡甘木店 | 珈琲所コメダ珈琲店,福岡県,朝倉市,甘木156-1,甘木駅徒歩9分以上,0946-23-8483,07:00〜23:00,http://www.komeda.co.jp/search/shopdetail.php?id=829,TRUE,FALSE,TRUE,FALSE,33.4159714,130.661393,"96席
(禁煙:72/喫煙:24)"
32,唐津和多田店 | 珈琲所コメダ珈琲店,佐賀県,唐津市,和多田先石4番2-2号,和多田駅徒歩1分以上,0955-58-8312,07:00〜23:00,http://www.komeda.co.jp/search/shopdetail.php?id=781,TRUE,FALSE,TRUE,FALSE,33.4366533,129.9816243,"98席
(禁煙:78/喫煙:20)"
33,ゆめタウン筑紫野店 | 珈琲所コメダ珈琲店,福岡県,筑紫野市,針摺東3丁目2番3号,朝倉街道駅徒歩7分以上,092-923-7211,07:00〜23:00,http://www.komeda.co.jp/search/shopdetail.php?id=578,TRUE,FALSE,TRUE,FALSE,33.4856324,130.5384088,"100席
(禁煙:68/喫煙:32)"
34,福岡那珂川店 | 珈琲所コメダ珈琲店,福岡県,筑紫郡,那珂川町片縄2丁目142番地,博多南駅徒歩17分以上,092-555-7915,07:00〜23:00,http://www.komeda.co.jp/search/shopdetail.php?id=815,TRUE,FALSE,TRUE,FALSE,33.5149073,130.4244264,"100席
(禁煙:80/喫煙:20)"
35,土佐道路店 | 珈琲所コメダ珈琲店,高知県,高知市,針木東町26番26号,朝倉神社前駅徒歩31分以上,088-855-8300,07:00〜23:00,http://www.komeda.co.jp/search/shopdetail.php?id=867,TRUE,FALSE,TRUE,FALSE,33.5326632,133.4755574,"102席
(禁煙:82/喫煙:20)"
36,福岡原店 | 珈琲所コメダ珈琲店,福岡県,福岡市,早良区原7丁目14番39号,賀茂駅徒歩19分以上,092-866-8066,07:00〜23:00,http://www.komeda.co.jp/search/shopdetail.php?id=585,TRUE,TRUE,TRUE,FALSE,33.562682,130.3419927,"98席
(禁煙:74/喫煙:24)"
37,イオンスタイル笹丘店 | 珈琲所コメダ珈琲店,福岡県,福岡市,中央区笹丘1-28-74,茶山駅徒歩14分以上,092-753-6297,07:00〜21:00,http://www.komeda.co.jp/search/shopdetail.php?id=787,TRUE,FALSE,TRUE,FALSE,33.5649265,130.3766734,"92席
(禁煙:75/喫煙:17)"
38,高知南国店 | 珈琲所コメダ珈琲店,高知県,南国市,明見818番1,小篭通駅徒歩13分以上,088-855-5595,07:00〜23:00,http://www.komeda.co.jp/search/shopdetail.php?id=731,TRUE,FALSE,TRUE,FALSE,33.5676599,133.6277077,"99席
(禁煙:80/喫煙:19)"
39,高知インター店 | 珈琲所コメダ珈琲店,高知県,高知市,杉井流17-9,薊野駅徒歩13分以上,088-855-7666,07:00〜23:00,http://www.komeda.co.jp/search/shopdetail.php?id=560,TRUE,FALSE,TRUE,FALSE,33.5691641,133.5564038,"97席
(禁煙:68/喫煙:29)"
40,福岡東那珂店 | 珈琲所コメダ珈琲店,福岡県,福岡市,博多区東那珂1丁目16-20,竹下駅から1.4km、徒歩18分,092-292-2436,07:00〜23:00,http://www.komeda.co.jp/search/shopdetail.php?id=641,TRUE,TRUE,TRUE,FALSE,33.572732,130.4369663,"102席
(禁煙:78/喫煙:24)"
41,九大学研都市店 | 珈琲所コメダ珈琲店,福岡県,福岡市,西区西都一丁目17番19号,今宿駅徒歩17分以上,092-407-1101,07:00〜23:00,http://www.komeda.co.jp/search/shopdetail.php?id=592,TRUE,FALSE,TRUE,FALSE,33.5806504,130.2601036,"99席
(禁煙:68/喫煙:31)"
42,博多駅東店 | 珈琲所コメダ珈琲店,福岡県,福岡市,博多区博多駅東2丁目4番20号,博多駅徒歩4分以上,092-477-8861,07:00〜23:00,http://www.komeda.co.jp/search/shopdetail.php?id=663,TRUE,FALSE,TRUE,FALSE,33.5882386,130.4234583,"92席
(禁煙:74/喫煙:18)"
43,福岡天神南店 | 珈琲所コメダ珈琲店,福岡県,福岡市,中央区天神1-2-1ホテルザ・ビー福岡天神1F,天神南駅徒歩1分以上,092-771-1959,07:00〜00:00,http://www.komeda.co.jp/search/shopdetail.php?id=828,TRUE,FALSE,TRUE,FALSE,33.5893299,130.4035755,"82席
(禁煙:56/喫煙:26)"
44,福岡ももち店 | 珈琲所コメダ珈琲店,福岡県,福岡市,早良区百道浜2丁目1-22SRPビル1F,西新駅徒歩15分以上,092-836-8164,07:00〜23:00,http://www.komeda.co.jp/search/shopdetail.php?id=636,TRUE,TRUE,TRUE,FALSE,33.593432,130.355916,"89席
(禁煙:67/喫煙:22)"
45,大分中津店 | 珈琲所コメダ珈琲店,大分県,中津市,金谷森ノ丁2229番地1,吉富駅徒歩10分以上,0979-77-5431,07:00〜23:00,http://www.komeda.co.jp/search/shopdetail.php?id=735,FALSE,FALSE,TRUE,FALSE,33.5995348,131.1791115,"111席
(禁煙:90/喫煙:21)"
46,福岡八田店 | 珈琲所コメダ珈琲店,福岡県,福岡市,東区八田1丁目6番25号,土井駅徒歩8分以上,092-691-5080,07:00〜23:00,http://www.komeda.co.jp/search/shopdetail.php?id=555,TRUE,TRUE,TRUE,FALSE,33.6333567,130.4595241,"99席
(禁煙:62/喫煙:37)"
47,飯塚川津店 | 珈琲所コメダ珈琲店,福岡県,飯塚市,横田65-7,新飯塚駅徒歩25分以上,0948-22-1222,07:00〜23:00,http://www.komeda.co.jp/search/shopdetail.php?id=798,TRUE,FALSE,TRUE,FALSE,33.6456766,130.6745766,"104席
(禁煙:80/喫煙:24)"
48,福岡香椎浜店 | 珈琲所コメダ珈琲店,福岡県,福岡市,東区香椎浜3丁目3番11号,西鉄香椎駅徒歩17分以上,092-692-1972,07:00〜23:00,http://www.komeda.co.jp/search/shopdetail.php?id=692,TRUE,FALSE,TRUE,FALSE,33.6589001,130.4278663,"104席
(禁煙:80/喫煙:24)"
49,ゆめマート新宮店 | 珈琲所コメダ珈琲店,福岡県,糟屋郡,新宮町緑ｹ浜4丁目18番48号,西鉄新宮駅徒歩13分以上,092-410-9474,07:00〜23:00,http://www.komeda.co.jp/search/shopdetail.php?id=615,TRUE,FALSE,TRUE,FALSE,33.7104428,130.4461803,"104席
(禁煙:76/喫煙:28)"
50,新宮緑ヶ丘店 | 珈琲所コメダ珈琲店,和歌山県,新宮市,緑ｹ丘1丁目10-67,新宮駅徒歩7分以上,0735-29-7754,07:00〜23:00,http://www.komeda.co.jp/search/shopdetail.php?id=666,TRUE,TRUE,TRUE,FALSE,33.7198553,135.992819,"86席
(禁煙:62/喫煙:24)"
51,福岡行橋店 | 珈琲所コメダ珈琲店,福岡県,行橋市,大字草野513番地1,行橋駅徒歩29分以上,0930-25-5550,07:00〜23:00,http://www.komeda.co.jp/search/shopdetail.php?id=848,TRUE,FALSE,TRUE,FALSE,33.7364684,130.9576135,"96席
(禁煙:72/喫煙:24)"
52,福間駅南店 | 珈琲所コメダ珈琲店,福岡県,福津市,日蒔野2丁目1-8,福間駅徒歩5分以上,0940-72-4466,07:00〜23:00,http://www.komeda.co.jp/search/shopdetail.php?id=725,TRUE,FALSE,TRUE,FALSE,33.7606,130.4865632,"100席
(禁煙:75/喫煙:25)"
53,エミフルＭＡＳＡＫＩ店 | 珈琲所コメダ珈琲店,愛媛県,伊予郡,松前町筒井850番エミフルMASAKI館内,古泉駅徒歩5分以上,089-989-5903,09:00〜22:00,http://www.komeda.co.jp/search/shopdetail.php?id=623,TRUE,FALSE,TRUE,FALSE,33.7891825,132.715609,"90席
(禁煙:74/喫煙:16)"
54,福岡宗像店 | 珈琲所コメダ珈琲店,福岡県,宗像市,稲元4丁目22番1号,赤間駅徒歩13分以上,0940-62-5025,07:00〜23:00,http://www.komeda.co.jp/search/shopdetail.php?id=717,TRUE,FALSE,TRUE,FALSE,33.8092425,130.5590554,"99席
(禁煙:72/喫煙:27)"
55,南久米店 | 珈琲所コメダ珈琲店,愛媛県,松山市,南久米町133番1,久米駅徒歩4分以上,089-968-1877,07:00〜23:00,http://www.komeda.co.jp/search/shopdetail.php?id=594,TRUE,FALSE,TRUE,FALSE,33.8181053,132.8042382,"101席
(禁煙:70/喫煙:31)"
56,北九州上津役店 | 珈琲所コメダ珈琲店,福岡県,北九州市,八幡西区下上津役四丁目11-10,三ヶ森駅徒歩18分以上,093-614-2277,07:00〜23:00,http://www.komeda.co.jp/search/shopdetail.php?id=659,TRUE,FALSE,TRUE,FALSE,33.8272439,130.7469315,"104席
(禁煙:80/喫煙:24)"
57,北九州守恒店 | 珈琲所コメダ珈琲店,福岡県,北九州市,小倉南区守恒本町2-15-1,徳力公団前駅徒歩3分以上,093-965-2020,07:00〜23:00,http://www.komeda.co.jp/search/shopdetail.php?id=854,TRUE,FALSE,TRUE,FALSE,33.8324513,130.8689486,"98席
(禁煙:72/喫煙:26)"
58,松山山西店 | 珈琲所コメダ珈琲店,愛媛県,松山市,山西町793-1,山西駅徒歩9分以上,089-995-8505,07:00〜23:00,http://www.komeda.co.jp/search/shopdetail.php?id=681,TRUE,FALSE,TRUE,FALSE,33.8499243,132.722368,"102席
(禁煙:80/喫煙:22)"
59,北九州桃園公園店 | 珈琲所コメダ珈琲店,福岡県,北九州市,八幡東区桃園1-4-36,八幡駅徒歩16分以上,093-777-6684,07:00〜23:00,http://www.komeda.co.jp/search/shopdetail.php?id=646,FALSE,FALSE,TRUE,FALSE,33.8641073,130.7843993,"98席
(禁煙:78/喫煙:20)"
60,北九州鞘ヶ谷店 | 珈琲所コメダ珈琲店,福岡県,北九州市,戸畑区東鞘ヶ谷町2番8号,枝光駅徒歩27分以上,093-871-7550,07:00〜23:00,http://www.komeda.co.jp/search/shopdetail.php?id=792,TRUE,FALSE,TRUE,FALSE,33.8802451,130.8337527,"118席
(禁煙:89/喫煙:29)"
61,北九州本城店 | 珈琲所コメダ珈琲店,福岡県,北九州市,八幡西区本城学研台3丁目2番1号,本城駅徒歩32分以上,093-616-8942,07:00〜23:00,http://www.komeda.co.jp/search/shopdetail.php?id=696,TRUE,FALSE,TRUE,FALSE,33.8953359,130.7227559,"106席
(禁煙:82/喫煙:24)"
62,御坊店 | 珈琲所コメダ珈琲店,和歌山県,御坊市,湯川町財部636-1,紀伊御坊駅徒歩7分以上,0738-22-0141,07:00〜23:00,http://www.komeda.co.jp/search/shopdetail.php?id=549,TRUE,FALSE,TRUE,FALSE,33.8972806,135.1503882,"100席
(禁煙:72/喫煙:28)"
63,阿南富岡店 | 珈琲所コメダ珈琲店,徳島県,阿南市,富岡町滝ノ下18-13,阿南駅徒歩3分以上,0884-24-9190,07:00〜23:00,http://www.komeda.co.jp/search/shopdetail.php?id=762,TRUE,FALSE,TRUE,FALSE,33.9169819,134.6621293,"118席
(禁煙:94/喫煙:24)"
64,西条古川店 | 珈琲所コメダ珈琲店,愛媛県,西条市,古川甲353-1,伊予西条駅徒歩30分以上,0897-56-5551,07:00〜23:00,http://www.komeda.co.jp/search/shopdetail.php?id=820,TRUE,FALSE,TRUE,FALSE,33.9169908,133.1657984,"96席
(禁煙:72/喫煙:24)"
65,宇部南浜町店 | 珈琲所コメダ珈琲店,山口県,宇部市,南浜町2丁目7-21,居能駅徒歩6分以上,0836-43-6566,07:00〜23:00,http://www.komeda.co.jp/search/shopdetail.php?id=754,TRUE,FALSE,TRUE,FALSE,33.9653516,131.2330362,"96席
(禁煙:74/喫煙:22)"
66,徳島小松島店 | 珈琲所コメダ珈琲店,徳島県,小松島市,日開野町字崎田42-1,南小松島駅徒歩16分以上,0885-32-8677,07:00〜23:00,http://www.komeda.co.jp/search/shopdetail.php?id=878,TRUE,FALSE,TRUE,FALSE,34.0013091,134.575759,"93席
(禁煙:72/喫煙:21)"
67,小野田バイパス店 | 珈琲所コメダ珈琲店,山口県,山陽小野田市,大字西高泊字神田沖619-5,小野田駅徒歩14分以上,0836-38-5532,07:00〜21:30,http://www.komeda.co.jp/search/shopdetail.php?id=744,TRUE,FALSE,TRUE,FALSE,34.0071947,131.1746305,"95席
(禁煙:74/喫煙:21)"
68,下関綾羅木店 | 珈琲所コメダ珈琲店,山口県,下関市,綾羅木新町4-3-15,綾羅木駅徒歩5分以上,083-277-0848,07:00〜23:00,http://www.komeda.co.jp/search/shopdetail.php?id=693,FALSE,FALSE,TRUE,FALSE,34.0079536,130.9250426,"124席
(禁煙:102/喫煙:22)"
69,下関長府店 | 珈琲所コメダ珈琲店,山口県,下関市,ゆめタウン1番10号,長府駅徒歩21分以上,083-227-2173,07:00〜23:00,http://www.komeda.co.jp/search/shopdetail.php?id=745,TRUE,FALSE,TRUE,FALSE,34.0292213,131.010985,"94席
(禁煙:72/喫煙:22)"
70,周南久米店 | 珈琲所コメダ珈琲店,山口県,周南市,大字久米2944番地2,櫛ヶ浜駅徒歩14分以上,0834-34-8123,07:00〜23:00,http://www.komeda.co.jp/search/shopdetail.php?id=637,TRUE,FALSE,TRUE,FALSE,34.0342523,131.8396387,"107席
(禁煙:70/喫煙:37)"
71,ゆめタウン徳山店 | 珈琲所コメダ珈琲店,山口県,周南市,青山町1番18号,徳山駅徒歩21分以上,0834-34-9881,08:00〜21:30,http://www.komeda.co.jp/search/shopdetail.php?id=771,TRUE,FALSE,TRUE,FALSE,34.0427091,131.8155768,"79席
(禁煙:64/喫煙:15)"
72,今治立花店 | 珈琲所コメダ珈琲店,愛媛県,今治市,郷六ヶ内町2丁目4番37号,伊予富田駅徒歩18分以上,0898-25-0121,07:00〜23:00,http://www.komeda.co.jp/search/shopdetail.php?id=732,TRUE,FALSE,TRUE,FALSE,34.0442314,132.9990316,"92席
(禁煙:70/喫煙:22)"
73,徳島沖浜店 | 珈琲所コメダ珈琲店,徳島県,徳島市,山城西1丁目1-3,二軒屋駅徒歩13分以上,088-626-7160,07:00〜23:00,http://www.komeda.co.jp/search/shopdetail.php?id=862,TRUE,FALSE,TRUE,FALSE,34.0544329,134.5568409,"96席
(禁煙:76/喫煙:20)"
74,防府八王子店 | 珈琲所コメダ珈琲店,山口県,防府市,八王子1丁目12番15号,防府駅徒歩6分以上,0835-28-8150,07:00〜23:00,http://www.komeda.co.jp/search/shopdetail.php?id=704,TRUE,FALSE,TRUE,FALSE,34.0553983,131.5645037,"96席
(禁煙:73/喫煙:23)"
75,尾鷲店 | 珈琲所コメダ珈琲店,三重県,尾鷲市,小川西町3番10号,尾鷲駅徒歩10分以上,0597-22-1251,07:00〜23:00,http://www.komeda.co.jp/search/shopdetail.php?id=598,TRUE,FALSE,TRUE,FALSE,34.0674242,136.1900621,"100席
(禁煙:70/喫煙:30)"
76,吉野川鴨島店 | 珈琲所コメダ珈琲店,徳島県,吉野川市,鴨島町牛島字市瀬790-8,牛島駅徒歩10分以上,0883-36-9077,07:00〜23:00,http://www.komeda.co.jp/search/shopdetail.php?id=464,TRUE,FALSE,TRUE,FALSE,34.0732013,134.3900846,"99席
(禁煙:78/喫煙:21)"
77,徳島藍住店 | 珈琲所コメダ珈琲店,徳島県,板野郡,藍住町徳命字前須西99-1,板野駅徒歩45分以上,088-678-2595,07:00〜23:00,http://www.komeda.co.jp/search/shopdetail.php?id=671,TRUE,FALSE,TRUE,FALSE,34.1187518,134.4853524,"95席
(禁煙:70/喫煙:25)"
78,徳島北島店 | 珈琲所コメダ珈琲店,徳島県,板野郡,北島町江尻字柳池9-2,吉成駅徒歩23分以上,088-679-1610,07:00〜23:00,http://www.komeda.co.jp/search/shopdetail.php?id=688,TRUE,FALSE,TRUE,FALSE,34.1229,134.5478234,"91席
(禁煙:74/喫煙:17)"
79,山口維新公園店 | 珈琲所コメダ珈琲店,山口県,山口市,朝田字灰田601番1,大歳駅徒歩7分以上,083-995-2028,07:00〜23:00,http://www.komeda.co.jp/search/shopdetail.php?id=819,TRUE,FALSE,TRUE,FALSE,34.1509399,131.4352718,"96席
(禁煙:74/喫煙:22)"
80,海南店 | 珈琲所コメダ珈琲店,和歌山県,海南市,重根西1丁目5番地1,海南駅徒歩35分以上,073-485-2000,07:00〜23:00,http://www.komeda.co.jp/search/shopdetail.php?id=756,TRUE,FALSE,TRUE,FALSE,34.155081,135.2414534,"101席
(禁煙:72/喫煙:29)"
81,ゆめタウン山口店 | 珈琲所コメダ珈琲店,山口県,山口市,大内千坊6丁目9番1号,上山口駅徒歩34分以上,083-941-6665,09:00〜21:30,http://www.komeda.co.jp/search/shopdetail.php?id=714,TRUE,FALSE,TRUE,FALSE,34.1611754,131.4894557,"83席
(禁煙:69/喫煙:14)"
82,ゆめタウン呉店 | 珈琲所コメダ珈琲店,広島県,呉市,宝町5-10ゆめタウン呉1階,呉駅徒歩3分以上,0823-25-1553,09:00〜21:30,http://www.komeda.co.jp/search/shopdetail.php?id=772,TRUE,FALSE,TRUE,FALSE,34.2424446,132.5563223,"93席
(禁煙:77/喫煙:16)"
83,和歌山大谷店 | 珈琲所コメダ珈琲店,和歌山県,和歌山市,大谷13-1,紀ノ川駅徒歩21分以上,073-455-5577,07:00〜23:00,http://www.komeda.co.jp/search/shopdetail.php?id=460,TRUE,FALSE,TRUE,FALSE,34.2603532,135.1814147,"90席
(禁煙:62/喫煙:28)"
84,丸亀飯山店 | 珈琲所コメダ珈琲店,香川県,丸亀市,飯山町川原85-5,栗熊駅徒歩66分以上,0877-98-5123,07:00〜23:00,http://www.komeda.co.jp/search/shopdetail.php?id=875,TRUE,FALSE,TRUE,FALSE,34.2656313,133.8512961,"96席
(禁煙:78/喫煙:18)"
85,岩出店 | 珈琲所コメダ珈琲店,和歌山県,岩出市,中迫558ｰ1,岩出駅徒歩18分以上,0736-69-0141,07:00〜23:00,http://www.komeda.co.jp/search/shopdetail.php?id=526,TRUE,FALSE,TRUE,FALSE,34.2658466,135.3162556,"100席
(禁煙:72/喫煙:28)"
86,イオンモール和歌山店 | 珈琲所コメダ珈琲店,和歌山県,和歌山市,中字楠谷573番地,孝子駅徒歩23分以上,073-488-5800,09:00〜22:00,http://www.komeda.co.jp/search/shopdetail.php?id=600,TRUE,FALSE,TRUE,FALSE,34.2762651,135.1492891,"120席
(禁煙:94/喫煙:26)"
87,高松三名店 | 珈琲所コメダ珈琲店,香川県,高松市,三名町121番地,一宮駅徒歩10分以上,087-899-7977,07:00〜23:00,http://www.komeda.co.jp/search/shopdetail.php?id=535,TRUE,FALSE,TRUE,FALSE,34.2874293,134.0313856,"100席
(禁煙:70/喫煙:30)"
88,丸亀土器店 | 珈琲所コメダ珈琲店,香川県,丸亀市,土器町東4丁目815番地,宇多津駅徒歩22分以上,0877-35-8660,07:00〜23:00,http://www.komeda.co.jp/search/shopdetail.php?id=605,TRUE,FALSE,TRUE,FALSE,34.2926253,133.8144313,"98席
(禁煙:66/喫煙:32)"
89,和歌山橋本店 | 珈琲所コメダ珈琲店,和歌山県,橋本市,神野々515番地,紀伊山田駅徒歩9分以上,0736-33-6363,07:00〜23:00,http://www.komeda.co.jp/search/shopdetail.php?id=606,TRUE,FALSE,TRUE,FALSE,34.3097583,135.5778908,"95席
(禁煙:66/喫煙:29)"
90,さぬき高松今里店 | 珈琲所コメダ珈琲店,香川県,高松市,今里町2丁目29番16,林道駅徒歩15分以上,087-887-2060,07:00〜23:00,http://www.komeda.co.jp/search/shopdetail.php?id=501,FALSE,FALSE,TRUE,FALSE,34.3232621,134.0616602,"97席
(禁煙:66/喫煙:31)"
91,鵜方店 | 珈琲所コメダ珈琲店,三重県,志摩市,阿児町鵜方3016-33,鵜方駅徒歩15分以上,0599-44-2777,07:30〜23:30,http://www.komeda.co.jp/search/shopdetail.php?id=293,FALSE,FALSE,TRUE,FALSE,34.3280097,136.8376871,"98席
(禁煙:50/喫煙:48)"
92,ゆめタウン廿日市店 | 珈琲所コメダ珈琲店,広島県,廿日市,市下平良2丁目2番1号,平良駅徒歩13分以上,0829-20-5898,09:00〜22:00,http://www.komeda.co.jp/search/shopdetail.php?id=691,TRUE,FALSE,TRUE,FALSE,34.3461858,132.3355021,"86席
(禁煙:72/喫煙:14)"
93,奈良五條店 | 珈琲所コメダ珈琲店,奈良県,五條市,新町3丁目4番21号,大和二見駅徒歩9分以上,0747-23-6666,07:00〜23:00,http://www.komeda.co.jp/search/shopdetail.php?id=626,TRUE,FALSE,TRUE,FALSE,34.3494695,135.6900993,"100席
(禁煙:76/喫煙:24)"
94,阪南店 | 珈琲所コメダ珈琲店,大阪府,阪南市,黒田426-8,尾崎駅徒歩11分以上,072-473-7003,07:00〜23:00,http://www.komeda.co.jp/search/shopdetail.php?id=495,TRUE,FALSE,TRUE,FALSE,34.3554054,135.2452194,"100席
(禁煙:68/喫煙:32)"
95,広島宇品西店 | 珈琲所コメダ珈琲店,広島県,広島市,南区宇品西3-1-44-2号,宇品三丁目駅徒歩6分以上,082-251-2694,07:00〜23:00,http://www.komeda.co.jp/search/shopdetail.php?id=821,TRUE,FALSE,TRUE,FALSE,34.3630941,132.459565,"98席
(禁煙:72/喫煙:26)"
96,ゆめタウン五日市店 | 珈琲所コメダ珈琲店,広島県,広島市,佐伯区五日市5丁目5-17ゆめタウン五日市店駐車場内,佐伯区役所前駅徒歩12分以上,082-922-3322,07:00〜23:00,http://www.komeda.co.jp/search/shopdetail.php?id=799,TRUE,FALSE,TRUE,FALSE,34.3729157,132.3584526,"97席
(禁煙:76/喫煙:21)"
97,イオンモールりんくう泉南店 | 珈琲所コメダ珈琲店,大阪府,泉南市,りんくう南浜3-12イオンモールりんくう泉南1階,岡田浦駅徒歩12分以上,072-447-4013,10:00〜22:00,http://www.komeda.co.jp/search/shopdetail.php?id=816,TRUE,FALSE,TRUE,FALSE,34.3808022,135.2679406,"69席
(禁煙:54/喫煙:15)"
98,広島大手町店 | 珈琲所コメダ珈琲店,広島県,広島市,中区大手町2-8-5合人社広島大手町ビル1F,袋町駅徒歩3分以内,082-246-3908,07:00〜23:00,http://www.komeda.co.jp/search/shopdetail.php?id=711,TRUE,FALSE,TRUE,FALSE,34.391072,132.4557686,"86席
(禁煙:64/喫煙:22)"
99,りんくう羽倉崎店 | 珈琲所コメダ珈琲店,大阪府,泉佐野市,羽倉崎1丁目2ｰ12,羽倉崎駅徒歩2分以上,072-490-2007,07:00〜23:00,http://www.komeda.co.jp/search/shopdetail.php?id=536,TRUE,FALSE,TRUE,FALSE,34.400701,135.2984534,"100席
(禁煙:66/喫煙:34)"
100,白島キューガーデン店 | 珈琲所コメダ珈琲店,広島県,広島市,中区東白島町14-15NTTクレド白島ビル1階,白島駅徒歩2分以上,082-223-3755,07:00〜23:00,http://www.komeda.co.jp/search/shopdetail.php?id=753,TRUE,FALSE,TRUE,FALSE,34.4050519,132.4643308,"92席
(禁煙:72/喫煙:20)"
101,東広島西条店 | 珈琲所コメダ珈琲店,広島県,東広島市,西条西本町728,西条駅徒歩13分以上,082-426-5190,07:00〜23:00,http://www.komeda.co.jp/search/shopdetail.php?id=710,TRUE,FALSE,TRUE,FALSE,34.4282246,132.7342601,"104席
(禁煙:80/喫煙:24)"
102,福山新涯店 | 珈琲所コメダ珈琲店,広島県,福山市,西新涯町2丁目24-8,福山駅徒歩64分以上,084-961-3650,07:00〜23:00,http://www.komeda.co.jp/search/shopdetail.php?id=559,TRUE,FALSE,TRUE,FALSE,34.4547137,133.3875264,"110席
(禁煙:74/喫煙:36)"
103,岸和田店 | 珈琲所コメダ珈琲店,大阪府,岸和田市,下松町3丁目7-19,下松駅徒歩4分以上,072-428-1888,07:00〜23:00,http://www.komeda.co.jp/search/shopdetail.php?id=455,TRUE,FALSE,TRUE,FALSE,34.4547994,135.395377,"98席
(禁煙:62/喫煙:36)"
104,児島駅前店 | 珈琲所コメダ珈琲店,岡山県,倉敷市,児島駅前3丁目12-1,児島駅徒歩3分以上,086-436-7785,07:00〜23:00,http://www.komeda.co.jp/search/shopdetail.php?id=858,TRUE,FALSE,TRUE,FALSE,34.4606174,133.8084868,"96席
(禁煙:72/喫煙:24)"
105,広島大町店 | 珈琲所コメダ珈琲店,広島県,広島市,安佐南区大町西3丁目11番40号,毘沙門台駅徒歩5分以上,082-846-5495,07:00〜23:00,http://www.komeda.co.jp/search/shopdetail.php?id=512,TRUE,FALSE,TRUE,FALSE,34.4661644,132.4621442,"116席
(禁煙:82/喫煙:34)"
106,奈良御所店 | 珈琲所コメダ珈琲店,奈良県,御所市,大字元町104番の1,近鉄御所駅徒歩7分以上,0745-65-5151,07:00〜23:00,http://www.komeda.co.jp/search/shopdetail.php?id=507,TRUE,FALSE,TRUE,FALSE,34.4682907,135.7281245,"97席
(禁煙:60/喫煙:37)"
107,伊勢楠部店 | 珈琲所コメダ珈琲店,三重県,伊勢市,楠部町字奥277,五十鈴川駅徒歩6分以上,0596-20-0888,07:00〜23:30,http://www.komeda.co.jp/search/shopdetail.php?id=237,FALSE,FALSE,TRUE,FALSE,34.480408,136.726751,"94席
(禁煙:44/喫煙:50)"
108,泉大津店 | 珈琲所コメダ珈琲店,大阪府,泉大津市,我孫子2丁目5番2号,和泉府中駅徒歩15分以上,0725-92-7480,07:00〜23:00,http://www.komeda.co.jp/search/shopdetail.php?id=456,FALSE,FALSE,TRUE,FALSE,34.4929366,135.41365,"100席
(禁煙:57/喫煙:43)"
109,伊勢上地店 | 珈琲所コメダ珈琲店,三重県,伊勢市,上地町字下卯起2677-3,宮川駅徒歩14分以上,0596-20-5151,07:00〜00:00,http://www.komeda.co.jp/search/shopdetail.php?id=255,TRUE,FALSE,TRUE,FALSE,34.5001107,136.6608874,"109席
(禁煙:45/喫煙:64)"
110,金剛東店 | 珈琲所コメダ珈琲店,大阪府,富田林市,小金台1-4-22,川西駅徒歩16分以上,0721-26-9681,07:00〜23:00,http://www.komeda.co.jp/search/shopdetail.php?id=480,TRUE,FALSE,TRUE,FALSE,34.5003133,135.5828486,"94席
(禁煙:64/喫煙:30)"
111,伊勢一之木店 | 珈琲所コメダ珈琲店,三重県,伊勢市,一之木5-647-8,宮町駅徒歩15分以上,0596-21-2888,07:30〜23:30,http://www.komeda.co.jp/search/shopdetail.php?id=326,TRUE,FALSE,TRUE,FALSE,34.5034983,136.7079305,"106席
(禁煙:58/喫煙:48)"
112,イオンモール橿原店 | 珈琲所コメダ珈琲店,奈良県,橿原市,曲川町7丁目20番1号イオンモール橿原1階,金橋駅徒歩5分以上,0744-47-4646,09:00〜23:00,http://www.komeda.co.jp/search/shopdetail.php?id=874,TRUE,FALSE,TRUE,FALSE,34.506714,135.762948,"78席
(禁煙:62/喫煙:16)"
113,福山春日店 | 珈琲所コメダ珈琲店,広島県,福山市,春日町6-1-5,東福山駅徒歩19分以上,084-946-4001,07:00〜23:00,http://www.komeda.co.jp/search/shopdetail.php?id=587,TRUE,FALSE,TRUE,FALSE,34.5070641,133.4089085,"98席
(禁煙:70/喫煙:28)"
114,堺深阪店 | 珈琲所コメダ珈琲店,大阪府,堺市,中区深阪2丁10番35号,泉ヶ丘駅徒歩24分以上,072-230-2221,07:00〜23:00,http://www.komeda.co.jp/search/shopdetail.php?id=733,TRUE,FALSE,TRUE,FALSE,34.5091331,135.4991116,"94席
(禁煙:70/喫煙:24)"
115,堺鳳店 | 珈琲所コメダ珈琲店,大阪府,堺市,西区上670-112,富木駅徒歩10分以上,072-274-6111,07:00〜23:00,http://www.komeda.co.jp/search/shopdetail.php?id=469,TRUE,FALSE,TRUE,FALSE,34.5232838,135.4588286,"108席
(禁煙:80/喫煙:28)"
116,奈良広陵店 | 珈琲所コメダ珈琲店,奈良県,北葛城郡,広陵町みささぎ台5-43,築山駅徒歩13分以上,0745-43-5810,07:00〜00:00,http://www.komeda.co.jp/search/shopdetail.php?id=440,TRUE,FALSE,TRUE,FALSE,34.5337049,135.7369138,"101席
(禁煙:39/喫煙:62)"
117,橿原北店 | 珈琲所コメダ珈琲店,奈良県,橿原市,十市町430-1,笠縫駅徒歩10分以上,0744-47-3588,07:00〜00:00,http://www.komeda.co.jp/search/shopdetail.php?id=496,TRUE,FALSE,TRUE,FALSE,34.5354004,135.7971809,"109席
(禁煙:68/喫煙:41)"
118,堺上野芝店 | 珈琲所コメダ珈琲店,大阪府,堺市,西区上野芝向ヶ丘町6丁6番45号,津久野駅徒歩12分以上,072-278-0858,07:00〜23:00,http://www.komeda.co.jp/search/shopdetail.php?id=766,TRUE,FALSE,TRUE,FALSE,34.5399435,135.4776071,"93席
(禁煙:72/喫煙:21)"
119,福山駅家町店 | 珈琲所コメダ珈琲店,広島県,福山市,駅家町万能倉1276-7,駅家駅徒歩5分以上,084-999-6960,07:00〜23:00,http://www.komeda.co.jp/search/shopdetail.php?id=865,TRUE,FALSE,TRUE,FALSE,34.5463457,133.3293387,"96席
(禁煙:80/喫煙:16)"
120,香芝店 | 珈琲所コメダ珈琲店,奈良県,香芝市,北今市5丁目550-5,香芝駅徒歩10分以上,0745-71-6511,07:00〜23:00,http://www.komeda.co.jp/search/shopdetail.php?id=543,TRUE,FALSE,TRUE,FALSE,34.5482497,135.6995255,"95席
(禁煙:69/喫煙:26)"
121,松阪花岡店 | 珈琲所コメダ珈琲店,三重県,松阪市,駅部田町字水利81,東松阪駅徒歩30分以上,0598-25-5678,07:30〜23:30,http://www.komeda.co.jp/search/shopdetail.php?id=234,FALSE,FALSE,TRUE,FALSE,34.5585867,136.5251102,"96席
(禁煙:66/喫煙:30)"
122,堺なかもず店 | 珈琲所コメダ珈琲店,大阪府,堺市,北区長曽根町3073-7,なかもず駅徒歩10分以上,072-267-4851,07:00〜23:00,http://www.komeda.co.jp/search/shopdetail.php?id=722,TRUE,FALSE,TRUE,FALSE,34.5617834,135.512059,"92席
(禁煙:67/喫煙:25)"
123,松阪殿町店 | 珈琲所コメダ珈琲店,三重県,松阪市,殿町1465-7,松阪駅徒歩17分以上,0598-30-6677,07:00〜23:00,http://www.komeda.co.jp/search/shopdetail.php?id=364,TRUE,FALSE,TRUE,FALSE,34.5720686,136.5254042,"86席
(禁煙:60/喫煙:26)"
124,堺東店 | 珈琲所コメダ珈琲店,大阪府,堺市,堺区三国ヶ丘御幸通1-2ケンスイビル1F,堺東駅徒歩4分以上,072-275-7551,07:00〜23:00,http://www.komeda.co.jp/search/shopdetail.php?id=443,TRUE,FALSE,TRUE,FALSE,34.5728155,135.4836405,"70席
(禁煙:50/喫煙:20)"
125,河内松原駅前店 | 珈琲所コメダ珈琲店,大阪府,松原市,上田3丁目1-18ルート上三ビル,河内松原駅徒歩1分以上,072-349-6747,07:00〜23:00,http://www.komeda.co.jp/search/shopdetail.php?id=783,TRUE,FALSE,TRUE,FALSE,34.5752284,135.5556948,"81席
(禁煙:61/喫煙:20)"
126,倉敷中島店 | 珈琲所コメダ珈琲店,岡山県,倉敷市,中島1385-3,西阿知駅徒歩11分以上,086-466-6430,07:00〜23:00,http://www.komeda.co.jp/search/shopdetail.php?id=759,TRUE,FALSE,TRUE,FALSE,34.5783168,133.7294293,"98席
(禁煙:78/喫煙:20)"
127,松阪川井町店 | 珈琲所コメダ珈琲店,三重県,松阪市,川井町748,松阪駅徒歩25分以上,0598-25-2500,07:00〜23:00,http://www.komeda.co.jp/search/shopdetail.php?id=683,FALSE,FALSE,TRUE,FALSE,34.5800981,136.5174353,"106席
(禁煙:66/喫煙:40)"
128,松阪中央店 | 珈琲所コメダ珈琲店,三重県,松阪市,中央町514-1,松阪駅徒歩11分以上,0598-53-1234,07:30〜23:30,http://www.komeda.co.jp/search/shopdetail.php?id=196,FALSE,FALSE,TRUE,FALSE,34.5835155,136.542294,"96席
(禁煙:64/喫煙:32)"
129,明和店 | 珈琲所コメダ珈琲店,三重県,多気郡,明和町大字中村1267,櫛田駅徒歩69分以上,0596-55-5678,07:30〜23:30,http://www.komeda.co.jp/search/shopdetail.php?id=307,FALSE,FALSE,TRUE,FALSE,34.5840423,136.6151897,"106席
(禁煙:50/喫煙:56)"
130,松原三宅店 | 珈琲所コメダ珈琲店,大阪府,松原市,松ヶ丘3丁目833番地,河内松原駅徒歩14分以上,072-350-7627,07:00〜23:00,http://www.komeda.co.jp/search/shopdetail.php?id=565,TRUE,FALSE,TRUE,FALSE,34.5841194,135.560472,"93席
(禁煙:63/喫煙:30)"
131,天理岩室店 | 珈琲所コメダ珈琲店,奈良県,天理市,岩室町88-1,前栽駅徒歩10分以上,0743-62-1212,07:00〜23:00,http://www.komeda.co.jp/search/shopdetail.php?id=408,TRUE,FALSE,TRUE,FALSE,34.5950495,135.8118811,"70席
(禁煙:42/喫煙:28)"
132,イオン長吉店 | 珈琲所コメダ珈琲店,大阪府,大阪市,平野区長吉長原西1-4-6イオン長吉店駐車場棟1F,出戸駅徒歩2分以上,06-6701-3338,07:00〜22:30,http://www.komeda.co.jp/search/shopdetail.php?id=651,TRUE,FALSE,TRUE,FALSE,34.6071509,135.5667133,"81席
(禁煙:62/喫煙:19)"
133,倉敷北店 | 珈琲所コメダ珈琲店,岡山県,倉敷市,川入839-28,倉敷駅徒歩12分以上,086-486-4776,07:00〜23:00,http://www.komeda.co.jp/search/shopdetail.php?id=629,TRUE,FALSE,TRUE,FALSE,34.608153,133.7597982,"99席
(禁煙:80/喫煙:19)"
134,法隆寺店 | 珈琲所コメダ珈琲店,奈良県,生駒郡,斑鳩町東福寺1-33-1,法隆寺駅徒歩21分以上,0745-75-5111,07:00〜00:00,http://www.komeda.co.jp/search/shopdetail.php?id=323,TRUE,FALSE,TRUE,FALSE,34.6137705,135.7451509,"113席
(禁煙:71/喫煙:42)"
135,八尾高美店 | 珈琲所コメダ珈琲店,大阪府,八尾市,八尾木北4-17,八尾駅徒歩19分以上,072-970-6650,07:00〜23:00,http://www.komeda.co.jp/search/shopdetail.php?id=425,TRUE,FALSE,TRUE,FALSE,34.6144792,135.6107461,"97席
(禁煙:55/喫煙:42)"
136,岡山大福店 | 珈琲所コメダ珈琲店,岡山県,岡山市,南区大福367ｰ1,妹尾駅徒歩17分以上,086-282-8444,07:00〜23:00,http://www.komeda.co.jp/search/shopdetail.php?id=573,TRUE,FALSE,TRUE,FALSE,34.619265,133.8741767,"95席
(禁煙:70/喫煙:25)"
137,岡山福浜店 | 珈琲所コメダ珈琲店,岡山県,岡山市,南区富浜町2番70号,清輝橋駅徒歩46分以上,086-259-4511,07:00〜23:00,http://www.komeda.co.jp/search/shopdetail.php?id=706,TRUE,FALSE,TRUE,FALSE,34.6250359,133.9403448,"103席
(禁煙:77/喫煙:26)"
138,名張店 | 珈琲所コメダ珈琲店,三重県,名張市,鴻之台1ｰ191,名張駅徒歩20分以上,0595-62-5525,07:00〜00:00,http://www.komeda.co.jp/search/shopdetail.php?id=274,TRUE,FALSE,TRUE,FALSE,34.6272566,136.1096569,"116席
(禁煙:72/喫煙:44)"
139,伊勢中川店 | 珈琲所コメダ珈琲店,三重県,松阪市,嬉野中川新町4丁目34,伊勢中川駅徒歩8分以上,0598-42-8512,07:00〜23:00,http://www.komeda.co.jp/search/shopdetail.php?id=254,TRUE,FALSE,TRUE,FALSE,34.6305063,136.4795134,"91席
(禁煙:47/喫煙:44)"
140,外環八尾北店 | 珈琲所コメダ珈琲店,大阪府,八尾市,西高安町2-41-1,服部川駅徒歩19分以上,072-968-8033,07:00〜23:00,http://www.komeda.co.jp/search/shopdetail.php?id=831,TRUE,FALSE,TRUE,FALSE,34.6369463,135.6336938,"88席
(禁煙:72/喫煙:16)"
141,東大阪渋川店 | 珈琲所コメダ珈琲店,大阪府,東大阪市,渋川町3丁目7-11,南巽駅徒歩13分以上,06-6727-6511,07:00〜23:00,http://www.komeda.co.jp/search/shopdetail.php?id=472,FALSE,FALSE,TRUE,FALSE,34.6435529,135.5631194,"98席
(禁煙:62/喫煙:36)"
142,あべの店 | 珈琲所コメダ珈琲店,大阪府,大阪市,阿倍野区阿倍野筋一丁目6番1号ヴィアあべのウォーク105,天王寺駅前駅徒歩3分以内,06-6556-7222,07:00〜23:00,http://www.komeda.co.jp/search/shopdetail.php?id=428,TRUE,TRUE,TRUE,FALSE,34.6452567,135.5122721,"77席
(禁煙:53/喫煙:24)"
143,イオンモール大和郡山店 | 珈琲所コメダ珈琲店,奈良県,大和郡,山市下三橋町741,郡山駅徒歩16分以上,0743-58-5666,10:00〜23:00,http://www.komeda.co.jp/search/shopdetail.php?id=385,TRUE,FALSE,TRUE,FALSE,34.6518656,135.8020009,"90席
(禁煙:49/喫煙:41)"
144,岡山大安寺店 | 珈琲所コメダ珈琲店,岡山県,岡山市,北区大安寺南町1丁目1番85号,大安寺駅徒歩9分以上,086-259-3097,07:00〜23:00,http://www.komeda.co.jp/search/shopdetail.php?id=612,TRUE,FALSE,TRUE,FALSE,34.6594443,133.8938159,"102席
(禁煙:78/喫煙:24)"
145,神戸西代店 | 珈琲所コメダ珈琲店,兵庫県,神戸市,長田区御屋敷通3-1-34,西代駅徒歩4分以上,078-798-5196,07:00〜23:00,http://www.komeda.co.jp/search/shopdetail.php?id=561,TRUE,FALSE,TRUE,FALSE,34.6600824,135.1420993,"66席
(禁煙:44/喫煙:22)"
146,ライフ八戸ノ里店 | 珈琲所コメダ珈琲店,大阪府,東大阪市,下小阪5-2-2,八戸ノ里駅徒歩1分以上,06-4307-0525,07:00〜23:00,http://www.komeda.co.jp/search/shopdetail.php?id=876,TRUE,FALSE,TRUE,FALSE,34.6627041,135.5890998,"85席
(禁煙:69/喫煙:16)"
147,なんばＣＩＴＹ店 | 珈琲所コメダ珈琲店,大阪府,大阪市,中央区難波5丁目1番60号なんばCITY本館1階,難波駅徒歩1分以上,06-6644-2741,07:00〜23:00,http://www.komeda.co.jp/search/shopdetail.php?id=542,FALSE,FALSE,TRUE,FALSE,34.6632284,135.5026588,"90席
(禁煙:59/喫煙:31)"
148,布施駅東店 | 珈琲所コメダ珈琲店,大阪府,東大阪市,長堂3丁目2-22あすなろビル1F,布施駅徒歩4分以上,06-6618-5767,07:00〜23:00,http://www.komeda.co.jp/search/shopdetail.php?id=694,FALSE,FALSE,TRUE,FALSE,34.6644976,135.5666636,"74席
(禁煙:46/喫煙:28)"
149,イオンモール神戸南店 | 珈琲所コメダ珈琲店,兵庫県,神戸市,兵庫区中之島2丁目1番1イオンモール神戸南1F,中央市場前駅徒歩2分以上,078-681-8800,08:00〜22:00,http://www.komeda.co.jp/search/shopdetail.php?id=842,TRUE,FALSE,TRUE,FALSE,34.6658113,135.1740938,"102席
(禁煙:74/喫煙:28)"
150,高速長田駅前店 | 珈琲所コメダ珈琲店,兵庫県,神戸市,長田区北町2-1,長田駅徒歩1分以上,078-579-8777,07:00〜23:00,http://www.komeda.co.jp/search/shopdetail.php?id=658,TRUE,FALSE,TRUE,FALSE,34.6663013,135.1521621,"77席
(禁煙:56/喫煙:21)"
151,神戸伊川谷店 | 珈琲所コメダ珈琲店,兵庫県,神戸市,西区伊川谷町潤和714-1,人丸前駅徒歩30分以上,078-945-6087,07:00〜23:00,http://www.komeda.co.jp/search/shopdetail.php?id=610,TRUE,FALSE,TRUE,FALSE,34.666316,135.0029976,"98席
(禁煙:78/喫煙:20)"
152,なんば千日前店 | 珈琲所コメダ珈琲店,大阪府,大阪市,中央区難波3丁目3番4号難波日大ビル,なんば駅徒歩1分以上,06-6630-8867,07:00〜23:00,http://www.komeda.co.jp/search/shopdetail.php?id=620,TRUE,FALSE,TRUE,FALSE,34.6665693,135.501791,"153席
(禁煙:103/喫煙:50)"
153,神戸名谷店 | 珈琲所コメダ珈琲店,兵庫県,神戸市,垂水区名谷町2247-1,総合運動公園駅徒歩20分以上,078-797-7157,07:00〜23:00,http://www.komeda.co.jp/search/shopdetail.php?id=596,FALSE,FALSE,TRUE,FALSE,34.668489,135.073969,"102席
(禁煙:82/喫煙:20)"
154,東心斎橋店 | 珈琲所コメダ珈琲店,大阪府,大阪市,中央区東心斎橋2-2-2大阪富士屋ホテル1F,日本橋駅徒歩6分以上,06-6214-2095,07:00〜23:00,http://www.komeda.co.jp/search/shopdetail.php?id=603,TRUE,FALSE,TRUE,FALSE,34.6708888,135.5059339,"75席
(禁煙:44/喫煙:31)"
155,西心斎橋店 | 珈琲所コメダ珈琲店,大阪府,大阪市,中央区西心斎橋1丁目5番27号福太郎心斎橋ビルディング2F,心斎橋駅徒歩2分以上,06-6210-3112,07:00〜22:00,http://www.komeda.co.jp/search/shopdetail.php?id=679,FALSE,FALSE,TRUE,FALSE,34.6725588,135.4999495,"138席
(禁煙:92/喫煙:46)"
156,奈良中央店 | 珈琲所コメダ珈琲店,奈良県,奈良市,西木辻町110-6,京終駅徒歩8分以上,0742-20-5551,07:00〜00:00,http://www.komeda.co.jp/search/shopdetail.php?id=312,TRUE,FALSE,TRUE,FALSE,34.673905,135.8244377,"130席
(禁煙:68/喫煙:62)"
157,津みなみ店 | 珈琲所コメダ珈琲店,三重県,津市,高茶屋小森町439-2,高茶屋駅徒歩14分以上,059-271-7575,07:00〜23:00,http://www.komeda.co.jp/search/shopdetail.php?id=240,TRUE,FALSE,TRUE,FALSE,34.6747238,136.5194812,"92席
(禁煙:52/喫煙:40)"
158,四ツ橋新町店 | 珈琲所コメダ珈琲店,大阪府,大阪市,西区新町1-4-24大阪四ﾂ橋新町ビル,四ツ橋駅徒歩2分以上,06-6531-5201,07:00〜22:00,http://www.komeda.co.jp/search/shopdetail.php?id=743,TRUE,FALSE,TRUE,FALSE,34.6761802,135.4973103,"88席
(禁煙:54/喫煙:34)"
159,東大阪吉田店 | 珈琲所コメダ珈琲店,大阪府,東大阪市,島之内2丁目4-27,吉田駅徒歩6分以上,072-921-1495,07:00〜23:00,http://www.komeda.co.jp/search/shopdetail.php?id=700,TRUE,FALSE,TRUE,FALSE,34.6764999,135.6228992,"95席
(禁煙:74/喫煙:21)"
160,神戸ハーバーランド店 | 珈琲所コメダ珈琲店,兵庫県,神戸市,中央区東川崎町1丁目3番3号,ハーバーランド駅徒歩1分以上,078-341-0028,07:00〜22:00,http://www.komeda.co.jp/search/shopdetail.php?id=674,TRUE,FALSE,TRUE,FALSE,34.6785841,135.1803072,"82席
(禁煙:60/喫煙:22)"
161,奈良中町店 | 珈琲所コメダ珈琲店,奈良県,奈良市,中町2595-2,富雄駅徒歩24分以上,0742-51-2777,07:00〜23:00,http://www.komeda.co.jp/search/shopdetail.php?id=502,TRUE,FALSE,TRUE,FALSE,34.6796557,135.7411859,"90席
(禁煙:52/喫煙:38)"
162,益田あけぼの店 | 珈琲所コメダ珈琲店,島根県,益田市,あけぼの西町9-13,益田駅徒歩5分以上,0856-25-7766,07:00〜23:00,http://www.komeda.co.jp/search/shopdetail.php?id=812,TRUE,FALSE,TRUE,FALSE,34.6812637,131.8374235,"96席
(禁煙:74/喫煙:22)"
163,久居店 | 珈琲所コメダ珈琲店,三重県,津市,久居北口町510-1,久居駅徒歩11分以上,059-254-6111,07:30〜23:30,http://www.komeda.co.jp/search/shopdetail.php?id=271,FALSE,FALSE,TRUE,FALSE,34.6818251,136.4735897,"98席
(禁煙:58/喫煙:40)"
164,大阪本町店 | 珈琲所コメダ珈琲店,大阪府,大阪市,中央区本町4-4-25,本町駅徒歩2分以上,06-6252-0100,07:00〜23:00,http://www.komeda.co.jp/search/shopdetail.php?id=360,TRUE,FALSE,TRUE,FALSE,34.6832583,135.4988796,"81席
(禁煙:44/喫煙:37)"
165,堺筋本町店 | 珈琲所コメダ珈琲店,大阪府,大阪市,中央区本町2-2-51F,堺筋本町駅徒歩3分以上,06-6264-6613,07:00〜23:00,http://www.komeda.co.jp/search/shopdetail.php?id=777,TRUE,TRUE,TRUE,FALSE,34.6833111,135.5041458,"62席
(禁煙:45/喫煙:17)"
166,奈良二条大路店 | 珈琲所コメダ珈琲店,奈良県,奈良市,二条大路南4丁目2-1,尼ヶ辻駅徒歩11分以上,0742-93-8740,07:00〜23:00,http://www.komeda.co.jp/search/shopdetail.php?id=371,TRUE,FALSE,TRUE,FALSE,34.6846481,135.7909265,"100席
(禁煙:45/喫煙:55)"
167,深江橋店 | 珈琲所コメダ珈琲店,大阪府,大阪市,城東区永田2-17-15,放出駅徒歩8分以上,06-6964-7277,07:00〜19:00,http://www.komeda.co.jp/search/shopdetail.php?id=582,TRUE,FALSE,TRUE,FALSE,34.6849702,135.5584774,"96席
(禁煙:72/喫煙:24)"
168,豊橋大清水店 | 珈琲所コメダ珈琲店,愛知県,豊橋市,南大清水町字富士見618-1,大清水駅徒歩14分以上,0532-35-7337,07:00〜23:00,http://www.komeda.co.jp/search/shopdetail.php?id=742,TRUE,FALSE,TRUE,FALSE,34.6870085,137.3624219,"97席
(禁煙:70/喫煙:27)"
169,北浜南店 | 珈琲所コメダ珈琲店,大阪府,大阪市,中央区淡路町2丁目1-1,北浜駅徒歩5分以上,06-6205-0023,07:00〜23:00※日祝07:00〜22:00,http://www.komeda.co.jp/search/shopdetail.php?id=593,FALSE,FALSE,TRUE,FALSE,34.6871746,135.5062871,"83席
(禁煙:64/喫煙:19)"
170,大阪土佐堀店 | 珈琲所コメダ珈琲店,大阪府,大阪市,西区土佐堀2-2-4土佐堀ダイビル1F,肥後橋駅徒歩8分以上,06-6136-3014,07:00〜22:00,http://www.komeda.co.jp/search/shopdetail.php?id=370,TRUE,FALSE,TRUE,FALSE,34.6886327,135.4908005,"64席
(禁煙:40/喫煙:24)"
171,明石大久保店 | 珈琲所コメダ珈琲店,兵庫県,明石市,大久保町大窪字村北1725-3,大久保駅徒歩23分以上,078-935-5311,07:00〜23:00,http://www.komeda.co.jp/search/shopdetail.php?id=520,FALSE,FALSE,TRUE,FALSE,34.6962069,134.943252,"106席
(禁煙:76/喫煙:30)"
172,神戸西神南店 | 珈琲所コメダ珈琲店,兵庫県,神戸市,西区井吹台西町1丁目1番2号1,西神南駅徒歩3分以上,078-997-2828,07:00〜23:00,http://www.komeda.co.jp/search/shopdetail.php?id=758,TRUE,FALSE,TRUE,FALSE,34.698102,135.0286333,"96席
(禁煙:72/喫煙:24)"
173,浜松志都呂店 | 珈琲所コメダ珈琲店,静岡県,浜松市,西区西鴨江町646-4,高塚駅徒歩23分以上,053-440-6677,07:30〜23:00,http://www.komeda.co.jp/search/shopdetail.php?id=319,TRUE,FALSE,TRUE,FALSE,34.6989515,137.665976,"102席
(禁煙:60/喫煙:42)"
174,浜松領家店 | 珈琲所コメダ珈琲店,静岡県,浜松市,中区領家1ｰ2-11,浜松駅徒歩20分以上,053-467-2468,07:30〜23:00,http://www.komeda.co.jp/search/shopdetail.php?id=280,FALSE,FALSE,TRUE,FALSE,34.6993225,137.7503248,"113席
(禁煙:58/喫煙:55)"
175,今福鶴見店 | 珈琲所コメダ珈琲店,大阪府,大阪市,鶴見区鶴見3丁目5-8モンリーブル今福鶴見1階,今福鶴見駅徒歩3分以内,06-6786-4141,07:00〜23:00,http://www.komeda.co.jp/search/shopdetail.php?id=709,TRUE,FALSE,TRUE,FALSE,34.7018878,135.5605981,"76席
(禁煙:51/喫煙:25)"
176,浜松佐鳴台店 | 珈琲所コメダ珈琲店,静岡県,浜松市,中区佐鳴台1丁目4-18,高塚駅徒歩34分以上,053-523-8050,07:00〜22:00,http://www.komeda.co.jp/search/shopdetail.php?id=365,TRUE,FALSE,TRUE,FALSE,34.7033544,137.7027198,"92席
(禁煙:48/喫煙:44)"
177,鶴見諸口店 | 珈琲所コメダ珈琲店,大阪府,大阪市,鶴見区諸口5丁目浜8-13,鶴見緑地駅徒歩11分以上,06-6913-0800,07:00〜23:00,http://www.komeda.co.jp/search/shopdetail.php?id=523,FALSE,FALSE,TRUE,FALSE,34.7039964,135.5840667,"100席
(禁煙:72/喫煙:28)"
178,湖西店 | 珈琲所コメダ珈琲店,静岡県,湖西市,新居町中之郷3952,鷲津駅徒歩16分以上,053-594-2053,07:00〜23:00,http://www.komeda.co.jp/search/shopdetail.php?id=449,TRUE,FALSE,TRUE,FALSE,34.7064541,137.5475468,"96席
(禁煙:52/喫煙:44)"
179,天神橋筋六丁目店 | 珈琲所コメダ珈琲店,大阪府,大阪市,北区天神橋筋5-8-14ヤマシタビル1F,天神橋筋六丁目駅徒歩2分以上,06-4792-8548,07:00〜22:30,http://www.komeda.co.jp/search/shopdetail.php?id=450,TRUE,FALSE,TRUE,FALSE,34.7087077,135.5109978,"81席
(禁煙:59/喫煙:22)"
180,大東谷川店 | 珈琲所コメダ珈琲店,大阪府,大東市,谷川2丁目9-15,野崎駅徒歩13分以上,072-800-5421,07:00〜00:00,http://www.komeda.co.jp/search/shopdetail.php?id=483,TRUE,FALSE,TRUE,FALSE,34.7106407,135.6320478,"99席
(禁煙:60/喫煙:39)"
181,浜松駅北店 | 珈琲所コメダ珈琲店,静岡県,浜松市,中区中央1-5-4,遠州病院前駅徒歩4分以上,053-454-8838,07:00〜23:00,http://www.komeda.co.jp/search/shopdetail.php?id=277,TRUE,FALSE,TRUE,FALSE,34.7130983,137.7355668,"98席
(禁煙:68/喫煙:30)"
182,磐田今之浦店 | 珈琲所コメダ珈琲店,静岡県,磐田市,今之浦二丁目8-11,磐田駅徒歩16分以上,0538-36-5607,07:00〜23:00,http://www.komeda.co.jp/search/shopdetail.php?id=415,TRUE,FALSE,TRUE,FALSE,34.7174233,137.8617762,"94席
(禁煙:28/喫煙:66)"
183,津中央店 | 珈琲所コメダ珈琲店,三重県,津市,乙部2011,津新町駅徒歩23分以上,059-222-4000,07:00〜23:00,http://www.komeda.co.jp/search/shopdetail.php?id=282,TRUE,FALSE,TRUE,FALSE,34.7204903,136.5171987,"93席
(禁煙:50/喫煙:43)"
184,阪神尼崎店 | 珈琲所コメダ珈琲店,兵庫県,尼崎市,神田北通3-30-2,出屋敷駅徒歩13分以上,06-6418-5678,07:00〜23:00,http://www.komeda.co.jp/search/shopdetail.php?id=529,TRUE,FALSE,TRUE,FALSE,34.7207325,135.4139474,"94席
(禁煙:66/喫煙:28)"
185,甲子園駅前店 | 珈琲所コメダ珈琲店,兵庫県,西宮市,甲子園七番町1-27,甲子園駅徒歩1分以上,0798-44-1616,07:00〜23:00,http://www.komeda.co.jp/search/shopdetail.php?id=655,TRUE,FALSE,TRUE,FALSE,34.7230951,135.3640074,"88席
(禁煙:58/喫煙:30)"
186,豊橋三本木店 | 珈琲所コメダ珈琲店,愛知県,豊橋市,三本木町字新三本木23番地,高師駅徒歩16分以上,0532-48-8665,07:00〜23:00,http://www.komeda.co.jp/search/shopdetail.php?id=404,TRUE,FALSE,TRUE,FALSE,34.7253687,137.3945535,"92席
(禁煙:57/喫煙:35)"
187,生駒店 | 珈琲所コメダ珈琲店,奈良県,生駒市,上町2548-1,富雄駅徒歩54分以上,0743-79-3120,07:00〜00:00,http://www.komeda.co.jp/search/shopdetail.php?id=358,TRUE,FALSE,TRUE,FALSE,34.7257789,135.7188595,"107席
(禁煙:67/喫煙:40)"
188,新大阪店 | 珈琲所コメダ珈琲店,大阪府,大阪市,淀川区西中島5丁目13-9新大阪MTビル1号館1階,西中島南方駅徒歩4分以上,06-6829-6701,07:00〜23:00,http://www.komeda.co.jp/search/shopdetail.php?id=494,TRUE,FALSE,TRUE,FALSE,34.7297951,135.4993423,"77席
(禁煙:55/喫煙:22)"
189,浜松原島店 | 珈琲所コメダ珈琲店,静岡県,浜松市,東区原島町359-2,天竜川駅徒歩26分以上,053-467-2860,07:00〜23:00,http://www.komeda.co.jp/search/shopdetail.php?id=295,TRUE,FALSE,TRUE,FALSE,34.7322752,137.7714943,"100席
(禁煙:48/喫煙:52)"
190,尼崎西立花店 | 珈琲所コメダ珈琲店,兵庫県,尼崎市,西立花町3丁目15番17号,立花駅徒歩8分以上,06-6411-2828,07:00〜23:00,http://www.komeda.co.jp/search/shopdetail.php?id=707,TRUE,FALSE,TRUE,FALSE,34.733978,135.3957409,"87席
(禁煙:66/喫煙:21)"
191,阪神西宮店 | 珈琲所コメダ珈琲店,兵庫県,西宮市,六湛寺町14-5,西宮駅徒歩2分以上,0798-22-1833,07:00〜23:00,http://www.komeda.co.jp/search/shopdetail.php?id=672,TRUE,TRUE,TRUE,FALSE,34.7377853,135.3397367,"81席
(禁煙:57/喫煙:24)"
192,豊橋藤沢店 | 珈琲所コメダ珈琲店,愛知県,豊橋市,小浜町11,愛知大学前駅徒歩26分以上,0532-38-8811,07:00〜23:00,http://www.komeda.co.jp/search/shopdetail.php?id=189,TRUE,FALSE,TRUE,FALSE,34.7403716,137.3657972,"94席
(禁煙:56/喫煙:38)"
193,鈴蘭台店 | 珈琲所コメダ珈琲店,兵庫県,神戸市,北区山田町下谷上字大正坊3-4,山の街駅徒歩10分以上,078-581-5000,07:00〜23:00,http://www.komeda.co.jp/search/shopdetail.php?id=550,FALSE,FALSE,TRUE,FALSE,34.7422378,135.1592326,"102席
(禁煙:72/喫煙:30)"
194,津・県総合文化センター前店 | 珈琲所コメダ珈琲店,三重県,津市,一身田上津部田1153-1,江戸橋駅徒歩10分以上,059-232-2000,07:00〜23:00,http://www.komeda.co.jp/search/shopdetail.php?id=306,TRUE,FALSE,TRUE,FALSE,34.7448388,136.505902,"104席
(禁煙:55/喫煙:49)"
195,袋井店 | 珈琲所コメダ珈琲店,静岡県,袋井市,川井1188-8,袋井駅徒歩20分以上,0538-45-1022,07:00〜23:00,http://www.komeda.co.jp/search/shopdetail.php?id=398,TRUE,FALSE,TRUE,FALSE,34.7465486,137.911339,"104席
(禁煙:59/喫煙:45)"
196,イオンモール大日店 | 珈琲所コメダ珈琲店,大阪府,守口市,大日東町1-18イオンモール大日SC2F,大日駅徒歩2分以上,06-4252-3551,09:00〜22:00,http://www.komeda.co.jp/search/shopdetail.php?id=504,TRUE,FALSE,TRUE,FALSE,34.749439,135.580529,"89席
(禁煙:50/喫煙:39)"
197,牧之原店 | 珈琲所コメダ珈琲店,静岡県,牧之原市,細江1347-1,牧之原市役所から徒歩21分,0548-22-1009,07:00〜23:30,http://www.komeda.co.jp/search/shopdetail.php?id=746,TRUE,FALSE,TRUE,FALSE,34.7498025,138.237935,"94席
(禁煙:67/喫煙:27)"
198,武庫之荘店 | 珈琲所コメダ珈琲店,兵庫県,尼崎市,南武庫之荘1丁目20番12号,武庫之荘駅徒歩2分以上,06-6433-0144,07:00〜23:00,http://www.komeda.co.jp/search/shopdetail.php?id=763,TRUE,FALSE,TRUE,FALSE,34.7508902,135.3917492,"84席
(禁煙:63/喫煙:21)"
199,イオン赤穂店 | 珈琲所コメダ珈琲店,兵庫県,赤穂市,中広字別所55-3,播州赤穂駅徒歩10分以上,0791-56-5569,08:00〜21:00,http://www.komeda.co.jp/search/shopdetail.php?id=873,TRUE,FALSE,TRUE,FALSE,34.7557901,134.4007189,"93席
(禁煙:58/喫煙:35)"
200,加古川平野店 | 珈琲所コメダ珈琲店,兵庫県,加古川市,加古川町平野478,加古川駅徒歩12分以上,079-423-2313,07:00〜23:00※金土祝前日07:00〜0:00,http://www.komeda.co.jp/search/shopdetail.php?id=476,FALSE,FALSE,TRUE,FALSE,34.7605111,134.844066,"103席
(禁煙:70/喫煙:33)"
201,尼崎つかしん店 | 珈琲所コメダ珈琲店,兵庫県,尼崎市,塚口本町4丁目8-1つかしん内東町南館1階,猪名寺駅徒歩6分以上,06-6424-3712,10:00〜21:00,http://www.komeda.co.jp/search/shopdetail.php?id=484,TRUE,FALSE,TRUE,FALSE,34.7616068,135.4189324,"78席
(禁煙:46/喫煙:32)"
202,豊橋平川本町店 | 珈琲所コメダ珈琲店,愛知県,豊橋市,平川本町一丁目1-11,井原駅徒歩3分以上,0532-21-5953,07:00〜23:00,http://www.komeda.co.jp/search/shopdetail.php?id=353,FALSE,FALSE,TRUE,FALSE,34.7618346,137.4224352,"104席
(禁煙:49/喫煙:55)"
203,南摂津駅南店 | 珈琲所コメダ珈琲店,大阪府,摂津市,東一津屋11番31号,南摂津駅徒歩1分以上,06-6349-5755,07:00〜23:00,http://www.komeda.co.jp/search/shopdetail.php?id=834,TRUE,FALSE,TRUE,FALSE,34.7645721,135.5694079,"95席
(禁煙:71/喫煙:24)"
204,伊丹山田店 | 珈琲所コメダ珈琲店,兵庫県,伊丹市,山田4丁目7番38号,武庫之荘駅徒歩33分以上,072-781-5225,07:00〜23:00,http://www.komeda.co.jp/search/shopdetail.php?id=617,TRUE,FALSE,TRUE,FALSE,34.7714715,135.3851159,"96席
(禁煙:60/喫煙:36)"
205,浜松三方原店 | 珈琲所コメダ珈琲店,静岡県,浜松市,北区三方原町237-1,さぎの宮駅徒歩64分以上,053-439-8881,07:00〜23:00,http://www.komeda.co.jp/search/shopdetail.php?id=334,TRUE,FALSE,TRUE,FALSE,34.7714743,137.7107997,"100席
(禁煙:46/喫煙:54)"
206,伊賀上野店 | 珈琲所コメダ珈琲店,三重県,伊賀市,平野城北町108,上野市駅徒歩10分以上,0595-26-6120,07:30〜00:00,http://www.komeda.co.jp/search/shopdetail.php?id=284,TRUE,FALSE,TRUE,FALSE,34.7735782,136.1325073,"106席
(禁煙:62/喫煙:44)"
207,伊丹昆陽店 | 珈琲所コメダ珈琲店,兵庫県,伊丹市,昆陽東6丁目3番26号,伊丹駅徒歩15分以上,072-772-8833,07:00〜23:00,http://www.komeda.co.jp/search/shopdetail.php?id=644,TRUE,FALSE,TRUE,FALSE,34.7763182,135.4022889,"103席
(禁煙:84/喫煙:19)"
208,高砂松陽店 | 珈琲所コメダ珈琲店,兵庫県,高砂市,伊保崎6-10-15,山陽曽根駅徒歩14分以上,079-449-3550,07:00〜23:00,http://www.komeda.co.jp/search/shopdetail.php?id=670,TRUE,FALSE,TRUE,FALSE,34.7768473,134.7838588,"95席
(禁煙:70/喫煙:25)"
209,掛川宮脇店 | 珈琲所コメダ珈琲店,静岡県,掛川市,宮脇一丁目15番地の12,掛川駅徒歩23分以上,0537-62-4140,07:00〜23:00,http://www.komeda.co.jp/search/shopdetail.php?id=432,TRUE,TRUE,TRUE,FALSE,34.7795214,138.0280068,"110席
(禁煙:76/喫煙:34)"
210,イオンモール伊丹店 | 珈琲所コメダ珈琲店,兵庫県,伊丹市,藤ノ木1丁目1-1,伊丹駅徒歩13分以上,072-744-2250,09:00〜22:00,http://www.komeda.co.jp/search/shopdetail.php?id=686,FALSE,FALSE,TRUE,FALSE,34.7817621,135.4235449,"98席
(禁煙:72/喫煙:26)"
211,豊橋下地店 | 珈琲所コメダ珈琲店,愛知県,豊橋市,下地字操穴32,下地駅徒歩26分以上,0532-57-2064,07:00〜22:00,http://www.komeda.co.jp/search/shopdetail.php?id=208,FALSE,FALSE,TRUE,FALSE,34.7879077,137.3886021,"94席
(禁煙:62/喫煙:32)"
212,枚方南店 | 珈琲所コメダ珈琲店,大阪府,枚方市,釈尊寺町8番1号,郡津駅徒歩8分以上,072-860-2070,07:00〜23:30,http://www.komeda.co.jp/search/shopdetail.php?id=492,TRUE,FALSE,TRUE,FALSE,34.7888878,135.6687182,"102席
(禁煙:66/喫煙:36)"
213,島田吉田インター店 | 珈琲所コメダ珈琲店,静岡県,島田市,井口826,六合駅徒歩69分以上,0547-30-0005,07:00〜23:30,http://www.komeda.co.jp/search/shopdetail.php?id=669,TRUE,FALSE,TRUE,FALSE,34.7982406,138.229825,"98席
(禁煙:69/喫煙:29)"
214,京田辺三山木店 | 珈琲所コメダ珈琲店,京都,府京田辺市,三山木高飛26-1,三山木駅徒歩3分以内,0774-62-3550,07:30〜22:30,http://www.komeda.co.jp/search/shopdetail.php?id=473,FALSE,FALSE,TRUE,FALSE,34.7989297,135.7861437,"92席
(禁煙:62/喫煙:30)"
215,豊中上新田店 | 珈琲所コメダ珈琲店,大阪府,豊中市,上新田4丁目29-16,桃山台駅徒歩12分以上,06-6170-3988,07:00〜23:00,http://www.komeda.co.jp/search/shopdetail.php?id=741,TRUE,FALSE,TRUE,FALSE,34.8002167,135.4992252,"98席
(禁煙:75/喫煙:23)"
216,小坂井店 | 珈琲所コメダ珈琲店,愛知県,豊川市,伊奈町慶応23-194,伊奈駅徒歩11分以上,0533-78-5959,07:00〜21:00,http://www.komeda.co.jp/search/shopdetail.php?id=325,FALSE,FALSE,TRUE,FALSE,34.8024515,137.3456073,"95席
(禁煙:72/喫煙:23)"
217,三木平田店 | 珈琲所コメダ珈琲店,兵庫県,三木市,平田2丁目1-5,大村駅徒歩8分以上,0794-82-7688,07:00〜23:00,http://www.komeda.co.jp/search/shopdetail.php?id=531,TRUE,FALSE,TRUE,FALSE,34.8046154,134.9755092,"96席
(禁煙:70/喫煙:26)"
218,阪急石橋駅前店 | 珈琲所コメダ珈琲店,大阪府,池田市,石橋1丁目8番1号,石橋駅徒歩1分以上,072-763-0023,07:00〜23:00,http://www.komeda.co.jp/search/shopdetail.php?id=839,TRUE,FALSE,TRUE,FALSE,34.8079263,135.4443762,"79席
(禁煙:55/喫煙:24)"
219,浜松浜北店 | 珈琲所コメダ珈琲店,静岡県,浜松市,浜北区本沢合118-3,遠州小林駅徒歩6分以上,053-545-5552,07:00〜23:00,http://www.komeda.co.jp/search/shopdetail.php?id=388,FALSE,FALSE,TRUE,FALSE,34.8092935,137.8002288,"95席
(禁煙:54/喫煙:41)"
220,イオンモール茨木店 | 珈琲所コメダ珈琲店,大阪府,茨木市,松ヶ本町8-30,茨木駅徒歩6分以上,072-646-8021,07:00〜22:00,http://www.komeda.co.jp/search/shopdetail.php?id=685,FALSE,FALSE,TRUE,FALSE,34.811035,135.558289,"77席
(禁煙:56/喫煙:21)"
221,枚方東インター店 | 珈琲所コメダ珈琲店,大阪府,枚方市,杉1丁目1番8号,藤阪駅徒歩19分以上,072-808-5552,07:00〜23:00,http://www.komeda.co.jp/search/shopdetail.php?id=378,TRUE,FALSE,TRUE,FALSE,34.8126727,135.7175241,"101席
(禁煙:65/喫煙:36)"
222,姫路市役所南店 | 珈琲所コメダ珈琲店,兵庫県,姫路市,佃町33番地,手柄駅徒歩10分以上,079-287-3350,07:00〜23:00,http://www.komeda.co.jp/search/shopdetail.php?id=511,TRUE,FALSE,TRUE,FALSE,34.8144158,134.6861389,"95席
(禁煙:62/喫煙:33)"
223,阪急茨木駅前店 | 珈琲所コメダ珈琲店,大阪府,茨木市,双葉町8-20桜梅通りビル1F,茨木市駅徒歩1分以上,072-634-9266,07:30〜22:00,http://www.komeda.co.jp/search/shopdetail.php?id=396,FALSE,FALSE,TRUE,FALSE,34.8164809,135.57722,"62席
(禁煙:22/喫煙:40)"
224,蒲郡三谷店 | 珈琲所コメダ珈琲店,愛知県,蒲郡,市三谷北通1-159,三河三谷駅徒歩2分以上,0533-69-8868,07:00〜23:00,http://www.komeda.co.jp/search/shopdetail.php?id=227,FALSE,FALSE,TRUE,FALSE,34.8192318,137.2505833,"78席
(禁煙:26/喫煙:52)"
225,姫路国分寺店 | 珈琲所コメダ珈琲店,兵庫県,姫路市,御国野町御着字大門687-1,御着駅徒歩5分以上,079-251-2030,07:00〜23:00,http://www.komeda.co.jp/search/shopdetail.php?id=590,TRUE,FALSE,TRUE,FALSE,34.8210686,134.734797,"113席
(禁煙:85/喫煙:28)"
226,蒲郡競艇場前店 | 珈琲所コメダ珈琲店,愛知県,蒲郡,市拾石町塩浜8番地,蒲郡競艇場前駅徒歩3分以上,0533-68-8878,07:00〜23:00,http://www.komeda.co.jp/search/shopdetail.php?id=346,FALSE,FALSE,TRUE,FALSE,34.8225009,137.202492,"104席
(禁煙:51/喫煙:53)"
227,アステ川西店 | 珈琲所コメダ珈琲店,兵庫県,川西市,栄町25-1アステ川西3Ｆ,川西能勢口駅徒歩2分以上,072-767-1266,10:00〜22:00,http://www.komeda.co.jp/search/shopdetail.php?id=833,TRUE,FALSE,FALSE,FALSE,34.8265127,135.4129451,"88席
(禁煙:88/喫煙:0)"
228,箕面小野原店 | 珈琲所コメダ珈琲店,大阪府,箕面市,小野原西6丁目11-10,北千里駅徒歩16分以上,072-734-7444,07:00〜23:00,http://www.komeda.co.jp/search/shopdetail.php?id=401,TRUE,FALSE,TRUE,FALSE,34.8300332,135.5142813,"94席
(禁煙:58/喫煙:36)"
229,豊川末広通店 | 珈琲所コメダ珈琲店,愛知県,豊川市,末広通3-44-3,豊川稲荷駅徒歩13分以上,0533-80-7123,07:00〜23:00,http://www.komeda.co.jp/search/shopdetail.php?id=232,TRUE,FALSE,TRUE,FALSE,34.8302567,137.3922405,"92席
(禁煙:42/喫煙:50)"
230,姫路太子店 | 珈琲所コメダ珈琲店,兵庫県,揖保郡,太子町東出221-1,網干駅徒歩31分以上,079-275-1151,07:00〜23:00,http://www.komeda.co.jp/search/shopdetail.php?id=551,TRUE,FALSE,TRUE,FALSE,34.8322386,134.5953029,"107席
(禁煙:83/喫煙:24)"
231,城陽長池店 | 珈琲所コメダ珈琲店,京都,府城陽市,長池北清水112番1,長池駅徒歩3分以上,0774-66-7578,07:00〜00:00,http://www.komeda.co.jp/search/shopdetail.php?id=667,TRUE,FALSE,TRUE,FALSE,34.8405928,135.788436,"96席
(禁煙:66/喫煙:30)"
232,白子稲生店 | 珈琲所コメダ珈琲店,三重県,鈴鹿市,稲生西3ｰ12-40,鈴鹿サーキット稲生駅徒歩4分以上,059-388-7101,07:00〜22:00,http://www.komeda.co.jp/search/shopdetail.php?id=252,TRUE,FALSE,TRUE,FALSE,34.8410028,136.5587449,"100席
(禁煙:56/喫煙:44)"
233,枚方とうかえでの道店 | 珈琲所コメダ珈琲店,大阪府,枚方市,招提元町3丁目30-22,樟葉駅徒歩36分以上,072-860-7611,07:00〜23:00,http://www.komeda.co.jp/search/shopdetail.php?id=588,TRUE,FALSE,TRUE,FALSE,34.84171,135.6881209,"97席
(禁煙:71/喫煙:26)"
234,武豊里中店 | 珈琲所コメダ珈琲店,愛知県,知多郡,武豊町字忠白田1-1,知多武豊駅徒歩15分以上,0569-72-6878,07:30〜23:00,http://www.komeda.co.jp/search/shopdetail.php?id=247,FALSE,FALSE,TRUE,FALSE,34.8420886,136.9223222,"89席
(禁煙:58/喫煙:31)"
235,豊川御油店 | 珈琲所コメダ珈琲店,愛知県,豊川市,御油町八面横21番,御油駅徒歩4分以上,0533-87-3552,07:00〜23:00,http://www.komeda.co.jp/search/shopdetail.php?id=764,TRUE,FALSE,TRUE,FALSE,34.8433718,137.3218731,"97席
(禁煙:72/喫煙:25)"
236,藤枝駅南店 | 珈琲所コメダ珈琲店,静岡県,藤枝市,前島1-2-1オーレ藤枝1F,藤枝駅徒歩2分以上,054-636-2020,07:00〜23:00,http://www.komeda.co.jp/search/shopdetail.php?id=382,TRUE,FALSE,TRUE,FALSE,34.8487711,138.2519331,"77席
(禁煙:54/喫煙:23)"
237,西尾寺津店 | 珈琲所コメダ珈琲店,愛知県,西尾市,寺津2ｰ10ｰ14,中畑駅徒歩29分以上,0563-59-0009,07:00〜22:00,http://www.komeda.co.jp/search/shopdetail.php?id=241,FALSE,FALSE,TRUE,FALSE,34.8492037,137.0195478,"76席
(禁煙:52/喫煙:24)"
238,阪急高槻市駅南店 | 珈琲所コメダ珈琲店,大阪府,高槻市,城北町2-4-1ファイブプラザ2階,高槻市駅徒歩3分以内,072-671-1212,07:00〜23:00,http://www.komeda.co.jp/search/shopdetail.php?id=767,TRUE,FALSE,TRUE,FALSE,34.8494934,135.6232559,"76席
(禁煙:54/喫煙:22)"
239,JR高槻駅北店 | 珈琲所コメダ珈琲店,大阪府,高槻市,芥川町1-10-7アーバネックス高槻芥川1F,高槻駅徒歩2分以上,072-682-5155,07:00〜23:00,http://www.komeda.co.jp/search/shopdetail.php?id=832,TRUE,FALSE,TRUE,FALSE,34.8524742,135.6162257,"58席
(禁煙:44/喫煙:14)"
240,亀山上野店 | 珈琲所コメダ珈琲店,三重県,亀山市,上野町14-20,亀山駅徒歩27分以上,0595-97-3800,07:00〜23:00,http://www.komeda.co.jp/search/shopdetail.php?id=684,TRUE,FALSE,TRUE,FALSE,34.8561309,136.4708784,"102席
(禁煙:80/喫煙:22)"
241,西尾今川店 | 珈琲所コメダ珈琲店,愛知県,西尾市,今川町馬捨場16,西尾駅徒歩11分以上,0563-53-1282,07:00〜22:30,http://www.komeda.co.jp/search/shopdetail.php?id=149,TRUE,FALSE,TRUE,FALSE,34.85754,137.0613805,"84席
(禁煙:0/喫煙:84)"
242,藤枝築地店 | 珈琲所コメダ珈琲店,静岡県,藤枝市,築地527-1,西焼津駅徒歩16分以上,054-644-1009,07:00〜00:00,http://www.komeda.co.jp/search/shopdetail.php?id=397,TRUE,FALSE,TRUE,FALSE,34.8594739,138.272571,"101席
(禁煙:58/喫煙:43)"
243,京都八幡店 | 珈琲所コメダ珈琲店,京都,府八幡市,戸津東代60-1,男山山上駅徒歩39分以上,075-982-8122,07:00〜23:00,http://www.komeda.co.jp/search/shopdetail.php?id=355,TRUE,FALSE,TRUE,FALSE,34.865046,135.7233087,"107席
(禁煙:82/喫煙:25)"
244,西尾道光寺店 | 珈琲所コメダ珈琲店,愛知県,西尾市,道光寺町堰板37ｰ1,西尾口駅徒歩3分以上,0563-57-0330,07:00〜22:30,http://www.komeda.co.jp/search/shopdetail.php?id=153,FALSE,FALSE,TRUE,FALSE,34.8729131,137.0612161,"94席
(禁煙:41/喫煙:53)"
245,鈴鹿中央通店 | 珈琲所コメダ珈琲店,三重県,鈴鹿市,西条町字東澤420,三日市駅徒歩13分以上,0593-81-0313,07:00〜00:00,http://www.komeda.co.jp/search/shopdetail.php?id=156,FALSE,FALSE,TRUE,FALSE,34.8754632,136.5712794,"96席
(禁煙:36/喫煙:60)"
246,焼津インター店 | 珈琲所コメダ珈琲店,静岡県,焼津市,八楠四丁目13-1,焼津駅徒歩22分以上,054-628-2001,07:00〜00:00,http://www.komeda.co.jp/search/shopdetail.php?id=376,TRUE,FALSE,TRUE,FALSE,34.880441,138.3045169,"114席
(禁煙:63/喫煙:51)"
247,碧南店 | 珈琲所コメダ珈琲店,愛知県,碧南市,霞浦町2-37,碧南中央駅徒歩18分以上,0566-42-6888,06:30〜22:00,http://www.komeda.co.jp/search/shopdetail.php?id=299,FALSE,FALSE,TRUE,FALSE,34.8829044,137.0028189,"94席
(禁煙:44/喫煙:50)"
248,半田瑞穂店 | 珈琲所コメダ珈琲店,愛知県,半田市,瑞穂町7ｰ11-2,半田駅徒歩19分以上,0569-24-5505,07:00〜23:00,http://www.komeda.co.jp/search/shopdetail.php?id=201,TRUE,FALSE,TRUE,FALSE,34.8851574,136.9405526,"94席
(禁煙:62/喫煙:32)"
249,半田宮本店 | 珈琲所コメダ珈琲店,愛知県,半田市,宮本町5-303-12,成岩駅徒歩18分以上,0569-24-6327,07:00〜23:00,http://www.komeda.co.jp/search/shopdetail.php?id=113,FALSE,FALSE,TRUE,FALSE,34.8873812,136.9073421,"83席
(禁煙:67/喫煙:16)"
250,幸田北店 | 珈琲所コメダ珈琲店,愛知県,額田郡,幸田町相見越丸8,幸田駅徒歩46分以上,0564-63-6550,07:00〜22:00,http://www.komeda.co.jp/search/shopdetail.php?id=229,TRUE,FALSE,TRUE,FALSE,34.8889184,137.1647078,"98席
(禁煙:60/喫煙:38)"
251,155号線常滑店 | 珈琲所コメダ珈琲店,愛知県,常滑市,錦町1ｰ45,多屋駅徒歩12分以上,0569-36-1230,06:30〜23:00,http://www.komeda.co.jp/search/shopdetail.php?id=292,TRUE,FALSE,TRUE,FALSE,34.8992635,136.8397716,"145席
(禁煙:95/喫煙:50)"
252,京都宇治店 | 珈琲所コメダ珈琲店,京都,府宇治市,槇島町五才田5番地,小倉駅徒歩16分以上,0774-39-8768,07:00〜00:00,http://www.komeda.co.jp/search/shopdetail.php?id=392,TRUE,FALSE,TRUE,FALSE,34.8992699,135.7923071,"105席
(禁煙:63/喫煙:42)"
253,浜田店 | 珈琲所コメダ珈琲店,島根県,浜田市,港町201番地1,浜田駅徒歩23分以上,0855-25-0205,07:00〜23:00,http://www.komeda.co.jp/search/shopdetail.php?id=850,TRUE,FALSE,TRUE,FALSE,34.9017048,132.0706229,"98席
(禁煙:78/喫煙:20)"
254,しんしろ店 | 珈琲所コメダ珈琲店,愛知県,新城市,片山字西野畑543-3,新城駅徒歩8分以上,0536-23-8835,07:00〜23:00,http://www.komeda.co.jp/search/shopdetail.php?id=453,TRUE,FALSE,TRUE,FALSE,34.9059089,137.4949042,"92席
(禁煙:64/喫煙:28)"
255,半田亀崎店 | 珈琲所コメダ珈琲店,愛知県,半田市,新居町3丁目84の1,亀崎駅徒歩17分以上,0569-29-5688,07:00〜23:00,http://www.komeda.co.jp/search/shopdetail.php?id=817,TRUE,FALSE,TRUE,FALSE,34.9086921,136.9559115,"96席
(禁煙:72/喫煙:24)"
256,半田やなべ店 | 珈琲所コメダ珈琲店,愛知県,半田市,岩滑高山町6-22-12,半田口駅徒歩14分以上,0569-26-2520,06:30〜23:00※日祝06:30〜22:00,http://www.komeda.co.jp/search/shopdetail.php?id=141,TRUE,FALSE,TRUE,FALSE,34.9094854,136.9142323,"100席
(禁煙:64/喫煙:36)"
257,岡崎若松店 | 珈琲所コメダ珈琲店,愛知県,岡崎市,若松町字横手16-1,岡崎駅徒歩20分以上,0564-58-7688,06:30〜22:30,http://www.komeda.co.jp/search/shopdetail.php?id=165,FALSE,FALSE,TRUE,FALSE,34.9135487,137.1637403,"97席
(禁煙:74/喫煙:23)"
258,四日市小古曽店 | 珈琲所コメダ珈琲店,三重県,四日市,市小古曽東1-2-26,小古曽駅徒歩6分以上,0593-49-3555,07:00〜22:00,http://www.komeda.co.jp/search/shopdetail.php?id=210,FALSE,FALSE,TRUE,FALSE,34.9288259,136.5977021,"96席
(禁煙:40/喫煙:56)"
259,岡崎上和田店 | 珈琲所コメダ珈琲店,愛知県,岡崎市,天白町字東池25-1,六名駅徒歩14分以上,0564-71-5560,06:00〜22:30,http://www.komeda.co.jp/search/shopdetail.php?id=183,FALSE,FALSE,TRUE,FALSE,34.933613,137.1454687,"94席
(禁煙:70/喫煙:24)"
260,高浜店 | 珈琲所コメダ珈琲店,愛知県,高浜市,神明町7ｰ1ｰ18,三河高浜駅徒歩15分以上,0566-52-9788,06:30〜23:00,http://www.komeda.co.jp/search/shopdetail.php?id=131,FALSE,FALSE,TRUE,FALSE,34.9336569,137.0014725,"118席
(禁煙:78/喫煙:40)"
261,滝野社インター店 | 珈琲所コメダ珈琲店,兵庫県,加東市,北野400番1,滝野駅徒歩9分以上,0795-48-3343,07:00〜23:00,http://www.komeda.co.jp/search/shopdetail.php?id=810,TRUE,FALSE,TRUE,FALSE,34.9364683,134.9593468,"94席
(禁煙:74/喫煙:20)"
262,京都伏見店 | 珈琲所コメダ珈琲店,京都,府京都市,伏見区下鳥羽東柳長町26番地,伏見駅徒歩25分以上,075-612-2111,07:00〜00:00,http://www.komeda.co.jp/search/shopdetail.php?id=421,TRUE,FALSE,TRUE,FALSE,34.9370431,135.7448084,"115席
(禁煙:75/喫煙:40)"
263,岡崎大西店 | 珈琲所コメダ珈琲店,愛知県,岡崎市,大西2丁目1-6,男川駅徒歩8分以上,0564-28-1555,07:40〜00:00,http://www.komeda.co.jp/search/shopdetail.php?id=163,FALSE,FALSE,TRUE,FALSE,34.9427494,137.1849454,"90席
(禁煙:20/喫煙:70)"
264,京都醍醐店 | 珈琲所コメダ珈琲店,京都,府京都市,伏見区醍醐江奈志町10-19,石田駅徒歩8分以上,075-573-5025,07:00〜23:00,http://www.komeda.co.jp/search/shopdetail.php?id=835,TRUE,FALSE,TRUE,FALSE,34.9443412,135.8085472,"92席
(禁煙:64/喫煙:28)"
265,岡崎上六名店 | 珈琲所コメダ珈琲店,愛知県,岡崎市,上六名2ｰ9ｰ1,岡崎公園前駅徒歩5分以上,0564-54-3001,08:00〜22:00,http://www.komeda.co.jp/search/shopdetail.php?id=215,FALSE,FALSE,TRUE,FALSE,34.9502451,137.1555478,"94席
(禁煙:33/喫煙:61)"
266,四日市笹川通店 | 珈琲所コメダ珈琲店,三重県,四日市,市日永西3-8-11,南日永駅徒歩6分以上,059-345-2014,07:00〜23:00,http://www.komeda.co.jp/search/shopdetail.php?id=239,TRUE,FALSE,TRUE,FALSE,34.9509488,136.5955296,"86席
(禁煙:46/喫煙:40)"
267,東浦店 | 珈琲所コメダ珈琲店,愛知県,知多郡,東浦町大字生路字池下5,東浦駅徒歩3分以上,0562-84-7025,06:30〜20:00※土06:30〜22:00,http://www.komeda.co.jp/search/shopdetail.php?id=169,FALSE,FALSE,TRUE,FALSE,34.9515123,136.9705136,"96席
(禁煙:42/喫煙:54)"
268,安城末広店 | 珈琲所コメダ珈琲店,愛知県,安城市,錦町33,安城駅徒歩11分以上,0566-74-1146,06:30〜22:30,http://www.komeda.co.jp/search/shopdetail.php?id=120,TRUE,FALSE,TRUE,FALSE,34.9539726,137.0831357,"90席
(禁煙:58/喫煙:32)"
269,阿久比店 | 珈琲所コメダ珈琲店,愛知県,知多郡,阿久比町大字白沢天神前39-1,白沢駅徒歩1分以上,0569-47-1711,07:00〜22:30,http://www.komeda.co.jp/search/shopdetail.php?id=206,TRUE,FALSE,TRUE,FALSE,34.9543577,136.9142062,"94席
(禁煙:58/喫煙:36)"
270,静岡インター店 | 珈琲所コメダ珈琲店,静岡県,静岡市,駿河区緑が丘町2-1,静岡駅徒歩27分以上,054-202-8181,07:00〜00:00,http://www.komeda.co.jp/search/shopdetail.php?id=331,TRUE,FALSE,TRUE,FALSE,34.9554977,138.3818436,"104席
(禁煙:70/喫煙:34)"
271,安城店 | 珈琲所コメダ珈琲店,愛知県,安城市,朝日町20-20,南安城駅徒歩7分以上,0566-74-6600,07:00〜22:30,http://www.komeda.co.jp/search/shopdetail.php?id=65,FALSE,FALSE,TRUE,FALSE,34.9561087,137.0905016,"102席
(禁煙:46/喫煙:56)"
272,岡崎矢作店 | 珈琲所コメダ珈琲店,愛知県,岡崎市,矢作町字桜海道14-1,矢作橋駅徒歩6分以上,0564-32-2155,07:00〜23:00,http://www.komeda.co.jp/search/shopdetail.php?id=309,FALSE,FALSE,TRUE,FALSE,34.9579302,137.1435014,"99席
(禁煙:58/喫煙:41)"
273,近鉄四日市店 | 珈琲所コメダ珈琲店,三重県,四日市,市安島1-1-20近鉄百貨店ふれあいモール内,近鉄四日市駅徒歩1分以上,059-328-4147,07:00〜22:30,http://www.komeda.co.jp/search/shopdetail.php?id=383,TRUE,FALSE,TRUE,FALSE,34.9681716,136.6178061,"60席
(禁煙:41/喫煙:19)"
274,水口店 | 珈琲所コメダ珈琲店,滋賀県,甲賀市,水口町南林口40,水口城南駅徒歩9分以上,0748-63-2328,07:00〜23:00,http://www.komeda.co.jp/search/shopdetail.php?id=315,FALSE,TRUE,TRUE,FALSE,34.9705248,136.1589952,"102席
(禁煙:44/喫煙:58)"
275,岡崎伊賀店 | 珈琲所コメダ珈琲店,愛知県,岡崎市,伊賀町7-71,北岡崎駅徒歩14分以上,0564-22-5855,07:00〜23:00,http://www.komeda.co.jp/search/shopdetail.php?id=790,TRUE,FALSE,TRUE,FALSE,34.9721824,137.1685182,"92席
(禁煙:68/喫煙:24)"
276,四日市病院前店 | 珈琲所コメダ珈琲店,三重県,四日市,市久保田1-4-28,中川原駅徒歩10分以上,059-352-5890,07:15〜23:00,http://www.komeda.co.jp/search/shopdetail.php?id=200,TRUE,FALSE,TRUE,FALSE,34.9737803,136.6087416,"116席
(禁煙:76/喫煙:40)"
277,京都洛西店 | 珈琲所コメダ珈琲店,京都,府京都市,西京区大枝沓掛町9-140,上桂駅徒歩42分以上,075-925-5100,07:00〜23:00,http://www.komeda.co.jp/search/shopdetail.php?id=465,TRUE,FALSE,TRUE,FALSE,34.9748359,135.6695822,"84席
(禁煙:64/喫煙:20)"
278,瀬田川唐橋店 | 珈琲所コメダ珈琲店,滋賀県,大津市,瀬田1丁目31番2号,京阪石山駅徒歩10分以上,077-547-3611,07:00〜22:00,http://www.komeda.co.jp/search/shopdetail.php?id=503,TRUE,FALSE,TRUE,FALSE,34.9778594,135.9088996,"97席
(禁煙:60/喫煙:37)"
279,東刈谷店 | 珈琲所コメダ珈琲店,愛知県,刈谷市,松栄町1ｰ14-8,東刈谷駅徒歩13分以上,0566-62-8575,06:00〜23:00,http://www.komeda.co.jp/search/shopdetail.php?id=245,FALSE,FALSE,TRUE,FALSE,34.9796875,137.0335513,"90席
(禁煙:66/喫煙:24)"
280,四日市生桑店 | 珈琲所コメダ珈琲店,三重県,四日市,市生桑町866-8,中川原駅徒歩17分以上,059-333-6620,07:00〜22:30,http://www.komeda.co.jp/search/shopdetail.php?id=190,TRUE,FALSE,TRUE,FALSE,34.9800544,136.598637,"96席
(禁煙:54/喫煙:42)"
281,東静岡店 | 珈琲所コメダ珈琲店,静岡県,静岡市,駿河区曲金六丁目378番1,柚木駅徒歩5分以上,054-289-1009,07:00〜00:00,http://www.komeda.co.jp/search/shopdetail.php?id=390,TRUE,TRUE,TRUE,FALSE,34.9803954,138.4102347,"92席
(禁煙:57/喫煙:35)"
282,イオンモールKYOTO店 | 珈琲所コメダ珈琲店,京都,府京都市,南区西九条鳥居口町1,京都駅徒歩2分以上,075-644-6466,09:00〜22:00,http://www.komeda.co.jp/search/shopdetail.php?id=761,TRUE,TRUE,TRUE,FALSE,34.9828501,135.7558278,"76席
(禁煙:58/喫煙:18)"
283,西大路八条店 | 珈琲所コメダ珈琲店,京都,府京都市,下京区梅小路高畑町17番地,西大路駅徒歩5分以上,075-311-9818,07:00〜23:00,http://www.komeda.co.jp/search/shopdetail.php?id=643,TRUE,FALSE,TRUE,FALSE,34.9839688,135.7347714,"103席
(禁煙:72/喫煙:31)"
284,刈谷司店 | 珈琲所コメダ珈琲店,愛知県,刈谷市,司町1ｰ37,刈谷市駅徒歩7分以上,0566-28-9786,06:30〜23:00,http://www.komeda.co.jp/search/shopdetail.php?id=176,FALSE,FALSE,TRUE,FALSE,34.9848638,136.9881416,"92席
(禁煙:62/喫煙:30)"
285,岡崎大樹寺店 | 珈琲所コメダ珈琲店,愛知県,岡崎市,大樹寺2ｰ7-1,大門駅徒歩5分以上,0564-25-2660,07:00〜23:00,http://www.komeda.co.jp/search/shopdetail.php?id=250,TRUE,FALSE,TRUE,FALSE,34.985025,137.1579025,"94席
(禁煙:70/喫煙:24)"
286,岡崎橋目店 | 珈琲所コメダ珈琲店,愛知県,岡崎市,小針町字神田57-1,北野桝塚駅徒歩23分以上,0564-32-4772,07:00〜23:00,http://www.komeda.co.jp/search/shopdetail.php?id=314,TRUE,FALSE,TRUE,FALSE,34.9859901,137.1269807,"100席
(禁煙:76/喫煙:24)"
287,湖南店 | 珈琲所コメダ珈琲店,滋賀県,湖南市,吉永20-1,三雲駅徒歩18分以上,0748-60-4717,07:00〜23:00,http://www.komeda.co.jp/search/shopdetail.php?id=554,FALSE,FALSE,TRUE,FALSE,34.989694,136.1057912,"96席
(禁煙:67/喫煙:29)"
288,刈谷駅南口店 | 珈琲所コメダ珈琲店,愛知県,刈谷市,南桜町1ｰ65,刈谷駅徒歩3分以上,0566-29-0277,06:00〜23:00,http://www.komeda.co.jp/search/shopdetail.php?id=186,TRUE,FALSE,TRUE,FALSE,34.9899579,137.0063898,"143席
(禁煙:75/喫煙:68)"
289,刈谷駅アカリヤ店 | 珈琲所コメダ珈琲店,愛知県,刈谷市,南桜町1-72-1アルバックスタワー刈谷駅アカリヤ1F,刈谷駅徒歩1分以上,0566-45-5801,07:00〜22:00,http://www.komeda.co.jp/search/shopdetail.php?id=807,TRUE,FALSE,FALSE,FALSE,34.9908629,137.0077927,"54席
(禁煙:54/喫煙:0)"
290,安城今村店 | 珈琲所コメダ珈琲店,愛知県,安城市,今本町4ｰ1-6,新安城駅徒歩12分以上,0566-97-2777,07:00〜23:00,http://www.komeda.co.jp/search/shopdetail.php?id=194,FALSE,FALSE,TRUE,FALSE,34.9926368,137.0793912,"70席
(禁煙:40/喫煙:30)"
291,南草津店 | 珈琲所コメダ珈琲店,滋賀県,草津市,追分南3丁目22番11号,南草津駅徒歩25分以上,077-558-7085,07:00〜00:00,http://www.komeda.co.jp/search/shopdetail.php?id=356,TRUE,FALSE,TRUE,FALSE,34.9953976,135.9639971,"115席
(禁煙:70/喫煙:45)"
292,静岡沓谷店 | 珈琲所コメダ珈琲店,静岡県,静岡市,葵区沓谷6丁目18-1,古庄駅徒歩11分以上,054-207-8380,07:00〜23:30,http://www.komeda.co.jp/search/shopdetail.php?id=363,TRUE,FALSE,TRUE,FALSE,34.9968324,138.4121007,"104席
(禁煙:46/喫煙:58)"
293,イオンモール草津店 | 珈琲所コメダ珈琲店,滋賀県,草津市,新浜町300番地,瀬田駅徒歩19分以上,077-599-5101,10:00〜22:00,http://www.komeda.co.jp/search/shopdetail.php?id=354,TRUE,FALSE,TRUE,FALSE,34.9977184,135.9173624,"93席
(禁煙:70/喫煙:23)"
294,知多寺本店 | 珈琲所コメダ珈琲店,愛知県,知多市,八幡字東水代31-6,寺本駅徒歩3分以上,0562-33-5813,06:30〜22:00,http://www.komeda.co.jp/search/shopdetail.php?id=119,FALSE,FALSE,TRUE,FALSE,34.998,136.8756761,"80席
(禁煙:20/喫煙:60)"
295,烏丸五条店 | 珈琲所コメダ珈琲店,京都,府京都市,下京区松原通烏丸東入ル南側俊成町438ホテル･京都･ベース1F,烏丸駅徒歩8分以上,075-365-1345,07:00〜23:00,http://www.komeda.co.jp/search/shopdetail.php?id=489,TRUE,FALSE,TRUE,FALSE,34.998746,135.75988,"54席
(禁煙:42/喫煙:12)"
296,知立堀切店 | 珈琲所コメダ珈琲店,愛知県,知立市,鳥居1-13-9,知立駅徒歩7分以上,0566-83-2778,06:30〜21:00※金土06:30〜21:30,http://www.komeda.co.jp/search/shopdetail.php?id=101,FALSE,FALSE,TRUE,FALSE,35.0026487,137.0358645,"90席
(禁煙:56/喫煙:34)"
297,大津膳所店 | 珈琲所コメダ珈琲店,滋賀県,大津市,馬場1丁目7-12TOKIMEKIビル1F,京阪膳所駅徒歩5分以上,077-526-8622,07:00〜23:00,http://www.komeda.co.jp/search/shopdetail.php?id=412,TRUE,FALSE,TRUE,FALSE,35.0034363,135.8807749,"77席
(禁煙:60/喫煙:17)"
298,菰野店 | 珈琲所コメダ珈琲店,三重県,三重郡,菰野町宿野神明田443-1,菰野駅徒歩15分以上,059-391-1515,07:00〜22:30,http://www.komeda.co.jp/search/shopdetail.php?id=223,TRUE,FALSE,TRUE,FALSE,35.0042178,136.5277727,"84席
(禁煙:44/喫煙:40)"
299,刈谷稲場店 | 珈琲所コメダ珈琲店,愛知県,刈谷市,稲場町1ｰ121,逢妻駅徒歩13分以上,0566-23-0075,07:00〜22:00,http://www.komeda.co.jp/search/shopdetail.php?id=175,FALSE,FALSE,TRUE,FALSE,35.004414,136.9976207,"100席
(禁煙:50/喫煙:50)"
300,大府インター店 | 珈琲所コメダ珈琲店,愛知県,大府市,宮内町4-378,南加木屋駅徒歩34分以上,0562-44-9889,06:30〜22:00,http://www.komeda.co.jp/search/shopdetail.php?id=187,TRUE,FALSE,TRUE,FALSE,35.0053311,136.9236893,"94席
(禁煙:54/喫煙:40)"
301,清水有東坂店 | 珈琲所コメダ珈琲店,静岡県,静岡市,清水区有東坂2丁目364-1,狐ヶ崎駅徒歩12分以上,054-347-1009,07:00〜23:30,http://www.komeda.co.jp/search/shopdetail.php?id=813,TRUE,FALSE,TRUE,FALSE,35.0053941,138.4659661,"94席
(禁煙:69/喫煙:25)"
302,刈谷恩田店 | 珈琲所コメダ珈琲店,愛知県,刈谷市,恩田町2-153-6,一ツ木駅徒歩14分以上,0566-27-3611,06:30〜23:00,http://www.komeda.co.jp/search/shopdetail.php?id=614,FALSE,FALSE,TRUE,FALSE,35.0058729,137.0187188,"132席
(禁煙:84/喫煙:48)"
303,大府駅前店 | 珈琲所コメダ珈琲店,愛知県,大府市,中央町6-155,大府駅徒歩2分以上,0562-44-3645,07:00〜20:00,http://www.komeda.co.jp/search/shopdetail.php?id=98,TRUE,FALSE,FALSE,FALSE,35.0088958,136.9641125,"68席
(禁煙:68/喫煙:0)"
304,河原町三条店 | 珈琲所コメダ珈琲店,京都,府京都市,中京区三条通河原町東入中島町84番2立美家ビル2F,三条駅徒歩2分以上,075-746-5700,07:00〜00:00,http://www.komeda.co.jp/search/shopdetail.php?id=591,TRUE,FALSE,TRUE,FALSE,35.0089634,135.76999,"88席
(禁煙:67/喫煙:21)"
305,京都二条駅前店 | 珈琲所コメダ珈琲店,京都,府京都市,中京区西ノ京職司町35-1パレスコート二条,二条駅徒歩1分以上,075-432-7584,07:00〜00:00,http://www.komeda.co.jp/search/shopdetail.php?id=413,FALSE,FALSE,TRUE,FALSE,35.0112253,135.7429557,"87席
(禁煙:67/喫煙:20)"
306,四日市富田店 | 珈琲所コメダ珈琲店,三重県,四日市,市十志町160-1,富田駅徒歩10分以上,059-361-7252,07:00〜22:00,http://www.komeda.co.jp/search/shopdetail.php?id=233,TRUE,FALSE,TRUE,FALSE,35.0119649,136.6443514,"94席
(禁煙:46/喫煙:48)"
307,太田川店 | 珈琲所コメダ珈琲店,愛知県,東海市,大田町東畑158,太田川駅徒歩10分以上,0562-85-6185,07:00〜22:30,http://www.komeda.co.jp/search/shopdetail.php?id=429,TRUE,FALSE,TRUE,FALSE,35.016621,136.8989641,"94席
(禁煙:70/喫煙:24)"
308,リソラ大府店 | 珈琲所コメダ珈琲店,愛知県,大府市,柊山町1丁目98番地,大府駅徒歩14分以上,0562-47-9309,07:00〜20:00,http://www.komeda.co.jp/search/shopdetail.php?id=337,TRUE,FALSE,TRUE,FALSE,35.0169863,136.9577601,"70席
(禁煙:56/喫煙:14)"
309,大津皇子が丘店 | 珈琲所コメダ珈琲店,滋賀県,大津市,皇子が丘3-7-3,西大津駅徒歩4分以上,077-524-6848,07:00〜23:00,http://www.komeda.co.jp/search/shopdetail.php?id=380,FALSE,FALSE,TRUE,FALSE,35.0232118,135.8602956,"94席
(禁煙:53/喫煙:41)"
310,刈谷一里山店 | 珈琲所コメダ珈琲店,愛知県,刈谷市,一里山町伐払39-1,一ツ木駅徒歩27分以上,0566-36-3645,07:00〜21:00,http://www.komeda.co.jp/search/shopdetail.php?id=248,FALSE,FALSE,TRUE,FALSE,35.0269494,137.0385084,"85席
(禁煙:48/喫煙:37)"
311,東海荒尾店 | 珈琲所コメダ珈琲店,愛知県,東海市,荒尾町祢崎106,新日鉄前駅徒歩21分以上,052-601-3828,07:00〜22:30,http://www.komeda.co.jp/search/shopdetail.php?id=160,TRUE,FALSE,TRUE,FALSE,35.029342,136.9140614,"91席
(禁煙:54/喫煙:37)"
312,清水インター店 | 珈琲所コメダ珈琲店,静岡県,静岡市,清水区八坂西町15-30,清水駅徒歩22分以上,054-361-5577,07:00〜23:30,http://www.komeda.co.jp/search/shopdetail.php?id=361,TRUE,FALSE,TRUE,FALSE,35.0331466,138.4767643,"115席
(禁煙:64/喫煙:51)"
313,大府名高山店 | 珈琲所コメダ珈琲店,愛知県,大府市,横根町名高山26-10,共和駅徒歩21分以上,0562-44-7721,07:00〜23:00,http://www.komeda.co.jp/search/shopdetail.php?id=221,TRUE,FALSE,TRUE,FALSE,35.0344179,136.9706421,"92席
(禁煙:59/喫煙:33)"
314,豊田若林西店 | 珈琲所コメダ珈琲店,愛知県,豊田市,若林西町北葉山21-2,若林駅徒歩20分以上,0565-54-4770,07:00〜20:00,http://www.komeda.co.jp/search/shopdetail.php?id=290,TRUE,FALSE,TRUE,FALSE,35.0389137,137.0932926,"69席
(禁煙:47/喫煙:22)"
315,大府共和店 | 珈琲所コメダ珈琲店,愛知県,大府市,共栄町8-13-3,共和駅徒歩8分以上,0562-44-1566,07:00〜22:00,http://www.komeda.co.jp/search/shopdetail.php?id=115,TRUE,FALSE,TRUE,FALSE,35.0410833,136.9541487,"98席
(禁煙:74/喫煙:24)"
316,亀岡千代川店 | 珈琲所コメダ珈琲店,京都,府亀岡市,千代川町小林北ﾝ田48-1,千代川駅徒歩10分以上,0771-21-2130,07:00〜23:00,http://www.komeda.co.jp/search/shopdetail.php?id=556,TRUE,FALSE,TRUE,FALSE,35.0423252,135.5464593,"96席
(禁煙:62/喫煙:34)"
317,栗東綣店 | 珈琲所コメダ珈琲店,滋賀県,栗東市,綣9丁目12番2号,栗東駅徒歩10分以上,077-551-1002,07:00〜23:00,http://www.komeda.co.jp/search/shopdetail.php?id=462,TRUE,FALSE,TRUE,FALSE,35.0437998,135.9783086,"96席
(禁煙:57/喫煙:39)"
318,北大路ビブレ店 | 珈琲所コメダ珈琲店,京都,府京都市,北区小山北上総町49-1北大路ビブレ1F,北大路駅徒歩3分以内,075-492-6777,07:00〜21:30,http://www.komeda.co.jp/search/shopdetail.php?id=740,TRUE,FALSE,FALSE,FALSE,35.0448006,135.7582989,"96席
(禁煙:96/喫煙:0)"
319,豊明店 | 珈琲所コメダ珈琲店,愛知県,豊明市,新田町門先8-11,豊明駅徒歩21分以上,0562-92-7385,07:00〜17:30,http://www.komeda.co.jp/search/shopdetail.php?id=20,TRUE,FALSE,TRUE,FALSE,35.0512105,137.0196795,"41席
(禁煙:0/喫煙:41)"
320,豊田寿店 | 珈琲所コメダ珈琲店,愛知県,豊田市,竜神町飛越94-14,土橋駅徒歩9分以上,0565-24-6500,07:00〜22:00,http://www.komeda.co.jp/search/shopdetail.php?id=249,TRUE,FALSE,TRUE,FALSE,35.0528801,137.1332747,"90席
(禁煙:54/喫煙:36)"
321,イオンモール大高店 | 珈琲所コメダ珈琲店,愛知県,名古屋市,緑区大高町字奥平子1-1イオン大高ショッピングセンター,大高駅徒歩24分以上,052-626-2830,09:00〜22:00,http://www.komeda.co.jp/search/shopdetail.php?id=336,TRUE,FALSE,TRUE,FALSE,35.0536959,136.9462716,"118席
(禁煙:50/喫煙:68)"
322,有松店 | 珈琲所コメダ珈琲店,愛知県,名古屋市,緑区桶狭間神明346番地,有松駅徒歩22分以上,052-624-6977,07:00〜22:00,http://www.komeda.co.jp/search/shopdetail.php?id=134,TRUE,FALSE,TRUE,FALSE,35.0549933,136.9631314,"90席
(禁煙:66/喫煙:24)"
323,豊明前後店 | 珈琲所コメダ珈琲店,愛知県,豊明市,前後町螺貝1378-1,中京競馬場前駅徒歩11分以上,0562-92-6717,07:00〜23:00,http://www.komeda.co.jp/search/shopdetail.php?id=152,TRUE,FALSE,TRUE,FALSE,35.0591891,136.9895631,"90席
(禁煙:68/喫煙:22)"
324,東海名和店 | 珈琲所コメダ珈琲店,愛知県,東海市,名和町後酉19番地,名和駅徒歩9分以上,052-601-0010,06:30〜22:30,http://www.komeda.co.jp/search/shopdetail.php?id=368,FALSE,FALSE,TRUE,FALSE,35.0622556,136.9191381,"66席
(禁煙:46/喫煙:20)"
325,桑名中央通店 | 珈琲所コメダ珈琲店,三重県,桑名市,中央町4ｰ26,西桑名駅徒歩5分以上,0594-23-8877,07:00〜23:00,http://www.komeda.co.jp/search/shopdetail.php?id=236,TRUE,FALSE,TRUE,FALSE,35.0623745,136.6874471,"123席
(禁煙:69/喫煙:54)"
326,豊田前田店 | 珈琲所コメダ珈琲店,愛知県,豊田市,前田町6-39-1,上挙母駅徒歩17分以上,0565-34-4152,07:00〜23:00,http://www.komeda.co.jp/search/shopdetail.php?id=191,TRUE,FALSE,TRUE,FALSE,35.0636332,137.1635297,"101席
(禁煙:62/喫煙:39)"
327,刈谷店 | 珈琲所コメダ珈琲店,愛知県,刈谷市,井ヶ谷町天白19-4,豊明駅徒歩65分以上,0566-36-4046,07:00〜21:00,http://www.komeda.co.jp/search/shopdetail.php?id=21,FALSE,FALSE,TRUE,FALSE,35.0642102,137.0502039,"88席
(禁煙:48/喫煙:40)"
328,イオンタウン有松店 | 珈琲所コメダ珈琲店,愛知県,名古屋市,緑区鳴海町字有松裏200,有松駅徒歩1分以上,052-626-2358,08:00〜22:00,http://www.komeda.co.jp/search/shopdetail.php?id=281,TRUE,FALSE,TRUE,FALSE,35.0682454,136.9717892,"89席
(禁煙:31/喫煙:58)"
329,野洲店 | 珈琲所コメダ珈琲店,滋賀県,野洲市,小篠原2683,野洲駅徒歩14分以上,077-532-1050,07:00〜23:00,http://www.komeda.co.jp/search/shopdetail.php?id=332,FALSE,FALSE,TRUE,FALSE,35.0698008,136.0334578,"129席
(禁煙:70/喫煙:59)"
330,柴田店 | 珈琲所コメダ珈琲店,愛知県,名古屋市,南区柴田町6-19,柴田駅徒歩2分以上,052-611-7736,07:00〜19:00※日祝07:00〜18:00,http://www.komeda.co.jp/search/shopdetail.php?id=62,FALSE,FALSE,TRUE,FALSE,35.0709686,136.9096478,"47席
(禁煙:0/喫煙:47)"
331,姥子山店 | 珈琲所コメダ珈琲店,愛知県,名古屋市,緑区鎌倉台2-1701,中京競馬場前駅徒歩16分以上,052-624-7652,06:00〜23:30,http://www.komeda.co.jp/search/shopdetail.php?id=137,TRUE,FALSE,TRUE,FALSE,35.0712712,136.9844273,"100席
(禁煙:64/喫煙:36)"
332,大高店 | 珈琲所コメダ珈琲店,愛知県,名古屋市,緑区鳴海町下汐田86,大高駅徒歩5分以上,052-622-6877,06:30〜20:30,http://www.komeda.co.jp/search/shopdetail.php?id=132,FALSE,FALSE,TRUE,FALSE,35.0719325,136.9393139,"80席
(禁煙:48/喫煙:32)"
333,カインズモール津山店 | 珈琲所コメダ珈琲店,岡山県,津山市,高野本郷1451-1,高野駅徒歩19分以上,0868-35-3911,07:00〜23:00,http://www.komeda.co.jp/search/shopdetail.php?id=689,TRUE,FALSE,TRUE,FALSE,35.0721195,134.0547077,"100席
(禁煙:73/喫煙:27)"
334,豊田本新町店 | 珈琲所コメダ珈琲店,愛知県,豊田市,本新町8-82-2,土橋駅徒歩38分以上,0565-32-8800,07:00〜23:00,http://www.komeda.co.jp/search/shopdetail.php?id=225,FALSE,FALSE,TRUE,FALSE,35.0790262,137.1141951,"92席
(禁煙:46/喫煙:46)"
335,豊田挙母店 | 珈琲所コメダ珈琲店,愛知県,豊田市,八幡町3-3,豊田市駅徒歩15分以上,0565-32-2775,07:00〜21:00※日祝07:00〜22:30,http://www.komeda.co.jp/search/shopdetail.php?id=118,FALSE,FALSE,TRUE,FALSE,35.0792009,137.1629763,"120席
(禁煙:62/喫煙:58)"
336,桑名広見ケ丘店 | 珈琲所コメダ珈琲店,三重県,桑名市,広見ヶ丘1537-8,七和駅徒歩16分以上,0594-32-5688,07:00〜22:00,http://www.komeda.co.jp/search/shopdetail.php?id=207,TRUE,FALSE,TRUE,FALSE,35.0798373,136.6179829,"118席
(禁煙:64/喫煙:54)"
337,篭山店 | 珈琲所コメダ珈琲店,愛知県,名古屋市,緑区鴻仏目1-605,東田中駅徒歩17分以上,052-877-6660,06:00〜22:00,http://www.komeda.co.jp/search/shopdetail.php?id=117,FALSE,FALSE,TRUE,FALSE,35.0816227,136.98163,"88席
(禁煙:32/喫煙:56)"
338,函南町店 | 珈琲所コメダ珈琲店,静岡県,田方郡,函南町間宮437-1,大場駅徒歩13分以上,055-979-3520,07:00〜23:00,http://www.komeda.co.jp/search/shopdetail.php?id=668,TRUE,FALSE,TRUE,FALSE,35.0835898,138.9368978,"102席
(禁煙:70/喫煙:32)"
339,三好東山店 | 珈琲所コメダ珈琲店,愛知県,みよし市,三好町東山台21-3,米野木駅徒歩63分以上,05613-3-3585,07:00〜20:00,http://www.komeda.co.jp/search/shopdetail.php?id=222,TRUE,FALSE,TRUE,FALSE,35.0873494,137.0868195,"92席
(禁煙:66/喫煙:26)"
340,中割店 | 珈琲所コメダ珈琲店,愛知県,名古屋市,南区中割町3-120-1,大江駅徒歩12分以上,052-613-3956,07:00〜17:00,http://www.komeda.co.jp/search/shopdetail.php?id=58,FALSE,FALSE,TRUE,FALSE,35.0876055,136.9195908,"54席
(禁煙:0/喫煙:54)"
341,浦里店 | 珈琲所コメダ珈琲店,愛知県,名古屋市,緑区浦里1-160グランドハイツ浦里,本星崎駅徒歩11分以上,052-895-8458,06:00〜17:30,http://www.komeda.co.jp/search/shopdetail.php?id=50,FALSE,FALSE,TRUE,FALSE,35.0886781,136.9460207,"56席
(禁煙:0/喫煙:56)"
342,東郷春木店 | 珈琲所コメダ珈琲店,愛知県,愛知郡,東郷町大字春木字新池3917-4,日進駅徒歩48分以上,0561-38-5668,06:30〜22:00,http://www.komeda.co.jp/search/shopdetail.php?id=130,TRUE,FALSE,TRUE,FALSE,35.0904179,137.0333326,"96席
(禁煙:52/喫煙:44)"
343,滝ノ水店 | 珈琲所コメダ珈琲店,愛知県,名古屋市,緑区滝の水1-1001,東田中駅徒歩19分以上,052-895-2667,07:00〜23:00,http://www.komeda.co.jp/search/shopdetail.php?id=79,TRUE,FALSE,TRUE,FALSE,35.0919297,136.9787939,"99席
(禁煙:66/喫煙:33)"
344,三好西店 | 珈琲所コメダ珈琲店,愛知県,みよし市,三好町中鯰ヶ池83-1,日進駅徒歩45分以上,0561-33-5087,06:00〜19:00,http://www.komeda.co.jp/search/shopdetail.php?id=273,TRUE,FALSE,TRUE,FALSE,35.0920406,137.0629799,"105席
(禁煙:74/喫煙:31)"
345,前浜店 | 珈琲所コメダ珈琲店,愛知県,名古屋市,南区寺部通3-5,笠寺駅徒歩5分以上,052-811-9288,07:00〜23:00,http://www.komeda.co.jp/search/shopdetail.php?id=129,FALSE,FALSE,TRUE,FALSE,35.0929469,136.9295564,"66席
(禁煙:0/喫煙:66)"
346,港店 | 珈琲所コメダ珈琲店,愛知県,名古屋市,港区名港2-9-27ポートプラザビル1F,名古屋港駅徒歩3分以上,052-654-5020,07:00〜20:00※土07:00〜14:00、祝08:00〜18:00,http://www.komeda.co.jp/search/shopdetail.php?id=60,FALSE,FALSE,TRUE,FALSE,35.0946424,136.8826424,"64席
(禁煙:0/喫煙:64)"
347,白雲店 | 珈琲所コメダ珈琲店,愛知県,名古屋市,南区白雲町84,本笠寺駅徒歩10分以上,052-822-7778,08:00〜18:00,http://www.komeda.co.jp/search/shopdetail.php?id=74,TRUE,FALSE,TRUE,FALSE,35.0955415,136.9403527,"56席
(禁煙:0/喫煙:56)"
348,緑黒石店 | 珈琲所コメダ珈琲店,愛知県,名古屋市,緑区黒沢台4-707,東田中駅徒歩17分以上,052-876-9680,07:00〜18:30※日祝07:00〜18:00,http://www.komeda.co.jp/search/shopdetail.php?id=84,FALSE,FALSE,TRUE,FALSE,35.0986824,136.9936506,"38席
(禁煙:0/喫煙:38)"
349,弥生店 | 珈琲所コメダ珈琲店,愛知県,名古屋市,南区明円町19-6サンヒルズ秀B棟,鶴里駅徒歩9分以上,052-824-8881,07:30〜17:00,http://www.komeda.co.jp/search/shopdetail.php?id=54,FALSE,FALSE,TRUE,FALSE,35.099968,136.9427399,"50席
(禁煙:4/喫煙:46)"
350,忠次店 | 珈琲所コメダ珈琲店,愛知県,名古屋市,南区忠次2-1-1,道徳駅徒歩12分以上,052-694-5366,07:00〜23:00,http://www.komeda.co.jp/search/shopdetail.php?id=171,TRUE,FALSE,TRUE,FALSE,35.102601,136.9184992,"95席
(禁煙:60/喫煙:35)"
351,野並店 | 珈琲所コメダ珈琲店,愛知県,名古屋市,天白区井の森232-1アイコービル1F,野並駅徒歩5分以上,052-896-7266,07:00〜20:00※日祝07:00〜18:00,http://www.komeda.co.jp/search/shopdetail.php?id=57,FALSE,FALSE,TRUE,FALSE,35.1042458,136.9512742,"66席
(禁煙:32/喫煙:34)"
352,道徳店 | 珈琲所コメダ珈琲店,愛知県,名古屋市,南区道徳新町5-1パークテラス道徳1F,道徳駅徒歩4分以上,052-692-7360,07:00〜17:00※第3週水曜日07:00〜12:00,http://www.komeda.co.jp/search/shopdetail.php?id=38,TRUE,FALSE,TRUE,FALSE,35.1047827,136.9058315,"60席
(禁煙:0/喫煙:60)"
353,豊田梅坪店 | 珈琲所コメダ珈琲店,愛知県,豊田市,梅坪町1-18-1,愛環梅坪駅徒歩3分以上,0565-32-8077,07:00〜23:00,http://www.komeda.co.jp/search/shopdetail.php?id=63,FALSE,FALSE,TRUE,FALSE,35.1052393,137.1579698,"114席
(禁煙:56/喫煙:58)"
354,港栄店 | 珈琲所コメダ珈琲店,愛知県,名古屋市,港区港栄1丁目2番5号,港区役所駅徒歩3分以上,052-654-3344,07:00〜23:00,http://www.komeda.co.jp/search/shopdetail.php?id=677,TRUE,FALSE,TRUE,FALSE,35.1056198,136.8837143,"100席
(禁煙:70/喫煙:30)"
355,大磯店 | 珈琲所コメダ珈琲店,愛知県,名古屋市,南区大磯通4-15美谷レジデンス106,桜駅徒歩10分以上,052-821-9044,07:30〜18:00※土日祝07:30〜17:00,http://www.komeda.co.jp/search/shopdetail.php?id=10,FALSE,FALSE,TRUE,FALSE,35.1057482,136.9263771,"31席
(禁煙:0/喫煙:31)"
356,沼津カタクラパーク店 | 珈琲所コメダ珈琲店,静岡県,沼津市,大岡1020-5,大岡駅徒歩17分以上,055-939-7110,07:00〜23:00,http://www.komeda.co.jp/search/shopdetail.php?id=784,TRUE,FALSE,TRUE,FALSE,35.1058756,138.8781746,"95席
(禁煙:66/喫煙:29)"
357,平針試験場前店 | 珈琲所コメダ珈琲店,愛知県,名古屋市,天白区平針台2ｰ201,平針駅徒歩26分以上,052-801-3074,07:00〜21:00,http://www.komeda.co.jp/search/shopdetail.php?id=114,FALSE,FALSE,TRUE,FALSE,35.1061679,137.0062989,"90席
(禁煙:70/喫煙:20)"
358,当知店 | 珈琲所コメダ珈琲店,愛知県,名古屋市,港区甚兵衛通1-5-1,荒子川公園駅徒歩19分以上,052-382-2119,06:30〜18:30,http://www.komeda.co.jp/search/shopdetail.php?id=47,TRUE,FALSE,TRUE,FALSE,35.1068241,136.8463521,"60席
(禁煙:0/喫煙:60)"
359,いなべ店 | 珈琲所コメダ珈琲店,三重県,いなべ市,員弁町松之木155,楚原駅徒歩16分以上,0594-84-2555,07:00〜19:00,http://www.komeda.co.jp/search/shopdetail.php?id=259,FALSE,FALSE,TRUE,FALSE,35.1070903,136.5717041,"82席
(禁煙:40/喫煙:42)"
360,和合店 | 珈琲所コメダ珈琲店,愛知県,愛知郡,東郷町和合牛廻間41-4,日進駅徒歩19分以上,0561-38-3153,07:00〜22:00,http://www.komeda.co.jp/search/shopdetail.php?id=67,FALSE,FALSE,TRUE,FALSE,35.1076465,137.0418841,"102席
(禁煙:28/喫煙:74)"
361,東近江八日市店 | 珈琲所コメダ珈琲店,滋賀県,東近江市,青葉町3番1-5号,新八日市駅徒歩12分以上,0748-25-5333,07:00〜22:00,http://www.komeda.co.jp/search/shopdetail.php?id=439,FALSE,FALSE,TRUE,FALSE,35.1076755,136.2009377,"99席
(禁煙:69/喫煙:30)"
362,桜台店 | 珈琲所コメダ珈琲店,愛知県,名古屋市,南区鳥栖2-1302,鶴里駅徒歩7分以上,052-825-0126,07:00〜22:30,http://www.komeda.co.jp/search/shopdetail.php?id=85,FALSE,FALSE,TRUE,FALSE,35.1103014,136.9426106,"88席
(禁煙:62/喫煙:26)"
363,三好インター店 | 珈琲所コメダ珈琲店,愛知県,みよし市,福谷町落合18-3,三好ヶ丘駅徒歩28分以上,0561-33-0303,07:00〜22:00※日祝07:00〜19:00,http://www.komeda.co.jp/search/shopdetail.php?id=231,TRUE,FALSE,TRUE,FALSE,35.1113581,137.1011175,"90席
(禁煙:66/喫煙:24)"
364,菅田店 | 珈琲所コメダ珈琲店,愛知県,名古屋市,天白区菅田1-2508インテリジェント野並,野並駅徒歩19分以上,052-806-4688,07:00〜22:00,http://www.komeda.co.jp/search/shopdetail.php?id=75,FALSE,FALSE,TRUE,FALSE,35.1126765,136.9635471,"52席
(禁煙:28/喫煙:24)"
365,東海通店 | 珈琲所コメダ珈琲店,愛知県,名古屋市,港区九番町5-2エミールIST1F,名古屋競馬場前駅徒歩25分以上,052-653-8838,07:00〜20:00※日祝08:00〜18:00,http://www.komeda.co.jp/search/shopdetail.php?id=48,FALSE,FALSE,TRUE,FALSE,35.113756,136.843405,"44席
(禁煙:0/喫煙:44)"
366,イオンタウン弥富店 | 珈琲所コメダ珈琲店,愛知県,弥富市,五明町蒲原1371-4,弥富口駅徒歩6分以上,0567-64-1788,08:00〜20:00,http://www.komeda.co.jp/search/shopdetail.php?id=341,TRUE,FALSE,TRUE,FALSE,35.1143953,136.7170425,"84席
(禁煙:44/喫煙:40)"
367,大津堅田店 | 珈琲所コメダ珈琲店,滋賀県,大津市,本堅田3丁目1739-4,堅田駅徒歩10分以上,077-574-6777,07:00〜23:00,http://www.komeda.co.jp/search/shopdetail.php?id=438,TRUE,FALSE,TRUE,FALSE,35.1146626,135.9156874,"96席
(禁煙:67/喫煙:29)"
368,イオンモール新瑞橋店 | 珈琲所コメダ珈琲店,愛知県,名古屋市,南区菊住1丁目7-10,新瑞橋駅徒歩5分以上,052-829-3220,08:00〜22:00,http://www.komeda.co.jp/search/shopdetail.php?id=381,TRUE,FALSE,TRUE,FALSE,35.1147088,136.93525,"79席
(禁煙:45/喫煙:34)"
369,弥富東店 | 珈琲所コメダ珈琲店,愛知県,弥富市,大字鯏浦字車東1-2,近鉄弥富駅徒歩16分以上,0567-65-8221,07:00〜22:00,http://www.komeda.co.jp/search/shopdetail.php?id=181,TRUE,FALSE,TRUE,FALSE,35.1148266,136.740107,"102席
(禁煙:74/喫煙:28)"
370,南陽町店 | 珈琲所コメダ珈琲店,愛知県,名古屋市,港区八百島2-1803,戸田駅徒歩27分以上,052-302-8314,06:00〜21:00※日祝06:00〜19:00,http://www.komeda.co.jp/search/shopdetail.php?id=82,FALSE,FALSE,TRUE,FALSE,35.1173137,136.8182297,"86席
(禁煙:66/喫煙:20)"
371,天白土原店 | 珈琲所コメダ珈琲店,愛知県,名古屋市,天白区土原1-101,植田駅徒歩21分以上,052-805-2233,07:00〜23:00,http://www.komeda.co.jp/search/shopdetail.php?id=730,TRUE,FALSE,TRUE,FALSE,35.1173963,136.9790738,"123席
(禁煙:94/喫煙:29)"
372,瑞穂運動場店 | 珈琲所コメダ珈琲店,愛知県,名古屋市,瑞穂区田辺通6ｰ43,瑞穂運動場東駅徒歩4分以上,052-861-1900,07:30〜23:00,http://www.komeda.co.jp/search/shopdetail.php?id=185,TRUE,FALSE,TRUE,FALSE,35.1206338,136.9480209,"62席
(禁煙:36/喫煙:26)"
373,伝馬町店 | 珈琲所コメダ珈琲店,愛知県,名古屋市,熱田区神宮4-7-27宝18ビル,伝馬町駅徒歩1分以上,052-682-1763,07:30〜21:00※土日祝08:00〜18:00,http://www.komeda.co.jp/search/shopdetail.php?id=71,TRUE,FALSE,TRUE,FALSE,35.1206909,136.9116683,"62席
(禁煙:0/喫煙:62)"
374,中川玉川町店 | 珈琲所コメダ珈琲店,愛知県,名古屋市,中川区玉川町1-1,六番町駅徒歩14分以上,052-661-3107,06:30〜23:00,http://www.komeda.co.jp/search/shopdetail.php?id=294,FALSE,FALSE,TRUE,FALSE,35.123234,136.8776255,"110席
(禁煙:74/喫煙:36)"
375,昭和橋店 | 珈琲所コメダ珈琲店,愛知県,名古屋市,中川区昭和橋通3-16,中島駅徒歩7分以上,052-353-0688,07:00〜23:00,http://www.komeda.co.jp/search/shopdetail.php?id=219,TRUE,FALSE,TRUE,FALSE,35.1250525,136.8671596,"115席
(禁煙:60/喫煙:55)"
376,瑞穂通四丁目店 | 珈琲所コメダ珈琲店,愛知県,名古屋市,瑞穂区瑞穂通4丁目1番地,瑞穂区役所駅徒歩3分以上,052-853-2777,07:00〜21:00,http://www.komeda.co.jp/search/shopdetail.php?id=687,FALSE,FALSE,TRUE,FALSE,35.1300017,136.9344663,"74席
(禁煙:58/喫煙:16)"
377,日比野店 | 珈琲所コメダ珈琲店,愛知県,名古屋市,熱田区大宝3-9-8,日比野駅徒歩4分以上,052-682-4557,07:00〜19:00※日祝07:00〜18:00,http://www.komeda.co.jp/search/shopdetail.php?id=81,TRUE,FALSE,TRUE,FALSE,35.1302777,136.8944978,"59席
(禁煙:0/喫煙:59)"
378,大畑店 | 珈琲所コメダ珈琲店,愛知県,名古屋市,中川区大畑町1-133ベルハイム大畑,南荒子駅徒歩5分以上,052-361-8380,07:00〜18:00,http://www.komeda.co.jp/search/shopdetail.php?id=105,TRUE,FALSE,TRUE,FALSE,35.1316642,136.8658067,"50席
(禁煙:0/喫煙:50)"
379,法華店 | 珈琲所コメダ珈琲店,愛知県,名古屋市,中川区法華西町1-13,高畑駅徒歩19分以上,052-354-4546,06:30〜18:00,http://www.komeda.co.jp/search/shopdetail.php?id=55,TRUE,FALSE,TRUE,FALSE,35.1318677,136.8421455,"96席
(禁煙:49/喫煙:47)"
380,近江八幡店 | 珈琲所コメダ珈琲店,滋賀県,近江八幡市,鷹飼町北3-15-8,近江八幡駅徒歩15分以上,0748-36-3895,07:00〜00:00,http://www.komeda.co.jp/search/shopdetail.php?id=359,TRUE,FALSE,TRUE,FALSE,35.1319494,136.1037143,"94席
(禁煙:45/喫煙:49)"
381,梅森台店 | 珈琲所コメダ珈琲店,愛知県,日進市,梅森台1-174,平針駅徒歩17分以上,052-803-3591,06:00〜22:00※日祝06:00〜20:00,http://www.komeda.co.jp/search/shopdetail.php?id=94,TRUE,FALSE,TRUE,FALSE,35.1320206,137.0140229,"84席
(禁煙:56/喫煙:28)"
382,日進米野木店 | 珈琲所コメダ珈琲店,愛知県,日進市,米野木町南荒田118-2,米野木駅徒歩18分以上,0561-73-8010,07:00〜23:00,http://www.komeda.co.jp/search/shopdetail.php?id=269,TRUE,FALSE,TRUE,FALSE,35.1321182,137.056557,"96席
(禁煙:42/喫煙:54)"
383,植田店 | 珈琲所コメダ珈琲店,愛知県,名古屋市,天白区植田本町2-1010,植田駅徒歩7分以上,052-804-6858,06:30〜23:00,http://www.komeda.co.jp/search/shopdetail.php?id=86,TRUE,FALSE,TRUE,FALSE,35.1326616,136.9917527,"96席
(禁煙:56/喫煙:40)"
384,西高蔵店 | 珈琲所コメダ珈琲店,愛知県,名古屋市,熱田区五本松町11番2号,西高蔵駅徒歩3分以内,052-683-7221,07:00〜19:00,http://www.komeda.co.jp/search/shopdetail.php?id=402,TRUE,FALSE,TRUE,FALSE,35.1342137,136.9024885,"62席
(禁煙:16/喫煙:46)"
385,豊田保見店 | 珈琲所コメダ珈琲店,愛知県,豊田市,保見町井ノ口72-2,保見駅徒歩13分以上,0565-48-9755,07:15〜18:00,http://www.komeda.co.jp/search/shopdetail.php?id=128,FALSE,FALSE,TRUE,FALSE,35.1352346,137.1243063,"98席
(禁煙:64/喫煙:34)"
386,沼津鳥谷店 | 珈琲所コメダ珈琲店,静岡県,沼津市,鳥谷2-1,片浜駅徒歩27分以上,055-969-0141,07:00〜23:00,http://www.komeda.co.jp/search/shopdetail.php?id=369,TRUE,FALSE,TRUE,FALSE,35.1353321,138.8147373,"72席
(禁煙:40/喫煙:32)"
387,イオン八事店 | 珈琲所コメダ珈琲店,愛知県,名古屋市,昭和区広路町字石坂2-1,八事駅徒歩1分以上,052-385-0899,09:00〜21:00,http://www.komeda.co.jp/search/shopdetail.php?id=631,TRUE,FALSE,TRUE,FALSE,35.1370879,136.963344,"132席
(禁煙:92/喫煙:40)"
388,本店 | 珈琲所コメダ珈琲店,愛知県,名古屋市,瑞穂区上山町3-13,いりなか駅徒歩10分以上,052-833-2888,06:30〜23:30,http://www.komeda.co.jp/search/shopdetail.php?id=1,TRUE,FALSE,TRUE,FALSE,35.1378736,136.9504091,"202席
(禁煙:106/喫煙:96)"
389,桜山店 | 珈琲所コメダ珈琲店,愛知県,名古屋市,瑞穂区瑞穂通1丁目1-6,桜山駅徒歩2分以上,052-853-9277,07:00〜21:00,http://www.komeda.co.jp/search/shopdetail.php?id=422,TRUE,FALSE,TRUE,FALSE,35.1382508,136.9332189,"72席
(禁煙:60/喫煙:12)"
390,蟹江本町店 | 珈琲所コメダ珈琲店,愛知県,海部郡,蟹江町大字蟹江本町字コの割34,蟹江駅徒歩8分以上,05679-6-1234,07:00〜22:00,http://www.komeda.co.jp/search/shopdetail.php?id=155,TRUE,FALSE,TRUE,FALSE,35.1386751,136.798223,"109席
(禁煙:88/喫煙:21)"
391,長泉町桜堤店 | 珈琲所コメダ珈琲店,静岡県,駿東郡,長泉町上土狩68-27,長泉なめり駅徒歩13分以上,055-987-3033,07:00〜23:00,http://www.komeda.co.jp/search/shopdetail.php?id=510,TRUE,FALSE,TRUE,FALSE,35.1403338,138.9040161,"99席
(禁煙:62/喫煙:37)"
392,山手店 | 珈琲所コメダ珈琲店,愛知県,名古屋市,昭和区山手通4-15ペポ山手ビル2F,八事日赤駅徒歩5分以上,052-833-1417,07:00〜21:00,http://www.komeda.co.jp/search/shopdetail.php?id=59,TRUE,FALSE,TRUE,FALSE,35.1411875,136.9667344,"56席
(禁煙:0/喫煙:56)"
393,四女子店 | 珈琲所コメダ珈琲店,愛知県,名古屋市,中川区好本町1-25-1,荒子駅徒歩11分以上,052-363-2626,07:00〜18:00,http://www.komeda.co.jp/search/shopdetail.php?id=103,FALSE,FALSE,TRUE,FALSE,35.1430168,136.869625,"87席
(禁煙:0/喫煙:87)"
394,平和店 | 珈琲所コメダ珈琲店,愛知県,名古屋市,中区平和1-10-10コスモパレス,荒畑駅徒歩16分以上,052-322-9588,07:00〜18:00※日祝08:00〜18:00,http://www.komeda.co.jp/search/shopdetail.php?id=36,TRUE,FALSE,TRUE,FALSE,35.143362,136.914606,"55席
(禁煙:0/喫煙:55)"
395,金山二丁目店 | 珈琲所コメダ珈琲店,愛知県,名古屋市,中区金山二丁目8番4号,金山駅徒歩4分以上,052-253-6121,07:00〜23:00※日祝07:00〜19:00,http://www.komeda.co.jp/search/shopdetail.php?id=427,TRUE,FALSE,TRUE,FALSE,35.1453928,136.903277,"68席
(禁煙:34/喫煙:34)"
396,正木店 | 珈琲所コメダ珈琲店,愛知県,名古屋市,中区正木3-1-24,尾頭橋駅徒歩5分以上,052-331-5341,07:00〜18:00,http://www.komeda.co.jp/search/shopdetail.php?id=32,FALSE,FALSE,TRUE,FALSE,35.1456618,136.8948138,"50席
(禁煙:0/喫煙:50)"
397,恵方店 | 珈琲所コメダ珈琲店,愛知県,名古屋市,昭和区阿由知通5-13,御器所駅徒歩6分以上,052-851-7848,07:30〜22:00,http://www.komeda.co.jp/search/shopdetail.php?id=116,FALSE,FALSE,TRUE,FALSE,35.1457914,136.9340547,"100席
(禁煙:62/喫煙:38)"
398,五女子店 | 珈琲所コメダ珈琲店,愛知県,名古屋市,中川区露橋2-25-15,尾頭橋駅徒歩8分以上,052-362-9968,06:00〜18:00,http://www.komeda.co.jp/search/shopdetail.php?id=18,FALSE,FALSE,TRUE,FALSE,35.1458696,136.8842954,"52席
(禁煙:0/喫煙:52)"
399,松風店 | 珈琲所コメダ珈琲店,愛知県,名古屋市,昭和区松風町1-7,荒畑駅徒歩4分以上,052-881-8523,07:00〜17:00,http://www.komeda.co.jp/search/shopdetail.php?id=12,FALSE,FALSE,TRUE,FALSE,35.1469632,136.9269053,"24席
(禁煙:0/喫煙:24)"
400,佐屋北一色店 | 珈琲所コメダ珈琲店,愛知県,愛西市,北一色町北田面273,佐屋駅徒歩10分以上,0567-25-8586,06:00〜21:30,http://www.komeda.co.jp/search/shopdetail.php?id=154,FALSE,FALSE,TRUE,FALSE,35.1497493,136.7245917,"78席
(禁煙:52/喫煙:26)"
401,東郊通店 | 珈琲所コメダ珈琲店,愛知県,名古屋市,昭和区御器所1-3-1,荒畑駅徒歩8分以上,052-871-5518,05:00〜17:00,http://www.komeda.co.jp/search/shopdetail.php?id=17,FALSE,FALSE,TRUE,FALSE,35.1499096,136.9187088,"33席
(禁煙:0/喫煙:33)"
402,富士見橋店 | 珈琲所コメダ珈琲店,愛知県,名古屋市,中区千代田4-1-29,東別院駅徒歩6分以上,052-350-5055,07:00〜23:00,http://www.komeda.co.jp/search/shopdetail.php?id=204,TRUE,FALSE,TRUE,FALSE,35.1520839,136.9093457,"118席
(禁煙:68/喫煙:50)"
403,日進竹の山店 | 珈琲所コメダ珈琲店,愛知県,日進市,竹の山2丁目1924番地,杁ヶ池公園駅徒歩26分以上,0561-72-6022,07:00〜23:00,http://www.komeda.co.jp/search/shopdetail.php?id=238,FALSE,FALSE,TRUE,FALSE,35.1557343,137.0344339,"94席
(禁煙:56/喫煙:38)"
404,東近江五個荘店 | 珈琲所コメダ珈琲店,滋賀県,東近江市,宮荘町65,五箇荘駅徒歩4分以上,0748-26-8094,07:00〜23:00,http://www.komeda.co.jp/search/shopdetail.php?id=613,FALSE,FALSE,TRUE,FALSE,35.1567593,136.194144,"95席
(禁煙:70/喫煙:25)"
405,岩塚店 | 珈琲所コメダ珈琲店,愛知県,名古屋市,中村区畑江通8-43-1,岩塚駅徒歩5分以上,052-482-0688,07:00〜23:00,http://www.komeda.co.jp/search/shopdetail.php?id=89,TRUE,TRUE,TRUE,FALSE,35.1572981,136.8591837,"169席
(禁煙:120/喫煙:49)"
406,大須スケートリンク店 | 珈琲所コメダ珈琲店,愛知県,名古屋市,中区門前町1-60,大須観音駅徒歩7分以上,052-253-7521,07:00〜22:00※日祝07:00〜20:00,http://www.komeda.co.jp/search/shopdetail.php?id=734,FALSE,FALSE,TRUE,FALSE,35.1574577,136.8991075,"87席
(禁煙:55/喫煙:32)"
407,日置橋店 | 珈琲所コメダ珈琲店,愛知県,名古屋市,中区松原1ｰ3-28,大須観音駅徒歩9分以上,052-322-9939,06:30〜22:00※7月〜9月は06:30〜23:00,http://www.komeda.co.jp/search/shopdetail.php?id=244,FALSE,FALSE,TRUE,FALSE,35.1577213,136.8935386,"84席
(禁煙:28/喫煙:56)"
408,千音寺店 | 珈琲所コメダ珈琲店,愛知県,名古屋市,中川区富田町大字千音寺字間渡里2850,春田駅徒歩23分以上,052-432-7440,06:30〜21:30,http://www.komeda.co.jp/search/shopdetail.php?id=104,FALSE,FALSE,TRUE,FALSE,35.1582721,136.8125856,"98席
(禁煙:24/喫煙:74)"
409,上前津店 | 珈琲所コメダ珈琲店,愛知県,名古屋市,中区大須3-31-42,上前津駅徒歩2分以上,052-242-1957,06:45〜20:00,http://www.komeda.co.jp/search/shopdetail.php?id=13,FALSE,FALSE,TRUE,FALSE,35.1583717,136.9051542,"76席
(禁煙:0/喫煙:76)"
410,津島高台寺店 | 珈琲所コメダ珈琲店,愛知県,津島市,高台寺字茶木原41-4,蟹江駅徒歩37分以上,0567-32-5011,07:00〜22:00,http://www.komeda.co.jp/search/shopdetail.php?id=177,TRUE,FALSE,TRUE,FALSE,35.1586992,136.7727702,"79席
(禁煙:58/喫煙:21)"
411,丹波ゆめタウン店 | 珈琲所コメダ珈琲店,兵庫県,丹波市,氷上町本郷300,石生駅徒歩25分以上,0795-82-8699,09:30〜21:00,http://www.komeda.co.jp/search/shopdetail.php?id=845,TRUE,FALSE,TRUE,FALSE,35.1588439,135.0454229,"97席
(禁煙:74/喫煙:23)"
412,吹上店 | 珈琲所コメダ珈琲店,愛知県,名古屋市,千種区大久手町6-9,吹上駅徒歩1分以上,052-735-0685,07:00〜23:00,http://www.komeda.co.jp/search/shopdetail.php?id=97,FALSE,FALSE,TRUE,FALSE,35.1595979,136.9361514,"90席
(禁煙:58/喫煙:32)"
413,本町店 | 珈琲所コメダ珈琲店,愛知県,名古屋市,中区大須2-5-13,大須観音駅徒歩4分以上,052-201-4009,07:00〜19:00,http://www.komeda.co.jp/search/shopdetail.php?id=26,TRUE,FALSE,TRUE,FALSE,35.1617906,136.9018822,"51席
(禁煙:0/喫煙:51)"
414,イオンタウン千種店 | 珈琲所コメダ珈琲店,愛知県,名古屋市,千種区千種2-16ｰ13,鶴舞駅徒歩11分以上,052-734-5245,08:00〜23:00,http://www.komeda.co.jp/search/shopdetail.php?id=285,FALSE,FALSE,TRUE,FALSE,35.1618525,136.9238302,"88席
(禁煙:66/喫煙:22)"
415,星ヶ丘店 | 珈琲所コメダ珈琲店,愛知県,名古屋市,千種区星ヶ丘井上町43-2,星ヶ丘駅徒歩1分以上,052-782-2007,07:00〜23:00,http://www.komeda.co.jp/search/shopdetail.php?id=409,TRUE,FALSE,TRUE,FALSE,35.1620738,136.9833921,"120席
(禁煙:84/喫煙:36)"
416,栄五丁目店 | 珈琲所コメダ珈琲店,愛知県,名古屋市,中区栄五丁目25-35,矢場町駅徒歩5分以上,052-253-5566,07:00〜23:00,http://www.komeda.co.jp/search/shopdetail.php?id=362,FALSE,FALSE,TRUE,FALSE,35.1621798,136.9130117,"54席
(禁煙:12/喫煙:42)"
417,富士中央店 | 珈琲所コメダ珈琲店,静岡県,富士市,永田町2丁目94,吉原本町駅徒歩26分以上,0545-30-8868,07:00〜23:00,http://www.komeda.co.jp/search/shopdetail.php?id=435,TRUE,FALSE,TRUE,FALSE,35.1634288,138.6693373,"102席
(禁煙:66/喫煙:36)"
418,矢場町店 | 珈琲所コメダ珈琲店,愛知県,名古屋市,中区栄三丁目31番8号,矢場町駅徒歩2分以上,052-242-3421,07:00〜22:30※日祝07:00〜20:30,http://www.komeda.co.jp/search/shopdetail.php?id=410,TRUE,FALSE,TRUE,FALSE,35.1637961,136.908276,"79席
(禁煙:50/喫煙:29)"
419,栄・大津通店 | 珈琲所コメダ珈琲店,愛知県,名古屋市,中区栄3-27-7,矢場町駅徒歩4分以上,052-263-0321,08:00〜21:00,http://www.komeda.co.jp/search/shopdetail.php?id=343,TRUE,FALSE,TRUE,FALSE,35.1650598,136.9069538,"47席
(禁煙:19/喫煙:28)"
420,新栄店 | 珈琲所コメダ珈琲店,愛知県,名古屋市,中区新栄1-17-1,新栄町駅徒歩7分以上,052-252-5186,07:00〜21:00※土日祝07:00〜18:00,http://www.komeda.co.jp/search/shopdetail.php?id=31,FALSE,FALSE,TRUE,FALSE,35.1661461,136.9189777,"59席
(禁煙:0/喫煙:59)"
421,栄鉄砲町店 | 珈琲所コメダ珈琲店,愛知県,名古屋市,中区栄2ｰ14-6,伏見駅徒歩7分以上,052-232-4567,07:00〜20:00,http://www.komeda.co.jp/search/shopdetail.php?id=197,TRUE,FALSE,TRUE,FALSE,35.1663178,136.9022042,"50席
(禁煙:36/喫煙:14)"
422,栄四丁目店 | 珈琲所コメダ珈琲店,愛知県,名古屋市,中区栄4-16-10,栄駅徒歩6分以上,052-243-1121,07:00〜00:00※日祝07:00〜19:00,http://www.komeda.co.jp/search/shopdetail.php?id=317,TRUE,FALSE,TRUE,FALSE,35.1665763,136.910634,"88席
(禁煙:44/喫煙:44)"
423,栄一丁目店 | 珈琲所コメダ珈琲店,愛知県,名古屋市,中区栄一丁目8番18号,栄駅徒歩6分以上,052-253-5621,07:00〜22:00,http://www.komeda.co.jp/search/shopdetail.php?id=678,TRUE,FALSE,TRUE,FALSE,35.1673455,136.9042679,"94席
(禁煙:68/喫煙:26)"
424,栄三丁目店 | 珈琲所コメダ珈琲店,愛知県,名古屋市,中区栄3-8-8,栄駅徒歩5分以上,052-243-2021,07:00〜23:00※日祝07:00〜21:00,http://www.komeda.co.jp/search/shopdetail.php?id=335,TRUE,FALSE,TRUE,FALSE,35.1675205,136.9055039,"73席
(禁煙:32/喫煙:41)"
425,覚王山店 | 珈琲所コメダ珈琲店,愛知県,名古屋市,千種区山門町2-56,覚王山駅徒歩2分以上,052-757-3521,07:00〜22:00※日祝07:00〜20:00,http://www.komeda.co.jp/search/shopdetail.php?id=437,TRUE,FALSE,TRUE,FALSE,35.1675645,136.9530663,"86席
(禁煙:62/喫煙:24)"
426,貴船店 | 珈琲所コメダ珈琲店,愛知県,名古屋市,名東区貴船2ｰ703,本郷駅徒歩11分以上,052-703-5551,07:00〜23:00,http://www.komeda.co.jp/search/shopdetail.php?id=288,TRUE,FALSE,TRUE,FALSE,35.1677515,137.0145582,"123席
(禁煙:83/喫煙:40)"
427,一社店 | 珈琲所コメダ珈琲店,愛知県,名古屋市,名東区一社1丁目87,一社駅徒歩3分以内,052-701-4161,07:00〜23:00,http://www.komeda.co.jp/search/shopdetail.php?id=563,TRUE,FALSE,TRUE,FALSE,35.1679259,136.9956298,"61席
(禁煙:45/喫煙:16)"
428,池下店 | 珈琲所コメダ珈琲店,愛知県,名古屋市,千種区池下1-10-8,池下駅徒歩1分以上,052-757-5663,07:00〜23:00,http://www.komeda.co.jp/search/shopdetail.php?id=270,FALSE,FALSE,TRUE,FALSE,35.1680389,136.9442337,"68席
(禁煙:36/喫煙:32)"
429,稲葉地店 | 珈琲所コメダ珈琲店,愛知県,名古屋市,中村区稲葉地本通2ｰ27-1,中村公園駅徒歩16分以上,052-411-4711,06:30〜23:00,http://www.komeda.co.jp/search/shopdetail.php?id=286,TRUE,FALSE,TRUE,FALSE,35.1682851,136.8425263,"112席
(禁煙:66/喫煙:46)"
430,納屋橋店 | 珈琲所コメダ珈琲店,愛知県,名古屋市,中村区名駅5-38-5,国際センター駅徒歩6分以上,052-581-4321,07:00〜22:30,http://www.komeda.co.jp/search/shopdetail.php?id=261,TRUE,FALSE,TRUE,FALSE,35.1683338,136.8904385,errer
431,メイフィス名駅店 | 珈琲所コメダ珈琲店,愛知県,名古屋市,中村区名駅4丁目26-25メイフィス名駅ビル1F,名鉄名古屋駅徒歩4分以上,052-533-5055,07:00〜21:00※土日祝08:00~21:00,http://www.komeda.co.jp/search/shopdetail.php?id=387,TRUE,FALSE,TRUE,FALSE,35.1684549,136.886999,"53席
(禁煙:0/喫煙:53)"
432,中区役所東店 | 珈琲所コメダ珈琲店,愛知県,名古屋市,中区栄四丁目2番8号,栄町駅徒歩4分以上,052-684-6921,07:00〜23:00※日祝07:00〜21:00,http://www.komeda.co.jp/search/shopdetail.php?id=774,TRUE,FALSE,TRUE,FALSE,35.1687538,136.9114672,"57席
(禁煙:39/喫煙:18)"
433,栄・広小路店 | 珈琲所コメダ珈琲店,愛知県,名古屋市,中区錦3ｰ21ｰ18,栄駅徒歩6分以上,052-973-4321,07:00〜21:00,http://www.komeda.co.jp/search/shopdetail.php?id=272,TRUE,FALSE,TRUE,FALSE,35.1688619,136.9030818,"57席
(禁煙:18/喫煙:39)"
434,津島愛宕店 | 珈琲所コメダ珈琲店,愛知県,津島市,愛宕町4-25-1,津島駅徒歩15分以上,0567-23-2119,07:00〜22:00,http://www.komeda.co.jp/search/shopdetail.php?id=138,TRUE,FALSE,TRUE,FALSE,35.1696661,136.7367256,"88席
(禁煙:0/喫煙:88)"
435,千種駅前店 | 珈琲所コメダ珈琲店,愛知県,名古屋市,千種区内山3丁目25番6号,千種駅徒歩2分以上,052-364-9021,07:00〜23:00※日祝07:00〜20:00,http://www.komeda.co.jp/search/shopdetail.php?id=538,TRUE,FALSE,TRUE,FALSE,35.1700851,136.9315876,"89席
(禁煙:65/喫煙:24)"
436,栄錦三丁目店 | 珈琲所コメダ珈琲店,愛知県,名古屋市,中区錦3ｰ20-13,栄駅徒歩6分以上,052-971-3821,07:00〜02:00※日祝07:00〜19:00,http://www.komeda.co.jp/search/shopdetail.php?id=242,TRUE,FALSE,TRUE,FALSE,35.1701756,136.9030401,"70席
(禁煙:22/喫煙:48)"
437,エスカ店 | 珈琲所コメダ珈琲店,愛知県,名古屋市,中村区椿町6ｰ9エスカ地下街内,近鉄名古屋駅徒歩4分以上,052-454-3883,07:00〜22:00,http://www.komeda.co.jp/search/shopdetail.php?id=303,FALSE,FALSE,TRUE,FALSE,35.1702156,136.8803616,"92席
(禁煙:53/喫煙:39)"
438,裾野店 | 珈琲所コメダ珈琲店,静岡県,裾野市,平松529-1,裾野駅徒歩1分以上,055-992-7230,07:00〜23:00,http://www.komeda.co.jp/search/shopdetail.php?id=518,TRUE,FALSE,TRUE,FALSE,35.1707523,138.9080431,"95席
(禁煙:58/喫煙:37)"
439,錦東櫻店 | 珈琲所コメダ珈琲店,愛知県,名古屋市,東区東桜2ｰ15ｰ20光ビル1F,新栄町駅徒歩4分以上,052-935-0220,07:00〜23:30※日07:00〜19:00,http://www.komeda.co.jp/search/shopdetail.php?id=214,TRUE,FALSE,TRUE,FALSE,35.1707984,136.9168803,"50席
(禁煙:22/喫煙:28)"
440,名古屋駅西店 | 珈琲所コメダ珈琲店,愛知県,名古屋市,中村区則武2丁目3番2号,近鉄名古屋駅徒歩7分以上,052-414-6721,07:00〜23:00※日祝07:00〜21:00,http://www.komeda.co.jp/search/shopdetail.php?id=478,TRUE,FALSE,TRUE,FALSE,35.1710275,136.8781035,"84席
(禁煙:54/喫煙:30)"
441,セントラルパーク店 | 珈琲所コメダ珈琲店,愛知県,名古屋市,中区錦3-15-13先,栄町駅徒歩2分以上,052-959-5569,07:30〜21:30※日祝07:30〜20:30,http://www.komeda.co.jp/search/shopdetail.php?id=366,TRUE,FALSE,TRUE,FALSE,35.1713173,136.9075064,"89席
(禁煙:51/喫煙:38)"
442,ユニモール店 | 珈琲所コメダ珈琲店,愛知県,名古屋市,中村区名駅4ｰ5ｰ26,名古屋駅徒歩2分以上,052-583-5525,07:30〜22:00,http://www.komeda.co.jp/search/shopdetail.php?id=333,FALSE,FALSE,FALSE,FALSE,35.1713388,136.8862417,"53席
(禁煙:53/喫煙:0)"
443,錦・伊勢町通店 | 珈琲所コメダ珈琲店,愛知県,名古屋市,中区錦三丁目722番,久屋大通駅徒歩4分以上,052-963-3621,06:30〜03:00※日祝06:30〜19:00,http://www.komeda.co.jp/search/shopdetail.php?id=581,TRUE,FALSE,TRUE,FALSE,35.1717266,136.905681,"57席
(禁煙:26/喫煙:31)"
444,桜橋店 | 珈琲所コメダ珈琲店,愛知県,名古屋市,中区錦1ｰ1-2ザイソウビル1,国際センター駅徒歩5分以上,052-211-1022,07:00〜20:00,http://www.komeda.co.jp/search/shopdetail.php?id=279,FALSE,FALSE,TRUE,FALSE,35.1722951,136.8929663,"51席
(禁煙:0/喫煙:51)"
445,葵店 | 珈琲所コメダ珈琲店,愛知県,名古屋市,東区葵3ｰ12ｰ23,車道駅徒歩3分以上,052-936-0158,06:00〜23:00,http://www.komeda.co.jp/search/shopdetail.php?id=100,TRUE,FALSE,TRUE,FALSE,35.1728736,136.931868,"92席
(禁煙:70/喫煙:22)"
446,大治店 | 珈琲所コメダ珈琲店,愛知県,海部郡,大治町大字馬島字大門西48,甚目寺駅徒歩37分以上,052-446-3740,06:30〜22:00,http://www.komeda.co.jp/search/shopdetail.php?id=199,FALSE,FALSE,TRUE,FALSE,35.1729201,136.8194088,"92席
(禁煙:54/喫煙:38)"
447,テレピア店 | 珈琲所コメダ珈琲店,愛知県,名古屋市,東区東桜一丁目1413番,栄町駅徒歩4分以上,052-972-6202,08:00〜20:00※日祝08:00〜19:00,http://www.komeda.co.jp/search/shopdetail.php?id=345,TRUE,FALSE,TRUE,FALSE,35.1730532,136.9109838,"55席
(禁煙:36/喫煙:19)"
448,名鉄イン名古屋桜通店 | 珈琲所コメダ珈琲店,愛知県,名古屋市,中村区名駅3丁目17番21号,名古屋駅徒歩3分以上,052-533-5230,07:00〜22:00,http://www.komeda.co.jp/search/shopdetail.php?id=403,TRUE,TRUE,TRUE,FALSE,35.1730913,136.8860361,"70席
(禁煙:46/喫煙:24)"
449,東桜武平通店 | 珈琲所コメダ珈琲店,愛知県,名古屋市,東区東桜1丁目201番地,久屋大通駅徒歩3分以上,052-962-7737,07:00〜23:00※日祝07:00〜19:00,http://www.komeda.co.jp/search/shopdetail.php?id=454,TRUE,FALSE,TRUE,FALSE,35.1730977,136.9104227,"51席
(禁煙:27/喫煙:24)"
450,イオンモール長久手店 | 珈琲所コメダ珈琲店,愛知県,長久手市,長久手中央土地区画整理事業地内51011街区,長久手古戦場駅徒歩2分以上,0561-65-3921,09:00〜22:00,http://www.komeda.co.jp/search/shopdetail.php?id=794,TRUE,FALSE,TRUE,FALSE,35.1736784,137.0502184,"103席
(禁煙:68/喫煙:35)"
451,鳥居通店 | 珈琲所コメダ珈琲店,愛知県,名古屋市,中村区鳥居通3-32,中村日赤駅徒歩2分以上,052-483-0688,07:00〜23:00,http://www.komeda.co.jp/search/shopdetail.php?id=157,TRUE,FALSE,TRUE,FALSE,35.173885,136.8630437,"119席
(禁煙:64/喫煙:55)"
452,桜通大津店 | 珈琲所コメダ珈琲店,愛知県,名古屋市,中区丸の内三丁目19番30号,久屋大通駅徒歩1分以上,052-971-3456,07:00〜21:00※日祝07:00〜19:00,http://www.komeda.co.jp/search/shopdetail.php?id=350,TRUE,FALSE,TRUE,FALSE,35.1741974,136.9066259,"71席
(禁煙:40/喫煙:31)"
453,ルーセントタワー店 | 珈琲所コメダ珈琲店,愛知県,名古屋市,西区牛島町6番1号ルーセントタワーB1,名古屋駅徒歩6分以上,052-581-3511,07:00〜20:00,http://www.komeda.co.jp/search/shopdetail.php?id=459,TRUE,FALSE,TRUE,FALSE,35.1749679,136.8810893,"83席
(禁煙:53/喫煙:30)"
454,都通店 | 珈琲所コメダ珈琲店,愛知県,名古屋市,千種区豊年町14-13クリーンビル1,今池駅徒歩10分以上,052-712-0724,07:00〜18:00,http://www.komeda.co.jp/search/shopdetail.php?id=78,FALSE,FALSE,TRUE,FALSE,35.175429,136.938556,"35席
(禁煙:0/喫煙:35)"
455,高岳店 | 珈琲所コメダ珈琲店,愛知県,名古屋市,東区泉2ｰ21-3,高岳駅徒歩3分以上,なし,07:00〜17:00,http://www.komeda.co.jp/search/shopdetail.php?id=3,FALSE,FALSE,TRUE,FALSE,35.1760002,136.9147306,"28席
(禁煙:0/喫煙:28)"
456,円頓寺店 | 珈琲所コメダ珈琲店,愛知県,名古屋市,西区那古野1丁目13番8号,国際センター駅徒歩6分以上,052-446-6621,07:00〜21:00※日07:00〜19:00,http://www.komeda.co.jp/search/shopdetail.php?id=664,TRUE,FALSE,TRUE,FALSE,35.1760216,136.8901968,"71席
(禁煙:52/喫煙:19)"
457,本郷駅前店 | 珈琲所コメダ珈琲店,愛知県,名古屋市,名東区本郷2ｰ133,本郷駅徒歩3分以内,052-760-4199,07:00〜23:00,http://www.komeda.co.jp/search/shopdetail.php?id=216,FALSE,FALSE,TRUE,FALSE,35.1760255,137.0138023,"69席
(禁煙:50/喫煙:19)"
458,伏見店 | 珈琲所コメダ珈琲店,愛知県,名古屋市,中区丸の内2-1-30丸の内オフィスフォーラム,丸の内駅徒歩4分以上,052-232-2635,07:15〜20:00,http://www.komeda.co.jp/search/shopdetail.php?id=45,FALSE,FALSE,TRUE,FALSE,35.1764503,136.8969827,"49席
(禁煙:0/喫煙:49)"
459,津島神守店 | 珈琲所コメダ珈琲店,愛知県,津島市,越津町字柳之内93,勝幡駅徒歩35分以上,0567-25-9080,07:00〜22:30,http://www.komeda.co.jp/search/shopdetail.php?id=167,FALSE,FALSE,TRUE,FALSE,35.1765271,136.7649923,"84席
(禁煙:44/喫煙:40)"
460,長久手図書館通店 | 珈琲所コメダ珈琲店,愛知県,長久手市,西浦812,はなみずき通駅徒歩3分以上,0561-61-5656,07:00〜23:00※日07:00〜20:00,http://www.komeda.co.jp/search/shopdetail.php?id=144,TRUE,FALSE,TRUE,FALSE,35.1768538,137.0376994,"106席
(禁煙:82/喫煙:24)"
461,名東藤森店 | 珈琲所コメダ珈琲店,愛知県,名古屋市,名東区藤森1ｰ6-1,本郷駅徒歩11分以上,052-771-0678,06:00〜23:00,http://www.komeda.co.jp/search/shopdetail.php?id=159,FALSE,FALSE,TRUE,FALSE,35.181208,137.0083694,"86席
(禁煙:54/喫煙:32)"
462,栄生駅前店 | 珈琲所コメダ珈琲店,愛知県,名古屋市,西区栄生一丁目35-20川津ビル1F,栄生駅徒歩1分以上,052-485-9267,06:30〜21:00,http://www.komeda.co.jp/search/shopdetail.php?id=419,TRUE,FALSE,TRUE,FALSE,35.1835513,136.8742333,"68席
(禁煙:48/喫煙:20)"
463,ヨシヅヤ津島北テラス店 | 珈琲所コメダ珈琲店,愛知県,津島市,片岡町60,町方駅徒歩9分以上,0567-25-9688,07:00〜23:00,http://www.komeda.co.jp/search/shopdetail.php?id=327,FALSE,FALSE,TRUE,FALSE,35.1837669,136.7267927,"65席
(禁煙:25/喫煙:40)"
464,白壁店 | 珈琲所コメダ珈琲店,愛知県,名古屋市,東区白壁3-20-19,尼ヶ坂駅徒歩6分以上,052-931-6243,07:00〜23:00,http://www.komeda.co.jp/search/shopdetail.php?id=267,FALSE,FALSE,FALSE,FALSE,35.1837716,136.917969,"76席
(禁煙:76/喫煙:0)"
465,萱津橋店 | 珈琲所コメダ珈琲店,愛知県,あま市,坂牧大塚86,甚目寺駅徒歩20分以上,052-446-0688,06:00〜22:00,http://www.komeda.co.jp/search/shopdetail.php?id=150,FALSE,FALSE,TRUE,FALSE,35.1840522,136.8319604,"122席
(禁煙:66/喫煙:56)"
466,名東山の手店 | 珈琲所コメダ珈琲店,愛知県,名古屋市,名東区山の手3ｰ901,上社駅徒歩25分以上,052-769-6207,07:00〜22:30,http://www.komeda.co.jp/search/shopdetail.php?id=202,FALSE,FALSE,TRUE,FALSE,35.1861959,136.9947988,"100席
(禁煙:68/喫煙:32)"
467,カインズ三浦店 | 珈琲所コメダ珈琲店,神奈川県,三浦市,初声町入江字2番地186番1,三崎口駅徒歩15分以上,046-845-9775,07:00〜23:00,http://www.komeda.co.jp/search/shopdetail.php?id=611,TRUE,FALSE,TRUE,FALSE,35.1866283,139.6276547,"96席
(禁煙:70/喫煙:26)"
468,イオンモールナゴヤドーム前店 | 珈琲所コメダ珈琲店,愛知県,名古屋市,東区矢田南4丁目102番3号,ナゴヤドーム前矢田駅徒歩5分以上,052-725-6449,09:00〜22:00※イベント時のみ09:00〜23:00,http://www.komeda.co.jp/search/shopdetail.php?id=470,TRUE,FALSE,TRUE,FALSE,35.1871751,136.9440943,"117席
(禁煙:81/喫煙:36)"
469,砂田橋店 | 珈琲所コメダ珈琲店,愛知県,名古屋市,東区大幸4丁目16番1号,砂田橋駅徒歩3分以内,052-721-1223,07:30〜19:00,http://www.komeda.co.jp/search/shopdetail.php?id=184,TRUE,FALSE,TRUE,FALSE,35.1890753,136.9540877,"58席
(禁煙:0/喫煙:58)"
470,西大曽根店 | 珈琲所コメダ珈琲店,愛知県,名古屋市,北区大曽根2ｰ7ｰ23サンハウス大曽根1A,森下駅徒歩2分以上,052-915-7767,07:00〜20:00※土日祝07:00〜19:00,http://www.komeda.co.jp/search/shopdetail.php?id=90,FALSE,FALSE,TRUE,FALSE,35.1894115,136.9313062,"37席
(禁煙:0/喫煙:37)"
471,大杉店 | 珈琲所コメダ珈琲店,愛知県,名古屋市,北区大杉町4ｰ62-2,尼ヶ坂駅徒歩4分以上,052-991-5617,07:00〜20:00,http://www.komeda.co.jp/search/shopdetail.php?id=265,TRUE,FALSE,TRUE,FALSE,35.1909874,136.9194214,"72席
(禁煙:40/喫煙:32)"
472,児玉店 | 珈琲所コメダ珈琲店,愛知県,名古屋市,西区児玉町3-5-10,東枇杷島駅徒歩12分以上,052-532-4775,07:00〜23:00,http://www.komeda.co.jp/search/shopdetail.php?id=51,FALSE,FALSE,TRUE,FALSE,35.1918328,136.8797728,"107席
(禁煙:40/喫煙:67)"
473,メッツ大曽根店 | 珈琲所コメダ珈琲店,愛知県,名古屋市,東区矢田2-1-95,ナゴヤドーム前矢田駅徒歩5分以上,052-723-0335,07:00〜23:00,http://www.komeda.co.jp/search/shopdetail.php?id=218,TRUE,FALSE,TRUE,FALSE,35.1923354,136.9405694,"66席
(禁煙:40/喫煙:26)"
474,上名古屋店 | 珈琲所コメダ珈琲店,愛知県,名古屋市,西区上名古屋1-12-5,浄心駅徒歩9分以上,052-522-1127,07:30〜18:00,http://www.komeda.co.jp/search/shopdetail.php?id=125,FALSE,FALSE,TRUE,FALSE,35.1942054,136.897896,"64席
(禁煙:0/喫煙:64)"
475,守山城下店 | 珈琲所コメダ珈琲店,愛知県,名古屋市,守山区小六町21-12,瓢箪山駅徒歩8分以上,052-796-2066,07:00〜22:30,http://www.komeda.co.jp/search/shopdetail.php?id=110,TRUE,FALSE,TRUE,FALSE,35.1943749,136.9701866,"97席
(禁煙:76/喫煙:21)"
476,イオン名古屋東店 | 珈琲所コメダ珈琲店,愛知県,名古屋市,名東区猪子石原2丁目1701番地,喜多山駅徒歩17分以上,052-775-3939,07:30〜22:00,http://www.komeda.co.jp/search/shopdetail.php?id=405,FALSE,FALSE,TRUE,FALSE,35.1953253,136.9937986,"70席
(禁煙:46/喫煙:24)"
477,守山口店 | 珈琲所コメダ珈琲店,愛知県,名古屋市,守山区市場14番16,守山自衛隊前駅徒歩8分以上,052-795-8581,07:00〜21:30,http://www.komeda.co.jp/search/shopdetail.php?id=146,TRUE,FALSE,TRUE,FALSE,35.1956047,136.9507129,"70席
(禁煙:0/喫煙:70)"
478,北本地ケ原店 | 珈琲所コメダ珈琲店,愛知県,尾張旭市,北本地ｹ原町4丁目31,尾張旭駅徒歩30分以上,0561-56-1789,06:30〜23:00,http://www.komeda.co.jp/search/shopdetail.php?id=723,TRUE,FALSE,TRUE,FALSE,35.1993235,137.0418952,"99席
(禁煙:74/喫煙:25)"
479,平安通店 | 珈琲所コメダ珈琲店,愛知県,名古屋市,北区八竜町1-51,平安通駅徒歩6分以上,052-982-3988,07:00〜23:00,http://www.komeda.co.jp/search/shopdetail.php?id=243,FALSE,FALSE,TRUE,FALSE,35.1997729,136.9315645,"93席
(禁煙:40/喫煙:53)"
480,瀬戸山口店 | 珈琲所コメダ珈琲店,愛知県,瀬戸市,今林町395,瀬戸口駅徒歩16分以上,0561-88-1788,06:30〜19:00,http://www.komeda.co.jp/search/shopdetail.php?id=198,FALSE,FALSE,TRUE,FALSE,35.2004777,137.0927432,"73席
(禁煙:38/喫煙:35)"
481,城北店 | 珈琲所コメダ珈琲店,愛知県,名古屋市,北区八代町2-10-2,黒川駅徒歩7分以上,052-916-5966,07:00〜21:00※土日祝07:00〜19:00,http://www.komeda.co.jp/search/shopdetail.php?id=61,FALSE,FALSE,TRUE,FALSE,35.2018717,136.9109749,"45席
(禁煙:0/喫煙:45)"
482,守山八剣店 | 珈琲所コメダ珈琲店,愛知県,名古屋市,守山区元郷2ｰ802,大森・金城学院前駅徒歩8分以上,052-798-2788,07:00〜22:00,http://www.komeda.co.jp/search/shopdetail.php?id=161,TRUE,FALSE,TRUE,FALSE,35.2028968,137.0008834,"73席
(禁煙:73/喫煙:0)"
483,庄内通店 | 珈琲所コメダ珈琲店,愛知県,名古屋市,西区庄内通4-1庄内ハイツ,庄内通駅徒歩7分以上,052-532-0786,06:00〜19:00,http://www.komeda.co.jp/search/shopdetail.php?id=41,TRUE,FALSE,TRUE,FALSE,35.2087597,136.8916023,"54席
(禁煙:14/喫煙:40)"
484,安井店 | 珈琲所コメダ珈琲店,愛知県,名古屋市,北区安井町4-13-25,上飯田駅徒歩8分以上,052-917-5991,08:00〜23:00,http://www.komeda.co.jp/search/shopdetail.php?id=124,TRUE,FALSE,TRUE,FALSE,35.2098659,136.9262785,"84席
(禁煙:24/喫煙:60)"
485,ベルコート店 | 珈琲所コメダ珈琲店,愛知県,尾張旭市,狩宿町4-35-1,三郷駅徒歩16分以上,0561-54-5568,06:30〜23:00,http://www.komeda.co.jp/search/shopdetail.php?id=109,FALSE,FALSE,TRUE,FALSE,35.2104367,137.0626043,"99席
(禁煙:76/喫煙:23)"
486,甚目寺森店 | 珈琲所コメダ珈琲店,愛知県,あま市,森4-2-10,大里駅徒歩25分以上,052-445-3328,07:00〜23:00,http://www.komeda.co.jp/search/shopdetail.php?id=106,TRUE,FALSE,TRUE,FALSE,35.211404,136.8106815,"113席
(禁煙:70/喫煙:43)"
487,守山瀬古店 | 珈琲所コメダ珈琲店,愛知県,名古屋市,守山区瀬古東3-1206,守山駅徒歩12分以上,052-791-3181,07:30〜23:30,http://www.komeda.co.jp/search/shopdetail.php?id=235,TRUE,FALSE,TRUE,FALSE,35.2118076,136.9430686,"86席
(禁煙:64/喫煙:22)"
488,守山白沢店 | 珈琲所コメダ珈琲店,愛知県,名古屋市,守山区川村町365,川村駅徒歩1分以上,052-796-1115,07:00〜23:30,http://www.komeda.co.jp/search/shopdetail.php?id=178,FALSE,FALSE,TRUE,FALSE,35.2134275,136.9688083,"90席
(禁煙:40/喫煙:50)"
489,中小田井店 | 珈琲所コメダ珈琲店,愛知県,名古屋市,西区中小田井三丁目234番地,中小田井駅徒歩10分以上,052-502-1116,06:30〜22:30,http://www.komeda.co.jp/search/shopdetail.php?id=406,TRUE,FALSE,TRUE,FALSE,35.2137048,136.8693455,"104席
(禁煙:58/喫煙:46)"
490,尾張旭店 | 珈琲所コメダ珈琲店,愛知県,尾張旭市,東大道町原田2525-9,尾張旭駅徒歩5分以上,0561-53-7554,07:00〜19:00,http://www.komeda.co.jp/search/shopdetail.php?id=70,FALSE,FALSE,FALSE,FALSE,35.2148019,137.037165,"52席
(禁煙:52/喫煙:0)"
491,ZENT名古屋北店 | 珈琲所コメダ珈琲店,愛知県,名古屋市,北区中切町5-5,比良駅徒歩20分以上,052-982-6551,07:00〜22:00,http://www.komeda.co.jp/search/shopdetail.php?id=607,TRUE,FALSE,TRUE,FALSE,35.2168033,136.9093035,"84席
(禁煙:52/喫煙:32)"
492,清須店 | 珈琲所コメダ珈琲店,愛知県,清須市,西市場6-9-23,清洲駅徒歩11分以上,052-400-8182,07:00〜22:00,http://www.komeda.co.jp/search/shopdetail.php?id=142,TRUE,FALSE,TRUE,FALSE,35.2203423,136.8282102,"72席
(禁煙:46/喫煙:26)"
493,尾張瀬戸店 | 珈琲所コメダ珈琲店,愛知県,瀬戸市,陶原町1-38-1,尾張瀬戸駅徒歩5分以上,0561-89-5688,07:00〜23:00,http://www.komeda.co.jp/search/shopdetail.php?id=278,TRUE,FALSE,TRUE,FALSE,35.2228083,137.0920872,"138席
(禁煙:87/喫煙:51)"
494,松河戸店 | 珈琲所コメダ珈琲店,愛知県,春日井市,中切町1-1-5,川村駅徒歩18分以上,0568-82-5458,07:00〜00:00,http://www.komeda.co.jp/search/shopdetail.php?id=92,TRUE,FALSE,TRUE,FALSE,35.2256754,136.9689857,"196席
(禁煙:60/喫煙:136)"
495,イオン久里浜店 | 珈琲所コメダ珈琲店,神奈川県,横須賀市,久里浜5-13-1イオンショッピングセンター内,京急久里浜駅徒歩4分以上,046-838-5340,08:00〜21:30,http://www.komeda.co.jp/search/shopdetail.php?id=344,FALSE,FALSE,TRUE,FALSE,35.2287606,139.7037016,"99席
(禁煙:82/喫煙:17)"
496,春日店 | 珈琲所コメダ珈琲店,愛知県,清須市,春日中沼15-1,尾張星の宮駅徒歩26分以上,052-401-2266,06:45〜22:30,http://www.komeda.co.jp/search/shopdetail.php?id=77,TRUE,FALSE,TRUE,FALSE,35.2293446,136.855377,"127席
(禁煙:86/喫煙:41)"
497,如意店 | 珈琲所コメダ珈琲店,愛知県,名古屋市,北区如意4-44-3,味美駅徒歩18分以上,052-902-3255,07:30〜18:00,http://www.komeda.co.jp/search/shopdetail.php?id=126,TRUE,FALSE,TRUE,FALSE,35.2361377,136.9207616,"62席
(禁煙:10/喫煙:52)"
498,守山志段味店 | 珈琲所コメダ珈琲店,愛知県,名古屋市,守山区平池東315,春日井駅徒歩28分以上,052-736-0658,07:00〜23:00,http://www.komeda.co.jp/search/shopdetail.php?id=302,FALSE,FALSE,TRUE,FALSE,35.2369086,137.0061127,"122席
(禁煙:64/喫煙:58)"
499,師勝店 | 珈琲所コメダ珈琲店,愛知県,北名古屋市,久地野権現1,比良駅徒歩15分以上,0568-23-0260,07:00〜22:00,http://www.komeda.co.jp/search/shopdetail.php?id=121,FALSE,FALSE,TRUE,FALSE,35.2369952,136.8966554,"87席
(禁煙:56/喫煙:31)"
500,稲沢大塚店 | 珈琲所コメダ珈琲店,愛知県,稲沢市,大塚北8ｰ56-3,国府宮駅徒歩20分以上,0587-24-7757,07:30〜23:30,http://www.komeda.co.jp/search/shopdetail.php?id=291,FALSE,FALSE,TRUE,FALSE,35.2420805,136.7973898,"99席
(禁煙:58/喫煙:41)"
501,名古屋空港東店 | 珈琲所コメダ珈琲店,愛知県,春日井市,味美上ノ町2049-4,味美駅徒歩22分以上,0568-34-2888,06:00〜19:00,http://www.komeda.co.jp/search/shopdetail.php?id=357,TRUE,FALSE,FALSE,FALSE,35.2431835,136.935546,"80席
(禁煙:80/喫煙:0)"
502,富士宮店 | 珈琲所コメダ珈琲店,静岡県,富士宮市,三園平687,西富士宮駅徒歩33分以上,0544-66-8298,07:00〜23:00,http://www.komeda.co.jp/search/shopdetail.php?id=532,TRUE,FALSE,TRUE,FALSE,35.2445954,138.6138654,"101席
(禁煙:66/喫煙:35)"
503,春日井如意申店 | 珈琲所コメダ珈琲店,愛知県,春日井市,如意申町6-1-12,勝川駅徒歩28分以上,0568-36-0988,07:00〜22:00,http://www.komeda.co.jp/search/shopdetail.php?id=143,TRUE,FALSE,TRUE,FALSE,35.2457354,136.949903,"100席
(禁煙:72/喫煙:28)"
504,春日井上八田店 | 珈琲所コメダ珈琲店,愛知県,春日井市,八田町7-3-14,春日井駅徒歩29分以上,0568-29-8840,07:00〜23:00,http://www.komeda.co.jp/search/shopdetail.php?id=95,TRUE,FALSE,TRUE,FALSE,35.2564373,136.9692151,"105席
(禁煙:63/喫煙:42)"
505,稲沢駅東店 | 珈琲所コメダ珈琲店,愛知県,稲沢市,下津北山1丁目7-7,稲沢駅徒歩5分以上,0587-22-1333,07:00〜23:00,http://www.komeda.co.jp/search/shopdetail.php?id=414,TRUE,FALSE,TRUE,FALSE,35.2571766,136.8226723,"92席
(禁煙:56/喫煙:36)"
506,春日井篠木店 | 珈琲所コメダ珈琲店,愛知県,春日井市,下市場町3ｰ4-12,神領駅徒歩17分以上,0568-85-5213,07:00〜23:00,http://www.komeda.co.jp/search/shopdetail.php?id=220,TRUE,FALSE,TRUE,FALSE,35.2585469,136.9973376,"101席
(禁煙:70/喫煙:31)"
507,稲沢西店 | 珈琲所コメダ珈琲店,愛知県,稲沢市,石橋5ｰ38,国府宮駅徒歩32分以上,0587-24-2221,07:30〜23:30,http://www.komeda.co.jp/search/shopdetail.php?id=147,FALSE,FALSE,TRUE,FALSE,35.2592447,136.7789373,"133席
(禁煙:92/喫煙:41)"
508,春日井東谷橋店 | 珈琲所コメダ珈琲店,愛知県,春日井市,高蔵寺町4-1-10,高蔵寺駅徒歩6分以上,0568-51-9657,07:00〜23:00,http://www.komeda.co.jp/search/shopdetail.php?id=112,TRUE,FALSE,TRUE,FALSE,35.2600464,137.0432466,"86席
(禁煙:50/喫煙:36)"
509,彦根平田店 | 珈琲所コメダ珈琲店,滋賀県,彦根市,平田町1115番1,南彦根駅徒歩26分以上,0749-24-7071,07:00〜23:00,http://www.komeda.co.jp/search/shopdetail.php?id=552,TRUE,FALSE,TRUE,FALSE,35.2609421,136.2382167,"120席
(禁煙:95/喫煙:25)"
510,岩倉川井町店 | 珈琲所コメダ珈琲店,愛知県,岩倉市,川井町白山27,大山寺駅徒歩11分以上,0587-38-5001,06:30〜22:00,http://www.komeda.co.jp/search/shopdetail.php?id=224,FALSE,FALSE,TRUE,FALSE,35.2650851,136.8663932,"91席
(禁煙:38/喫煙:53)"
511,彦根駅東店 | 珈琲所コメダ珈琲店,滋賀県,彦根市,外町135,彦根駅徒歩3分以上,0749-27-0898,07:00〜23:00,http://www.komeda.co.jp/search/shopdetail.php?id=423,TRUE,FALSE,TRUE,FALSE,35.2697091,136.2655222,"96席
(禁煙:54/喫煙:42)"
512,南鴨宮店 | 珈琲所コメダ珈琲店,神奈川県,小田原市,南鴨宮2-41-2,鴨宮駅徒歩7分以上,0465-47-1678,07:00〜22:00,http://www.komeda.co.jp/search/shopdetail.php?id=547,FALSE,FALSE,TRUE,FALSE,35.2711972,139.1801168,"122席
(禁煙:89/喫煙:33)"
513,小牧小木店 | 珈琲所コメダ珈琲店,愛知県,小牧市,小木西2-246-1,岩倉駅徒歩22分以上,0568-41-1550,07:00〜22:00,http://www.komeda.co.jp/search/shopdetail.php?id=145,TRUE,FALSE,TRUE,FALSE,35.2731369,136.8897872,"102席
(禁煙:20/喫煙:82)"
514,小牧中央店 | 珈琲所コメダ珈琲店,愛知県,小牧市,中央6-332,小牧口駅徒歩11分以上,0568-72-0231,07:00〜22:30,http://www.komeda.co.jp/search/shopdetail.php?id=174,TRUE,FALSE,TRUE,FALSE,35.2842642,136.9361385,"74席
(禁煙:52/喫煙:22)"
515,一宮花池店 | 珈琲所コメダ珈琲店,愛知県,一宮市,花池3ｰ11ｰ7,妙興寺駅徒歩3分以上,0586-46-7401,07:30〜23:00,http://www.komeda.co.jp/search/shopdetail.php?id=148,FALSE,FALSE,TRUE,FALSE,35.2875305,136.7955535,"72席
(禁煙:36/喫煙:36)"
516,岩倉八剱店 | 珈琲所コメダ珈琲店,愛知県,岩倉市,八剱町下り松36,石仏駅徒歩12分以上,0587-65-4088,07:00〜22:00,http://www.komeda.co.jp/search/shopdetail.php?id=203,TRUE,FALSE,TRUE,FALSE,35.2929178,136.8799291,"96席
(禁煙:60/喫煙:36)"
517,桃花台店 | 珈琲所コメダ珈琲店,愛知県,小牧市,高根2ｰ189-5,桃花台センター駅徒歩14分以上,0568-78-5571,07:00〜22:00,http://www.komeda.co.jp/search/shopdetail.php?id=172,FALSE,FALSE,TRUE,FALSE,35.2936089,136.9773568,"94席
(禁煙:54/喫煙:40)"
518,一宮森本店 | 珈琲所コメダ珈琲店,愛知県,一宮市,森本1ｰ22-5,妙興寺駅徒歩25分以上,0586-71-1556,07:30〜22:30,http://www.komeda.co.jp/search/shopdetail.php?id=173,FALSE,FALSE,TRUE,FALSE,35.2942081,136.8158732,"88席
(禁煙:56/喫煙:32)"
519,御殿場店 | 珈琲所コメダ珈琲店,静岡県,御殿場市,新橋1537-1,御殿場駅徒歩5分以上,0550-84-5800,07:00〜22:00,http://www.komeda.co.jp/search/shopdetail.php?id=562,TRUE,FALSE,TRUE,FALSE,35.2994411,138.9386586,"129席
(禁煙:102/喫煙:27)"
520,一宮神山店 | 珈琲所コメダ珈琲店,愛知県,一宮市,神山1-14-26,西一宮駅徒歩5分以上,0586-44-6446,07:00〜23:00,http://www.komeda.co.jp/search/shopdetail.php?id=329,FALSE,FALSE,TRUE,FALSE,35.3041562,136.7906341,"91席
(禁煙:59/喫煙:32)"
521,一宮浜町店 | 珈琲所コメダ珈琲店,愛知県,一宮市,浜町4-11-1,尾張一宮駅徒歩22分以上,0586-72-2955,07:30〜22:30,http://www.komeda.co.jp/search/shopdetail.php?id=135,FALSE,FALSE,TRUE,FALSE,35.3095591,136.8122759,"96席
(禁煙:34/喫煙:62)"
522,小牧岩崎店 | 珈琲所コメダ珈琲店,愛知県,小牧市,岩崎1995,味岡駅徒歩13分以上,0568-41-3288,07:00〜22:00,http://www.komeda.co.jp/search/shopdetail.php?id=162,TRUE,FALSE,TRUE,FALSE,35.3097252,136.9296685,"91席
(禁煙:24/喫煙:67)"
523,一宮小信店 | 珈琲所コメダ珈琲店,愛知県,一宮市,小信中島字川東14-1,奥町駅徒歩26分以上,0586-64-1246,07:00〜22:30,http://www.komeda.co.jp/search/shopdetail.php?id=164,TRUE,FALSE,TRUE,FALSE,35.3115194,136.7483909,"86席
(禁煙:86/喫煙:0)"
524,一宮開明店 | 珈琲所コメダ珈琲店,愛知県,一宮市,開明字郷東20ｰ1,開明駅徒歩6分以上,0586-43-3481,07:30〜22:30,http://www.komeda.co.jp/search/shopdetail.php?id=170,FALSE,FALSE,TRUE,FALSE,35.3153412,136.7714414,"78席
(禁煙:24/喫煙:54)"
525,鎌倉小町店 | 珈琲所コメダ珈琲店,神奈川県,鎌倉市,小町2丁目2ｰ18サンオークビル2F,鎌倉駅徒歩5分以上,0467-24-5511,07:00〜21:30,http://www.komeda.co.jp/search/shopdetail.php?id=627,FALSE,FALSE,TRUE,FALSE,35.320843,139.5518485,"78席
(禁煙:56/喫煙:22)"
526,土岐下石店 | 珈琲所コメダ珈琲店,岐阜県,土岐市,下石町1936-6,土岐市駅徒歩62分以上,0572-58-3033,07:00〜23:00,http://www.komeda.co.jp/search/shopdetail.php?id=338,TRUE,FALSE,TRUE,FALSE,35.3237013,137.2026256,"100席
(禁煙:56/喫煙:44)"
527,なぎさモール辻堂店 | 珈琲所コメダ珈琲店,神奈川県,藤沢市,辻堂西海岸2丁目11-4,辻堂駅徒歩20分以上,0466-30-2500,07:00〜22:00,http://www.komeda.co.jp/search/shopdetail.php?id=738,TRUE,TRUE,TRUE,FALSE,35.3245229,139.441812,"102席
(禁煙:82/喫煙:20)"
528,平塚駅南口店 | 珈琲所コメダ珈琲店,神奈川県,平塚市,八重咲町3-33,平塚駅徒歩2分以上,0463-24-0077,07:00〜23:00,http://www.komeda.co.jp/search/shopdetail.php?id=773,TRUE,FALSE,TRUE,FALSE,35.3267696,139.3513738,"72席
(禁煙:51/喫煙:21)"
529,多治見錦町店 | 珈琲所コメダ珈琲店,岐阜県,多治見市,錦町2-24,多治見駅徒歩12分以上,0572-22-0658,07:00〜20:00,http://www.komeda.co.jp/search/shopdetail.php?id=205,TRUE,FALSE,TRUE,FALSE,35.329639,137.1271048,"87席
(禁煙:64/喫煙:23)"
530,鎌倉深沢店 | 珈琲所コメダ珈琲店,神奈川県,鎌倉市,常盤91-5,湘南深沢駅徒歩4分以上,0467-73-7080,07:00〜23:30,http://www.komeda.co.jp/search/shopdetail.php?id=340,TRUE,FALSE,TRUE,FALSE,35.3305406,139.5182556,"117席
(禁煙:73/喫煙:44)"
531,羽島コスモスポーツプラザ店 | 珈琲所コメダ珈琲店,岐阜県,羽島市,福寿町間島1518,竹鼻駅徒歩11分以上,058-322-3395,07:00〜22:00,http://www.komeda.co.jp/search/shopdetail.php?id=765,TRUE,FALSE,TRUE,FALSE,35.3327919,136.7014605,"105席
(禁煙:72/喫煙:33)"
532,上平塚店 | 珈琲所コメダ珈琲店,神奈川県,平塚市,上平塚3-12,平塚駅徒歩33分以上,0463-33-1320,07:00〜22:00※7月〜9月は07:00〜23:00,http://www.komeda.co.jp/search/shopdetail.php?id=339,TRUE,FALSE,TRUE,FALSE,35.3334466,139.3246813,"116席
(禁煙:56/喫煙:60)"
533,大井松田店 | 珈琲所コメダ珈琲店,神奈川県,足柄上郡,大井町金子138-1,相模金子駅徒歩5分以上,0465-43-8678,07:00〜23:00,http://www.komeda.co.jp/search/shopdetail.php?id=583,TRUE,FALSE,TRUE,FALSE,35.3351563,139.1543271,"97席
(禁煙:64/喫煙:33)"
534,江南西店 | 珈琲所コメダ珈琲店,愛知県,江南市,東野町米野85,江南駅徒歩17分以上,0587-53-1900,07:30〜23:30,http://www.komeda.co.jp/search/shopdetail.php?id=195,FALSE,FALSE,TRUE,FALSE,35.3360886,136.85909,"104席
(禁煙:76/喫煙:28)"
535,大垣南店 | 珈琲所コメダ珈琲店,岐阜県,大垣市,築捨町2ｰ29-1,美濃青柳駅徒歩23分以上,0584-89-8866,07:00〜23:00,http://www.komeda.co.jp/search/shopdetail.php?id=268,TRUE,FALSE,TRUE,FALSE,35.3410423,136.6220716,"113席
(禁煙:62/喫煙:51)"
536,多治見住吉店 | 珈琲所コメダ珈琲店,岐阜県,多治見市,住吉町6ｰ6,多治見駅徒歩16分以上,0572-25-6622,07:00〜23:00,http://www.komeda.co.jp/search/shopdetail.php?id=180,TRUE,FALSE,TRUE,FALSE,35.3452537,137.1198662,"105席
(禁煙:64/喫煙:41)"
537,江南村久野店 | 珈琲所コメダ珈琲店,愛知県,江南市,村久野町瀬頭163-5,江南駅徒歩33分以上,0587-57-4777,07:00〜23:00,http://www.komeda.co.jp/search/shopdetail.php?id=347,TRUE,FALSE,TRUE,FALSE,35.3558168,136.8738829,"106席
(禁煙:68/喫煙:38)"
538,土岐市駅前店 | 珈琲所コメダ珈琲店,岐阜県,土岐市,泉町久尻613-16ガウディかきやビル1F,土岐市駅徒歩1分以上,0572-55-7272,06:30〜21:00,http://www.komeda.co.jp/search/shopdetail.php?id=431,TRUE,FALSE,TRUE,FALSE,35.3595021,137.1833795,"58席
(禁煙:40/喫煙:18)"
539,イオンタウン木更津請西店 | 珈琲所コメダ珈琲店,千葉県,木更津市,請西南2-27-1,木更津駅徒歩41分以上,0438-38-4858,07:00〜23:00,http://www.komeda.co.jp/search/shopdetail.php?id=604,FALSE,FALSE,TRUE,FALSE,35.3595603,139.9436474,"94席
(禁煙:72/喫煙:22)"
540,瑞浪店 | 珈琲所コメダ珈琲店,岐阜県,瑞浪市,西小田町5-65,瑞浪駅徒歩33分以上,0572-68-1080,07:00〜23:00,http://www.komeda.co.jp/search/shopdetail.php?id=324,FALSE,FALSE,TRUE,FALSE,35.3613811,137.2279559,"114席
(禁煙:86/喫煙:28)"
541,扶桑伊勢帰店 | 珈琲所コメダ珈琲店,愛知県,丹羽郡,扶桑町大字高雄字伊勢帰128-2,木津用水駅徒歩7分以上,0587-92-3139,06:30〜22:00,http://www.komeda.co.jp/search/shopdetail.php?id=182,TRUE,FALSE,TRUE,FALSE,35.3655833,136.9206307,"96席
(禁煙:60/喫煙:36)"
542,犬山五郎丸店 | 珈琲所コメダ珈琲店,愛知県,犬山市,大字五郎丸字上前田23,山口駅徒歩13分以上,0568-65-3100,07:30〜22:00,http://www.komeda.co.jp/search/shopdetail.php?id=213,TRUE,FALSE,TRUE,FALSE,35.3662327,136.943017,"113席
(禁煙:68/喫煙:45)"
543,横浜鍛冶ケ谷店 | 珈琲所コメダ珈琲店,神奈川県,横浜市,栄区鍛冶ｹ谷1丁目2番3号,本郷台駅徒歩12分以上,045-897-3365,07:00〜23:00,http://www.komeda.co.jp/search/shopdetail.php?id=640,TRUE,FALSE,TRUE,FALSE,35.3663643,139.5596112,"100席
(禁煙:80/喫煙:20)"
544,大垣林町店 | 珈琲所コメダ珈琲店,岐阜県,大垣市,林町1-1-1,大垣駅徒歩6分以上,0584-83-0828,07:00〜23:00,http://www.komeda.co.jp/search/shopdetail.php?id=289,TRUE,TRUE,TRUE,FALSE,35.3687307,136.6216514,"115席
(禁煙:60/喫煙:55)"
545,寒川店 | 珈琲所コメダ珈琲店,神奈川県,高座郡,寒川町宮山95-1,寒川駅徒歩10分以上,0467-84-8575,07:00〜23:00,http://www.komeda.co.jp/search/shopdetail.php?id=411,TRUE,FALSE,TRUE,FALSE,35.3725949,139.3820639,"103席
(禁煙:72/喫煙:31)"
546,出雲姫原店 | 珈琲所コメダ珈琲店,島根県,出雲市,姫原4丁目6-2,電鉄出雲市駅徒歩20分以上,0853-31-5090,07:00〜23:00,http://www.komeda.co.jp/search/shopdetail.php?id=699,TRUE,FALSE,TRUE,FALSE,35.3750009,132.7573697,"95席
(禁煙:70/喫煙:25)"
547,藤沢亀井野店 | 珈琲所コメダ珈琲店,神奈川県,藤沢市,亀井野2506-1,六会日大前駅徒歩12分以上,0466-84-1740,07:00〜23:00,http://www.komeda.co.jp/search/shopdetail.php?id=452,TRUE,FALSE,TRUE,FALSE,35.3773125,139.4767537,"93席
(禁煙:68/喫煙:25)"
548,岐阜柳津店 | 珈琲所コメダ珈琲店,岐阜県,岐阜市,柳津町上佐波西1-104,柳津駅徒歩35分以上,058-279-4448,07:00〜23:30,http://www.komeda.co.jp/search/shopdetail.php?id=211,FALSE,FALSE,TRUE,FALSE,35.3778314,136.7148033,"94席
(禁煙:60/喫煙:34)"
549,平塚田村店 | 珈琲所コメダ珈琲店,神奈川県,平塚市,田村6-20-11,宮山駅徒歩23分以上,0463-51-5595,07:00〜23:00,http://www.komeda.co.jp/search/shopdetail.php?id=311,FALSE,TRUE,TRUE,FALSE,35.3787307,139.362071,"113席
(禁煙:39/喫煙:74)"
550,秦野店 | 珈琲所コメダ珈琲店,神奈川県,秦野市,曽屋1547,秦野駅徒歩20分以上,0463-85-4147,07:00〜22:00,http://www.komeda.co.jp/search/shopdetail.php?id=525,FALSE,FALSE,TRUE,FALSE,35.3792187,139.2149491,"108席
(禁煙:84/喫煙:24)"
551,岐阜笠松店 | 珈琲所コメダ珈琲店,岐阜県,岐阜市,茜部辰新1-60,笠松駅徒歩11分以上,058-274-2711,07:00〜22:30,http://www.komeda.co.jp/search/shopdetail.php?id=226,TRUE,FALSE,TRUE,FALSE,35.381634,136.7624386,"90席
(禁煙:22/喫煙:68)"
552,岐阜茜部店 | 珈琲所コメダ珈琲店,岐阜県,岐阜市,六条江東3-1-31,岐南駅徒歩29分以上,058-277-5580,07:00〜22:00,http://www.komeda.co.jp/search/shopdetail.php?id=209,TRUE,FALSE,TRUE,FALSE,35.3882192,136.747104,"116席
(禁煙:54/喫煙:62)"
553,イオンモール各務原店 | 珈琲所コメダ珈琲店,岐阜県,各務原市,那加萱場町3-8,新加納駅徒歩11分以上,058-375-3738,09:00〜22:00,http://www.komeda.co.jp/search/shopdetail.php?id=321,FALSE,FALSE,TRUE,FALSE,35.3917813,136.8244201,"88席
(禁煙:64/喫煙:24)"
554,藤沢湘南台店 | 珈琲所コメダ珈琲店,神奈川県,藤沢市,石川1761-5,湘南台駅徒歩30分以上,0466-89-0077,07:00〜23:00,http://www.komeda.co.jp/search/shopdetail.php?id=264,FALSE,FALSE,TRUE,FALSE,35.3927039,139.4437223,"114席
(禁煙:52/喫煙:62)"
555,長浜八幡中山店 | 珈琲所コメダ珈琲店,滋賀県,長浜市,八幡中山町508,長浜駅徒歩27分以上,0749-62-5110,07:00〜23:00,http://www.komeda.co.jp/search/shopdetail.php?id=395,TRUE,FALSE,TRUE,FALSE,35.3933519,136.2754637,"138席
(禁煙:88/喫煙:50)"
556,各務原那加住吉店 | 珈琲所コメダ珈琲店,岐阜県,各務原市,那加住吉町4ｰ5,各務原市役所前駅徒歩8分以上,058-389-4460,06:30〜23:00,http://www.komeda.co.jp/search/shopdetail.php?id=168,TRUE,FALSE,TRUE,FALSE,35.3984719,136.853497,"114席
(禁煙:88/喫煙:26)"
557,岐阜領下店 | 珈琲所コメダ珈琲店,岐阜県,岐阜市,領下1丁目38ｰ1,細畑駅徒歩5分以上,058-259-3880,07:00〜22:00,http://www.komeda.co.jp/search/shopdetail.php?id=257,TRUE,FALSE,TRUE,FALSE,35.4033619,136.7809497,"98席
(禁煙:52/喫煙:46)"
558,鵜沼店 | 珈琲所コメダ珈琲店,岐阜県,各務原市,鵜沼西町1-409-1,鵜沼宿駅徒歩6分以上,058-384-2424,07:00〜23:00,http://www.komeda.co.jp/search/shopdetail.php?id=304,TRUE,FALSE,TRUE,FALSE,35.4033762,136.9309592,"124席
(禁煙:50/喫煙:74)"
559,岐阜駅東店 | 珈琲所コメダ珈琲店,岐阜県,岐阜市,高砂町3ｰ50-11,名鉄岐阜駅徒歩5分以上,058-264-5055,07:00〜23:00,http://www.komeda.co.jp/search/shopdetail.php?id=193,TRUE,FALSE,TRUE,FALSE,35.4089584,136.7633955,"104席
(禁煙:56/喫煙:48)"
560,岐阜駅前店 | 珈琲所コメダ珈琲店,岐阜県,岐阜市,橋本町3ｰ10,岐阜駅徒歩11分以上,058-253-8633,07:00〜23:00,http://www.komeda.co.jp/search/shopdetail.php?id=258,TRUE,FALSE,TRUE,FALSE,35.411347,136.74825,"151席
(禁煙:92/喫煙:59)"
561,横浜中田店 | 珈琲所コメダ珈琲店,神奈川県,横浜市,泉区中田西2丁目6番8号,立場駅徒歩6分以上,045-806-5231,07:00〜23:00,http://www.komeda.co.jp/search/shopdetail.php?id=633,TRUE,FALSE,TRUE,FALSE,35.4125411,139.5047152,"92席
(禁煙:72/喫煙:20)"
562,岐阜穂積店 | 珈琲所コメダ珈琲店,岐阜県,瑞穂市,馬場春雨町1-22,穂積駅徒歩27分以上,058-327-7700,07:00〜23:00,http://www.komeda.co.jp/search/shopdetail.php?id=230,TRUE,FALSE,TRUE,FALSE,35.4128653,136.6869063,"123席
(禁煙:68/喫煙:55)"
563,可児坂戸店 | 珈琲所コメダ珈琲店,岐阜県,可児市,坂戸字前田604-1,可児川駅徒歩20分以上,0574-60-0280,07:00〜22:00,http://www.komeda.co.jp/search/shopdetail.php?id=253,TRUE,FALSE,TRUE,FALSE,35.4167372,137.0346161,"96席
(禁煙:32/喫煙:64)"
564,大和下和田店 | 珈琲所コメダ珈琲店,神奈川県,大和市,下和田字下ノ原731-1,高座渋谷駅徒歩13分以上,046-268-6520,07:00〜23:00,http://www.komeda.co.jp/search/shopdetail.php?id=305,TRUE,FALSE,TRUE,FALSE,35.424123,139.468965,"115席
(禁煙:70/喫煙:45)"
565,可児広見店 | 珈琲所コメダ珈琲店,岐阜県,可児市,広見5丁目2-1,新可児駅徒歩9分以上,0574-42-9222,07:00〜23:00,http://www.komeda.co.jp/search/shopdetail.php?id=577,TRUE,FALSE,TRUE,FALSE,35.4256487,137.0629939,"93席
(禁煙:68/喫煙:25)"
566,カインズ木更津金田店 | 珈琲所コメダ珈琲店,千葉県,木更津市,中島426番地東153街区1画地,巌根駅徒歩26分以上,0438-53-8211,07:00〜23:00,http://www.komeda.co.jp/search/shopdetail.php?id=506,FALSE,FALSE,TRUE,FALSE,35.4319153,139.9349665,"99席
(禁煙:68/喫煙:31)"
567,岐阜公園店 | 珈琲所コメダ珈琲店,岐阜県,岐阜市,松ヶ枝町6-1,田神駅徒歩32分以上,058-263-2552,07:00〜22:30,http://www.komeda.co.jp/search/shopdetail.php?id=266,TRUE,FALSE,TRUE,FALSE,35.4321195,136.7722107,"101席
(禁煙:44/喫煙:57)"
568,米子車尾店 | 珈琲所コメダ珈琲店,鳥取県,米子市,車尾3丁目1番35号,東山公園駅徒歩3分以上,0859-30-4310,07:00〜23:00,http://www.komeda.co.jp/search/shopdetail.php?id=541,TRUE,FALSE,TRUE,FALSE,35.4330023,133.3523847,"110席
(禁煙:73/喫煙:37)"
569,岐阜則武店 | 珈琲所コメダ珈琲店,岐阜県,岐阜市,則武中2-24-2,名鉄岐阜駅徒歩52分以上,058-210-1075,07:00〜23:00,http://www.komeda.co.jp/search/shopdetail.php?id=228,TRUE,FALSE,TRUE,FALSE,35.4401207,136.7392782,"90席
(禁煙:42/喫煙:48)"
570,横浜元町店 | 珈琲所コメダ珈琲店,神奈川県,横浜市,中区元町3丁目119番地山岡ビル2F,元町・中華街駅徒歩4分以上,045-227-5687,09:00〜21:00※土日祝07:00〜21:00,http://www.komeda.co.jp/search/shopdetail.php?id=630,TRUE,TRUE,FALSE,FALSE,35.4403834,139.6479292,"62席
(禁煙:62/喫煙:0)"
571,海老名大谷店 | 珈琲所コメダ珈琲店,神奈川県,海老名市,大谷808-1,厚木駅徒歩16分以上,046-233-2345,07:00〜23:00,http://www.komeda.co.jp/search/shopdetail.php?id=316,FALSE,FALSE,TRUE,FALSE,35.4434046,139.3907058,"118席
(禁煙:66/喫煙:52)"
572,岐阜長良店 | 珈琲所コメダ珈琲店,岐阜県,岐阜市,長良東1-3,田神駅徒歩57分以上,058-294-0688,07:00〜23:00,http://www.komeda.co.jp/search/shopdetail.php?id=262,TRUE,FALSE,TRUE,FALSE,35.4462897,136.7851758,"121席
(禁煙:62/喫煙:59)"
573,松江浜乃木店 | 珈琲所コメダ珈琲店,島根県,松江市,浜乃木2丁目1番34号,乃木駅徒歩5分以上,0852-67-5661,07:00〜23:00,http://www.komeda.co.jp/search/shopdetail.php?id=868,TRUE,FALSE,TRUE,FALSE,35.4479787,133.052617,"95席
(禁煙:62/喫煙:33)"
574,恵那長島店 | 珈琲所コメダ珈琲店,岐阜県,恵那市,長島町正家2ｰ6-7,恵那駅徒歩14分以上,0573-25-7744,07:00〜00:00,http://www.komeda.co.jp/search/shopdetail.php?id=276,TRUE,FALSE,TRUE,FALSE,35.448717,137.4161524,"92席
(禁煙:58/喫煙:34)"
575,西舞鶴店 | 珈琲所コメダ珈琲店,京都,府舞鶴市,字下福井小字大野辺897-3,西舞鶴駅徒歩21分以上,0773-78-4040,07:00〜23:00,http://www.komeda.co.jp/search/shopdetail.php?id=519,TRUE,FALSE,TRUE,FALSE,35.4500144,135.3177776,"97席
(禁煙:68/喫煙:29)"
576,美濃加茂店 | 珈琲所コメダ珈琲店,岐阜県,美濃加茂市,山手町1-146,美濃太田駅徒歩7分以上,0574-25-6006,07:00〜00:00,http://www.komeda.co.jp/search/shopdetail.php?id=298,TRUE,FALSE,TRUE,FALSE,35.450061,137.017264,"110席
(禁煙:44/喫煙:66)"
577,厚木妻田店 | 珈琲所コメダ珈琲店,神奈川県,厚木市,妻田南1-17-43,本厚木駅徒歩23分以上,046-205-6224,07:00〜22:30,http://www.komeda.co.jp/search/shopdetail.php?id=330,TRUE,FALSE,TRUE,FALSE,35.4537027,139.359778,"101席
(禁煙:57/喫煙:44)"
578,岐阜大学前店 | 珈琲所コメダ珈琲店,岐阜県,岐阜市,古市場神田14-1,糸貫駅から7.3km,058-234-8306,07:00〜23:00,http://www.komeda.co.jp/search/shopdetail.php?id=318,TRUE,FALSE,TRUE,FALSE,35.4623283,136.7314088,"96席
(禁煙:50/喫煙:46)"
579,海老名かしわ台店 | 珈琲所コメダ珈琲店,神奈川県,海老名市,柏ヶ谷555-1,かしわ台駅徒歩6分以上,046-232-5338,07:00〜23:00,http://www.komeda.co.jp/search/shopdetail.php?id=372,FALSE,FALSE,TRUE,FALSE,35.4634883,139.4131484,"103席
(禁煙:69/喫煙:34)"
580,横浜西口北幸店 | 珈琲所コメダ珈琲店,神奈川県,横浜市,西区北幸2-9-11相鉄本社ビル1F,平沼橋駅徒歩9分以上,045-321-7737,07:00〜22:30,http://www.komeda.co.jp/search/shopdetail.php?id=400,FALSE,FALSE,TRUE,FALSE,35.4662913,139.6148492,"92席
(禁煙:66/喫煙:26)"
581,揖斐大野店 | 珈琲所コメダ珈琲店,岐阜県,揖斐郡,大野町大字中之元972-2,揖斐駅徒歩57分以上,0585-35-8228,07:00〜23:00,http://www.komeda.co.jp/search/shopdetail.php?id=342,TRUE,FALSE,TRUE,FALSE,35.4680224,136.6165417,"96席
(禁煙:44/喫煙:52)"
582,岐阜関店 | 珈琲所コメダ珈琲店,岐阜県,関市,山田字門田77-1,岩田駅徒歩54分以上,0575-28-5343,08:00〜18:00,http://www.komeda.co.jp/search/shopdetail.php?id=349,TRUE,FALSE,TRUE,FALSE,35.4693191,136.8597026,errer
583,松江学園店 | 珈琲所コメダ珈琲店,島根県,松江市,学園1丁目6番18号,松江駅徒歩25分以上,0852-60-2040,07:00〜23:00,http://www.komeda.co.jp/search/shopdetail.php?id=584,TRUE,FALSE,TRUE,FALSE,35.4802502,133.0638788,"97席
(禁煙:64/喫煙:33)"
584,富士吉田店 | 珈琲所コメダ珈琲店,山梨県,富士吉田市,新西原5-5597-16,富士急ハイランド駅徒歩4分以上,0555-72-8952,07:00〜23:00,http://www.komeda.co.jp/search/shopdetail.php?id=482,TRUE,FALSE,TRUE,FALSE,35.4877046,138.784387,"104席
(禁煙:70/喫煙:34)"
585,鳥取立川店 | 珈琲所コメダ珈琲店,鳥取県,鳥取市,立川町5丁目267-1,鳥取駅徒歩25分以上,0857-32-8688,07:00〜23:00,http://www.komeda.co.jp/search/shopdetail.php?id=877,TRUE,FALSE,TRUE,FALSE,35.49002,134.2472712,"96席
(禁煙:74/喫煙:22)"
586,小浜店 | 珈琲所コメダ珈琲店,福井県,小浜市,駅前町13-11,小浜駅徒歩5分以上,0770-53-4040,07:00〜23:00,http://www.komeda.co.jp/search/shopdetail.php?id=748,TRUE,FALSE,TRUE,FALSE,35.4929128,135.7490187,"96席
(禁煙:68/喫煙:28)"
587,関池田店 | 珈琲所コメダ珈琲店,岐阜県,関市,小瀬字北池田2352-4,関市役所前駅徒歩16分以上,0575-46-8701,07:00〜00:00,http://www.komeda.co.jp/search/shopdetail.php?id=516,TRUE,FALSE,TRUE,FALSE,35.495762,136.900835,"98席
(禁煙:60/喫煙:38)"
588,カインズモール鳥取店 | 珈琲所コメダ珈琲店,鳥取県,鳥取市,古海514-3,鳥取駅徒歩32分以上,0857-30-5515,07:00〜23:00,http://www.komeda.co.jp/search/shopdetail.php?id=572,TRUE,FALSE,TRUE,FALSE,35.4959104,134.2030784,"93席
(禁煙:70/喫煙:23)"
589,米子弓ヶ浜店 | 珈琲所コメダ珈琲店,鳥取県,米子市,大篠津町689-11,大篠津駅徒歩16分以上,0859-30-2374,07:00〜23:00,http://www.komeda.co.jp/search/shopdetail.php?id=648,FALSE,FALSE,TRUE,FALSE,35.4976801,133.2634262,"98席
(禁煙:68/喫煙:30)"
590,中津川店 | 珈琲所コメダ珈琲店,岐阜県,中津川市,上金1142-1,中津川駅徒歩12分以上,0573-65-6650,07:00〜00:00,http://www.komeda.co.jp/search/shopdetail.php?id=301,TRUE,FALSE,TRUE,FALSE,35.4993165,137.5124272,"102席
(禁煙:60/喫煙:42)"
591,飯田店 | 珈琲所コメダ珈琲店,長野県,飯田市,鼎一色190-1,切石駅徒歩18分以上,0265-24-3340,07:30〜22:00,http://www.komeda.co.jp/search/shopdetail.php?id=348,TRUE,FALSE,TRUE,FALSE,35.5011821,137.8117791,"88席
(禁煙:51/喫煙:37)"
592,大和つきみ野店 | 珈琲所コメダ珈琲店,神奈川県,大和市,つきみ野町5ｰ17-1,つきみ野駅徒歩1分以上,046-271-0320,07:00〜23:00,http://www.komeda.co.jp/search/shopdetail.php?id=251,FALSE,FALSE,TRUE,FALSE,35.5109461,139.4591681,"94席
(禁煙:60/喫煙:34)"
593,横浜中山店 | 珈琲所コメダ珈琲店,神奈川県,横浜市,緑区中山町310-5,中山駅徒歩4分以上,045-532-3601,07:00〜23:00,http://www.komeda.co.jp/search/shopdetail.php?id=367,FALSE,FALSE,TRUE,FALSE,35.5160565,139.5426663,"92席
(禁煙:55/喫煙:37)"
594,長津田店 | 珈琲所コメダ珈琲店,神奈川県,横浜市,緑区長津田6-4-24,長津田駅徒歩8分以上,045-306-7021,07:00〜23:00,http://www.komeda.co.jp/search/shopdetail.php?id=320,TRUE,FALSE,TRUE,FALSE,35.5280711,139.4969497,"110席
(禁煙:80/喫煙:30)"
595,飯田座光寺店 | 珈琲所コメダ珈琲店,長野県,飯田市,座光寺4600-1,元善光寺駅徒歩5分以上,0265-48-8022,07:30〜22:00,http://www.komeda.co.jp/search/shopdetail.php?id=840,TRUE,FALSE,TRUE,FALSE,35.5308464,137.861728,"84席
(禁煙:62/喫煙:22)"
596,川崎南加瀬店 | 珈琲所コメダ珈琲店,神奈川県,川崎市,幸区南加瀬2ｰ30ｰ7,新川崎駅徒歩15分以上,044-599-5500,07:00〜23:00,http://www.komeda.co.jp/search/shopdetail.php?id=505,TRUE,FALSE,TRUE,FALSE,35.5474456,139.6600239,"97席
(禁煙:68/喫煙:29)"
597,センター北駅店 | 珈琲所コメダ珈琲店,神奈川県,横浜市,都筑区中川中央1-1-3,センター北駅徒歩3分以内,045-910-5232,07:00〜23:00,http://www.komeda.co.jp/search/shopdetail.php?id=843,TRUE,FALSE,TRUE,FALSE,35.5535078,139.5780432,"104席
(禁煙:80/喫煙:24)"
598,豊岡店 | 珈琲所コメダ珈琲店,兵庫県,豊岡市,船町353-1,豊岡駅徒歩16分以上,0796-34-6757,07:00〜23:00,http://www.komeda.co.jp/search/shopdetail.php?id=724,TRUE,FALSE,TRUE,FALSE,35.5537688,134.8135266,"96席
(禁煙:74/喫煙:22)"
599,こどもの国店 | 珈琲所コメダ珈琲店,神奈川県,横浜市,青葉区奈良町832,こどもの国駅徒歩7分以上,045-532-5533,07:00〜23:00,http://www.komeda.co.jp/search/shopdetail.php?id=374,TRUE,FALSE,TRUE,FALSE,35.5540499,139.4901292,"98席
(禁煙:66/喫煙:32)"
600,ミスターマックスおゆみ野店 | 珈琲所コメダ珈琲店,千葉県,千葉市,緑区おゆみ野中央2-3-1K棟,おゆみ野駅徒歩9分以上,043-312-8845,07:00〜23:00,http://www.komeda.co.jp/search/shopdetail.php?id=739,TRUE,FALSE,TRUE,FALSE,35.554579,140.1604297,"101席
(禁煙:80/喫煙:21)"
601,古淵駅前店 | 珈琲所コメダ珈琲店,神奈川県,相模原市,南区古淵1丁目7番3号,古淵駅徒歩1分以上,042-707-1124,06:00〜23:30,http://www.komeda.co.jp/search/shopdetail.php?id=389,TRUE,FALSE,TRUE,FALSE,35.5558715,139.4203478,"116席
(禁煙:67/喫煙:49)"
602,横浜江田店 | 珈琲所コメダ珈琲店,神奈川県,横浜市,青葉区荏田北3ｰ5-10,江田駅徒歩3分以上,045-910-6788,07:00〜23:30,http://www.komeda.co.jp/search/shopdetail.php?id=246,TRUE,FALSE,TRUE,FALSE,35.560651,139.5502593,"158席
(禁煙:158/喫煙:0)"
603,相模原相生店 | 珈琲所コメダ珈琲店,神奈川県,相模原市,中央区相生2-1-5,淵野辺駅徒歩8分以上,042-757-7666,06:00〜23:00,http://www.komeda.co.jp/search/shopdetail.php?id=308,FALSE,FALSE,TRUE,FALSE,35.5651789,139.390053,"118席
(禁煙:60/喫煙:58)"
604,本町田店 | 珈琲所コメダ珈琲店,東京都,町田市,本町田2721-1,玉川学園前駅徒歩24分以上,042-728-8053,07:00〜22:30,http://www.komeda.co.jp/search/shopdetail.php?id=313,TRUE,FALSE,TRUE,FALSE,35.5655348,139.4447536,"115席
(禁煙:69/喫煙:46)"
605,下丸子店 | 珈琲所コメダ珈琲店,東京都,大田区,下丸子3-2-3,下丸子駅徒歩2分以上,03-6426-0039,07:00〜23:30,http://www.komeda.co.jp/search/shopdetail.php?id=322,TRUE,FALSE,TRUE,FALSE,35.572444,139.6843319,"107席
(禁煙:67/喫煙:40)"
606,川崎武蔵中原店 | 珈琲所コメダ珈琲店,神奈川県,川崎市,中原区上小田中6-15-8,武蔵中原駅徒歩4分以上,044-722-2007,07:00〜23:00,http://www.komeda.co.jp/search/shopdetail.php?id=394,FALSE,FALSE,TRUE,FALSE,35.5804565,139.6435961,"112席
(禁煙:73/喫煙:39)"
607,大森イトーヨーカドー店 | 珈琲所コメダ珈琲店,東京都,大田区,大森北2-13-1イトーヨーカドー1F,大森海岸駅徒歩3分以上,03-6423-0880,07:00〜23:00,http://www.komeda.co.jp/search/shopdetail.php?id=851,TRUE,FALSE,TRUE,FALSE,35.5869878,139.7328346,"93席
(禁煙:93/喫煙:0)"
608,ＭＥＧＡドン・キホーテ成東店 | 珈琲所コメダ珈琲店,千葉県,山武市,成東764-2,成東駅徒歩24分以上,0475-80-0121,07:00〜23:00,http://www.komeda.co.jp/search/shopdetail.php?id=539,FALSE,FALSE,TRUE,FALSE,35.5960039,140.3992672,"92席
(禁煙:70/喫煙:22)"
609,橋本店 | 珈琲所コメダ珈琲店,神奈川県,相模原市,緑区橋本8ｰ2-1,橋本駅徒歩11分以上,042-700-7515,07:00〜22:30,http://www.komeda.co.jp/search/shopdetail.php?id=263,TRUE,FALSE,TRUE,FALSE,35.5983136,139.3374734,"56席
(禁煙:22/喫煙:34)"
610,向ヶ丘遊園店 | 珈琲所コメダ珈琲店,神奈川県,川崎市,多摩区登戸2789,向ヶ丘遊園駅徒歩2分以上,044-328-5858,07:00〜23:00,http://www.komeda.co.jp/search/shopdetail.php?id=407,TRUE,FALSE,TRUE,FALSE,35.6152595,139.5663437,"87席
(禁煙:60/喫煙:27)"
611,唐木田店 | 珈琲所コメダ珈琲店,東京都,多摩市,鶴牧2-24-1,唐木田駅徒歩2分以上,042-316-9168,07:00〜23:00,http://www.komeda.co.jp/search/shopdetail.php?id=418,FALSE,FALSE,TRUE,FALSE,35.6169611,139.4131577,"92席
(禁煙:63/喫煙:29)"
612,武蔵小山店 | 珈琲所コメダ珈琲店,東京都,品川区,荏原3-8ｰ7ロイヤル武蔵小山2階,武蔵小山駅徒歩5分以上,03-6426-1353,07:00〜23:00,http://www.komeda.co.jp/search/shopdetail.php?id=580,TRUE,TRUE,TRUE,FALSE,35.6175554,139.7066542,"109席
(禁煙:75/喫煙:34)"
613,甲府昭和店 | 珈琲所コメダ珈琲店,山梨県,中巨摩郡,昭和町飯喰字村西1105,常永駅徒歩17分以上,055-288-8773,07:00〜23:00,http://www.komeda.co.jp/search/shopdetail.php?id=466,TRUE,TRUE,TRUE,FALSE,35.619712,138.52028,"104席
(禁煙:68/喫煙:36)"
614,稲城向陽台店 | 珈琲所コメダ珈琲店,東京都,稲城市,向陽台6-10,南多摩駅徒歩11分以上,042-316-7700,07:00〜23:00,http://www.komeda.co.jp/search/shopdetail.php?id=328,TRUE,FALSE,TRUE,FALSE,35.6417197,139.4903453,"107席
(禁煙:76/喫煙:31)"
615,三軒茶屋店 | 珈琲所コメダ珈琲店,東京都,世田谷区,三軒茶屋1-38-8ステーションプラザロイヤルビル,三軒茶屋駅徒歩1分以上,03-6450-8923,07:00〜23:00,http://www.komeda.co.jp/search/shopdetail.php?id=474,TRUE,FALSE,TRUE,FALSE,35.6434484,139.6714735,"68席
(禁煙:46/喫煙:22)"
616,新木場駅前店 | 珈琲所コメダ珈琲店,東京都,江東区,新木場1-6-1-2F,新木場駅徒歩2分以上,03-5534-6684,07:00〜23:00,http://www.komeda.co.jp/search/shopdetail.php?id=856,TRUE,TRUE,TRUE,FALSE,35.6461875,139.8286372,"85席
(禁煙:68/喫煙:17)"
617,敦賀店 | 珈琲所コメダ珈琲店,福井県,敦賀市,呉竹町2丁目5番15号,敦賀駅徒歩24分以上,0770-25-1611,07:00〜23:00,http://www.komeda.co.jp/search/shopdetail.php?id=544,TRUE,FALSE,TRUE,FALSE,35.6463376,136.0574513,"100席
(禁煙:71/喫煙:29)"
618,石和店 | 珈琲所コメダ珈琲店,山梨県,笛吹市,石和町窪中島字北新開町587-19,石和温泉駅徒歩16分以上,055-298-6680,07:00〜23:00,http://www.komeda.co.jp/search/shopdetail.php?id=524,TRUE,FALSE,TRUE,FALSE,35.6477045,138.6288502,"98席
(禁煙:64/喫煙:34)"
619,イオン東雲店 | 珈琲所コメダ珈琲店,東京都,江東区,東雲1-9-10イオン東雲店内,辰巳駅徒歩11分以上,03-3532-6661,07:00〜23:00,http://www.komeda.co.jp/search/shopdetail.php?id=499,FALSE,FALSE,TRUE,FALSE,35.6485619,139.8021524,"99席
(禁煙:67/喫煙:32)"
620,新浦安店 | 珈琲所コメダ珈琲店,千葉県,浦安市,入船1-5-1MONA新浦安B館2階,新浦安駅徒歩1分以上,047-381-2636,06:30〜23:00,http://www.komeda.co.jp/search/shopdetail.php?id=393,TRUE,FALSE,FALSE,FALSE,35.6488822,139.9133878,"56席
(禁煙:56/喫煙:0)"
621,甲府貢川店 | 珈琲所コメダ珈琲店,山梨県,甲府市,貢川本町10番7号,甲府駅徒歩29分以上,055-288-1658,07:00〜23:00,http://www.komeda.co.jp/search/shopdetail.php?id=444,TRUE,FALSE,TRUE,FALSE,35.6546526,138.5518451,"100席
(禁煙:62/喫煙:38)"
622,渋谷道玄坂上店 | 珈琲所コメダ珈琲店,東京都,渋谷区,円山町20番1号,神泉駅徒歩2分以上,03-3461-5088,07:00〜23:00,http://www.komeda.co.jp/search/shopdetail.php?id=861,TRUE,FALSE,FALSE,FALSE,35.6562277,139.6949682,"80席
(禁煙:80/喫煙:0)"
623,八王子駅北口店 | 珈琲所コメダ珈琲店,東京都,八王子市,東町10-31階,八王子駅徒歩4分以上,042-642-8668,07:00〜23:00,http://www.komeda.co.jp/search/shopdetail.php?id=716,TRUE,FALSE,TRUE,FALSE,35.6586465,139.3386955,"88席
(禁煙:53/喫煙:35)"
624,渋谷宮益坂上店 | 珈琲所コメダ珈琲店,東京都,渋谷区,渋谷1-6-5SK青山ビル1･2階,渋谷駅徒歩5分以上,03-6451-1490,07:00〜23:00,http://www.komeda.co.jp/search/shopdetail.php?id=760,TRUE,FALSE,FALSE,FALSE,35.6606631,139.7055133,"71席
(禁煙:71/喫煙:0)"
625,府中白糸台店 | 珈琲所コメダ珈琲店,東京都,府中市,白糸台3-5-3,武蔵野台駅徒歩4分以上,042-306-6869,07:00〜23:00,http://www.komeda.co.jp/search/shopdetail.php?id=513,TRUE,FALSE,TRUE,FALSE,35.6651975,139.514589,"103席
(禁煙:66/喫煙:37)"
626,調布仙川店 | 珈琲所コメダ珈琲店,東京都,調布市,仙川町3-4-1,仙川駅徒歩5分以上,03-6909-0338,07:00〜22:45,http://www.komeda.co.jp/search/shopdetail.php?id=434,TRUE,FALSE,TRUE,FALSE,35.6657707,139.5835021,"94席
(禁煙:66/喫煙:28)"
627,千葉さつきが丘店 | 珈琲所コメダ珈琲店,千葉県,千葉市,花見川区犢橋町1101-1,スポーツセンター駅徒歩41分以上,043-216-6050,07:00〜23:00,http://www.komeda.co.jp/search/shopdetail.php?id=870,TRUE,FALSE,TRUE,FALSE,35.6664466,140.101375,"88席
(禁煙:66/喫煙:22)"
628,日野多摩平店 | 珈琲所コメダ珈琲店,東京都,日野市,多摩平6-1-8,豊田駅徒歩13分以上,042-589-6677,07:00〜23:00,http://www.komeda.co.jp/search/shopdetail.php?id=680,FALSE,FALSE,TRUE,FALSE,35.6679126,139.380036,"98席
(禁煙:68/喫煙:30)"
629,八王子楢原店 | 珈琲所コメダ珈琲店,東京都,八王子市,楢原町1247-3,西八王子駅徒歩34分以上,042-634-8031,07:00〜23:00,http://www.komeda.co.jp/search/shopdetail.php?id=712,TRUE,FALSE,TRUE,FALSE,35.6779768,139.3148748,"94席
(禁煙:68/喫煙:26)"
630,津田沼店 | 珈琲所コメダ珈琲店,千葉県,習志野市,津田沼4丁目5番5号,京成津田沼駅徒歩6分以上,047-409-8691,07:00〜23:00,http://www.komeda.co.jp/search/shopdetail.php?id=597,FALSE,FALSE,TRUE,FALSE,35.6836542,140.0191986,"100席
(禁煙:80/喫煙:20)"
631,三鷹上連雀店 | 珈琲所コメダ珈琲店,東京都,三鷹市,上連雀8-1-5,三鷹駅徒歩23分以上,0422-24-8058,07:00〜23:00,http://www.komeda.co.jp/search/shopdetail.php?id=352,FALSE,FALSE,TRUE,FALSE,35.6877819,139.5588647,"114席
(禁煙:78/喫煙:36)"
632,新宿御苑前店 | 珈琲所コメダ珈琲店,東京都,新宿区,新宿1-10-1文芸社ビル1F,新宿御苑前駅徒歩1分以上,03-6380-5820,07:00〜23:00,http://www.komeda.co.jp/search/shopdetail.php?id=818,TRUE,FALSE,TRUE,FALSE,35.688133,139.713948,"67席
(禁煙:51/喫煙:16)"
633,ダイエー大島店 | 珈琲所コメダ珈琲店,東京都,江東区,大島4-6-11F,西大島駅徒歩3分以上,03-5875-1046,06:30〜22:30,http://www.komeda.co.jp/search/shopdetail.php?id=461,TRUE,FALSE,TRUE,FALSE,35.688871,139.828961,"84席
(禁煙:66/喫煙:18)"
634,新宿靖国通り店 | 珈琲所コメダ珈琲店,東京都,新宿区,歌舞伎町1-16-3セレサ陽栄ビル2F,新宿駅徒歩2分以上,03-5292-5512,07:00〜05:00,http://www.komeda.co.jp/search/shopdetail.php?id=808,TRUE,TRUE,TRUE,FALSE,35.693716,139.701888,"119席
(禁煙:74/喫煙:45)"
635,丸井錦糸町店 | 珈琲所コメダ珈琲店,東京都,墨田区,江東橋3-9-10丸井錦糸町店2階,錦糸町駅徒歩2分以上,03-3631-6877,08:30〜22:00,http://www.komeda.co.jp/search/shopdetail.php?id=537,FALSE,TRUE,TRUE,FALSE,35.6951443,139.813831,"71席
(禁煙:51/喫煙:20)"
636,浅草橋駅前店 | 珈琲所コメダ珈琲店,東京都,台東区,柳橋1-20-4深代ビル2F,浅草橋駅徒歩3分以内,03-5809-3717,07:00〜23:00,http://www.komeda.co.jp/search/shopdetail.php?id=721,TRUE,TRUE,TRUE,FALSE,35.6974989,139.7867161,"76席
(禁煙:55/喫煙:21)"
637,アトレ亀戸店 | 珈琲所コメダ珈琲店,東京都,江東区,亀戸5-1-1アトレ亀戸2F,亀戸駅徒歩1分以上,03-5875-5910,07:00〜23:00,http://www.komeda.co.jp/search/shopdetail.php?id=778,TRUE,FALSE,TRUE,FALSE,35.6976666,139.8263486,"65席
(禁煙:51/喫煙:14)"
638,ドン・キホーテ新宿店 | 珈琲所コメダ珈琲店,東京都,新宿区,大久保1-12-62F,西武新宿駅徒歩4分以上,03-3207-8050,07:00〜05:00,http://www.komeda.co.jp/search/shopdetail.php?id=488,FALSE,FALSE,TRUE,FALSE,35.698632,139.703299,"73席
(禁煙:49/喫煙:24)"
639,国立北口店 | 珈琲所コメダ珈琲店,東京都,国立市,北1丁目5番6号,国立駅徒歩3分以内,042-505-9981,07:00〜23:00,http://www.komeda.co.jp/search/shopdetail.php?id=649,TRUE,TRUE,TRUE,FALSE,35.6997913,139.4470179,"110席
(禁煙:83/喫煙:27)"
640,東小金井店 | 珈琲所コメダ珈琲店,東京都,小金井市,梶野町5-2-19,東小金井駅徒歩2分以上,042-316-7170,07:00〜23:00,http://www.komeda.co.jp/search/shopdetail.php?id=589,TRUE,FALSE,TRUE,FALSE,35.7021514,139.5221842,"92席
(禁煙:69/喫煙:23)"
641,荻窪南口店 | 珈琲所コメダ珈琲店,東京都,杉並区,荻窪5-30-6福村産業荻窪ビル2F,荻窪駅徒歩3分以内,03-6915-1766,07:00〜23:00,http://www.komeda.co.jp/search/shopdetail.php?id=481,TRUE,TRUE,TRUE,FALSE,35.70391,139.621497,"77席
(禁煙:48/喫煙:29)"
642,吉祥寺ダイヤ街店 | 珈琲所コメダ珈琲店,東京都,武蔵野市,吉祥寺本町1-8-2北辰吉祥寺ビル西館2F,吉祥寺駅徒歩3分以上,0422-27-6845,07:00〜23:00,http://www.komeda.co.jp/search/shopdetail.php?id=533,FALSE,FALSE,TRUE,FALSE,35.7040815,139.5791071,"59席
(禁煙:43/喫煙:16)"
643,丸井中野店 | 珈琲所コメダ珈琲店,東京都,中野区,中野3-34-282階,中野駅徒歩12分以上,03-6454-1850,07:00〜23:00,http://www.komeda.co.jp/search/shopdetail.php?id=616,FALSE,FALSE,TRUE,FALSE,35.7046548,139.6652502,"72席
(禁煙:50/喫煙:22)"
644,昭島店 | 珈琲所コメダ珈琲店,東京都,昭島市,上川原町1丁目10番20号,昭島駅徒歩5分以上,042-519-1541,07:00〜23:00,http://www.komeda.co.jp/search/shopdetail.php?id=736,TRUE,FALSE,TRUE,FALSE,35.7099855,139.3622224,"92席
(禁煙:70/喫煙:22)"
645,田原町駅前店 | 珈琲所コメダ珈琲店,東京都,台東区,西浅草1丁目2番3号,田原町駅徒歩1分以上,03-5830-0733,07:00〜23:00,http://www.komeda.co.jp/search/shopdetail.php?id=838,TRUE,FALSE,TRUE,FALSE,35.7101576,139.7899728,"69席
(禁煙:55/喫煙:14)"
646,国分寺店 | 珈琲所コメダ珈琲店,東京都,国分寺市,並木町1丁目19-3,鷹の台駅徒歩11分以上,042-326-0300,07:00〜23:00,http://www.komeda.co.jp/search/shopdetail.php?id=576,TRUE,TRUE,TRUE,FALSE,35.7164699,139.457397,"100席
(禁煙:78/喫煙:22)"
647,八千代村上店 | 珈琲所コメダ珈琲店,千葉県,八千代市,村上南5-5-5,東葉勝田台駅徒歩10分以上,047-487-7788,07:00〜23:00,http://www.komeda.co.jp/search/shopdetail.php?id=599,TRUE,FALSE,TRUE,FALSE,35.7205606,140.1192865,"106席
(禁煙:86/喫煙:20)"
648,船橋芝山店 | 珈琲所コメダ珈琲店,千葉県,船橋市,芝山4-17-4,飯山満駅徒歩11分以上,04-7494-1547,07:00〜23:00,http://www.komeda.co.jp/search/shopdetail.php?id=729,FALSE,TRUE,TRUE,FALSE,35.721578,140.0212884,"93席
(禁煙:72/喫煙:21)"
649,千葉旭店 | 珈琲所コメダ珈琲店,千葉県,旭市,二517-3,旭駅徒歩5分以上,0479-60-5303,07:00〜23:00,http://www.komeda.co.jp/search/shopdetail.php?id=634,FALSE,FALSE,TRUE,FALSE,35.7248944,140.6536653,"93席
(禁煙:68/喫煙:25)"
650,池袋西武前店 | 珈琲所コメダ珈琲店,東京都,豊島区,南池袋1-19-6オリックス池袋ビル2階,池袋駅徒歩5分以上,03-5904-8989,07:00〜23:00,http://www.komeda.co.jp/search/shopdetail.php?id=657,TRUE,TRUE,TRUE,FALSE,35.7278251,139.7123195,"77席
(禁煙:77/喫煙:0)"
651,あきる野店 | 珈琲所コメダ珈琲店,東京都,あきる野市,秋川1-6-4,秋川駅徒歩2分以上,042-533-2040,07:00〜23:00,http://www.komeda.co.jp/search/shopdetail.php?id=635,TRUE,FALSE,TRUE,FALSE,35.729206,139.287784,"103席
(禁煙:78/喫煙:25)"
652,船橋日大前店 | 珈琲所コメダ珈琲店,千葉県,船橋市,坪井東2丁目13-21,船橋日大前駅徒歩3分以上,047-496-2288,07:00〜23:00,http://www.komeda.co.jp/search/shopdetail.php?id=647,TRUE,FALSE,TRUE,FALSE,35.7296332,140.0600455,"102席
(禁煙:86/喫煙:16)"
653,池袋西口店 | 珈琲所コメダ珈琲店,東京都,豊島区,西池袋1-24-1,池袋駅徒歩3分以内,03-6915-2897,07:00〜23:00,http://www.komeda.co.jp/search/shopdetail.php?id=436,TRUE,FALSE,TRUE,FALSE,35.7318391,139.7104886,"68席
(禁煙:45/喫煙:23)"
654,保谷店 | 珈琲所コメダ珈琲店,東京都,西東京市,富士町3-1-19,東伏見駅徒歩5分以上,042-497-5010,07:00〜23:00,http://www.komeda.co.jp/search/shopdetail.php?id=579,FALSE,FALSE,TRUE,FALSE,35.7321684,139.5633178,"93席
(禁煙:68/喫煙:25)"
655,巣鴨店 | 珈琲所コメダ珈琲店,東京都,豊島区,巣鴨3-28-9桃花源ビル2F,巣鴨駅徒歩3分以内,03-6903-5170,07:00〜23:00,http://www.komeda.co.jp/search/shopdetail.php?id=514,TRUE,TRUE,TRUE,FALSE,35.7335746,139.7379196,"80席
(禁煙:58/喫煙:22)"
656,花小金井店 | 珈琲所コメダ珈琲店,東京都,小平市,花小金井3丁目21番4号,花小金井駅徒歩17分以上,042-452-3852,07:00〜22:30,http://www.komeda.co.jp/search/shopdetail.php?id=508,TRUE,FALSE,TRUE,FALSE,35.7373719,139.5133385,"104席
(禁煙:74/喫煙:30)"
657,田端駅前店 | 珈琲所コメダ珈琲店,東京都,北区,田端6-1-1田端ASUKAタワー2階,田端駅徒歩2分以上,03-5834-7701,07:00〜23:00,http://www.komeda.co.jp/search/shopdetail.php?id=805,TRUE,FALSE,FALSE,FALSE,35.7381031,139.759338,"73席
(禁煙:73/喫煙:0)"
658,郡上八幡店 | 珈琲所コメダ珈琲店,岐阜県,郡上市,八幡町島谷1436-2,郡上八幡駅徒歩6分以上,0575-67-9007,07:00〜22:00,http://www.komeda.co.jp/search/shopdetail.php?id=486,TRUE,FALSE,TRUE,FALSE,35.7460242,136.948864,"92席
(禁煙:63/喫煙:29)"
659,北千住本町センター通り店 | 珈琲所コメダ珈琲店,東京都,足立区,千住2-43染野ビル2F,北千住駅徒歩2分以上,03-6806-1972,07:00〜23:00,http://www.komeda.co.jp/search/shopdetail.php?id=720,TRUE,TRUE,TRUE,FALSE,35.7490282,139.8024578,"91席
(禁煙:62/喫煙:29)"
660,大泉学園店 | 珈琲所コメダ珈琲店,東京都,練馬区,東大泉1丁目20-24見蔵ビル2F,大泉学園駅徒歩3分以上,03-6904-4770,07:00〜23:00,http://www.komeda.co.jp/search/shopdetail.php?id=782,TRUE,TRUE,TRUE,FALSE,35.7507687,139.5889441,"85席
(禁煙:65/喫煙:20)"
661,東村山店 | 珈琲所コメダ珈琲店,東京都,東村,山市久米川町4-8-21,東村山駅徒歩4分以上,042-313-0058,06:00〜23:00,http://www.komeda.co.jp/search/shopdetail.php?id=377,FALSE,FALSE,TRUE,FALSE,35.7606074,139.4697084,"118席
(禁煙:75/喫煙:43)"
662,鎌ヶ谷大仏店 | 珈琲所コメダ珈琲店,千葉県,鎌ケ谷市,東鎌ヶ谷2-20-25,鎌ヶ谷大仏駅徒歩7分以上,047-441-8283,07:00〜23:00,http://www.komeda.co.jp/search/shopdetail.php?id=857,TRUE,FALSE,TRUE,FALSE,35.7628102,140.0154894,"98席
(禁煙:86/喫煙:12)"
663,松戸秋山店 | 珈琲所コメダ珈琲店,千葉県,松戸市,秋山1-2-2,秋山駅徒歩3分以内,047-392-0400,07:00〜23:00,http://www.komeda.co.jp/search/shopdetail.php?id=847,TRUE,FALSE,TRUE,FALSE,35.7647022,139.9317419,"98席
(禁煙:86/喫煙:12)"
664,亀有駅前店 | 珈琲所コメダ珈琲店,東京都,葛飾区,亀有3-25-1,亀有駅徒歩3分以内,03-5849-3637,07:00〜23:00,http://www.komeda.co.jp/search/shopdetail.php?id=802,TRUE,TRUE,TRUE,FALSE,35.7666274,139.8480614,"110席
(禁煙:69/喫煙:41)"
665,東武下赤塚駅店 | 珈琲所コメダ珈琲店,東京都,板橋区,赤塚新町1-23-1東武下赤塚ビル201,下赤塚駅徒歩3分以内,03-5967-1525,07:00〜23:00,http://www.komeda.co.jp/search/shopdetail.php?id=871,TRUE,FALSE,TRUE,FALSE,35.770476,139.644884,"70席
(禁煙:55/喫煙:15)"
666,エキア東武練馬店 | 珈琲所コメダ珈琲店,東京都,板橋区,徳丸2-2-142F,東武練馬駅徒歩10分以上,03-5399-0611,07:00〜23:00,http://www.komeda.co.jp/search/shopdetail.php?id=860,TRUE,FALSE,TRUE,FALSE,35.775352,139.664128,"76席
(禁煙:61/喫煙:15)"
667,成増駅前店 | 珈琲所コメダ珈琲店,東京都,板橋区,成増2-15-18成増プライム2階,地下鉄成増駅徒歩3分以内,03-6915-6266,07:00〜23:00,http://www.komeda.co.jp/search/shopdetail.php?id=703,TRUE,TRUE,TRUE,FALSE,35.7770365,139.6320991,"82席
(禁煙:59/喫煙:23)"
668,成田ニュータウン店 | 珈琲所コメダ珈琲店,千葉県,成田市,赤坂3-4,公津の杜駅徒歩30分以上,0476-33-3100,07:00〜23:00,http://www.komeda.co.jp/search/shopdetail.php?id=652,TRUE,FALSE,TRUE,FALSE,35.7792709,140.2885147,"121席
(禁煙:101/喫煙:20)"
669,板橋四葉店 | 珈琲所コメダ珈琲店,東京都,板橋区,四葉2丁目6-10,新高島平駅徒歩16分以上,03-5967-1555,06:00〜23:00※年末年始は営業時間変更有,http://www.komeda.co.jp/search/shopdetail.php?id=373,TRUE,FALSE,TRUE,FALSE,35.7802483,139.6514979,"101席
(禁煙:77/喫煙:24)"
670,松戸伊勢丹通店 | 珈琲所コメダ珈琲店,千葉県,松戸市,松戸1286-1北辰ビル2F,松戸駅徒歩3分以上,047-368-0308,07:00〜23:00,http://www.komeda.co.jp/search/shopdetail.php?id=553,FALSE,TRUE,TRUE,FALSE,35.783294,139.899074,"85席
(禁煙:68/喫煙:17)"
671,青梅店 | 珈琲所コメダ珈琲店,東京都,青梅市,新町8丁目26番地2,小作駅徒歩19分以上,0428-78-2572,07:00〜23:00,http://www.komeda.co.jp/search/shopdetail.php?id=595,TRUE,FALSE,TRUE,FALSE,35.7841307,139.3131541,"98席
(禁煙:72/喫煙:26)"
672,葛飾東水元店 | 珈琲所コメダ珈琲店,東京都,葛飾区,東水元3-8-2,金町駅徒歩26分以上,03-5876-3988,07:00〜23:00,http://www.komeda.co.jp/search/shopdetail.php?id=458,TRUE,TRUE,TRUE,FALSE,35.7855191,139.8654626,"96席
(禁煙:60/喫煙:36)"
673,松戸常盤平店 | 珈琲所コメダ珈琲店,千葉県,松戸市,常盤平6-28-3,五香駅徒歩13分以上,047-382-6021,07:00〜23:00,http://www.komeda.co.jp/search/shopdetail.php?id=698,FALSE,TRUE,TRUE,FALSE,35.7937168,139.9567915,"100席
(禁煙:84/喫煙:16)"
674,所沢牛沼店 | 珈琲所コメダ珈琲店,埼玉県,所沢市,大字牛沼77-1,秋津駅徒歩24分以上,04-2941-6550,07:00〜23:00,http://www.komeda.co.jp/search/shopdetail.php?id=797,TRUE,FALSE,TRUE,FALSE,35.7939758,139.4931219,"104席
(禁煙:84/喫煙:20)"
675,足立竹の塚店 | 珈琲所コメダ珈琲店,東京都,足立区,竹の塚5-25-2,竹ノ塚駅徒歩6分以上,03-5851-9011,07:00〜23:00,http://www.komeda.co.jp/search/shopdetail.php?id=424,TRUE,TRUE,TRUE,FALSE,35.7968452,139.7947013,"91席
(禁煙:57/喫煙:34)"
676,新所沢店 | 珈琲所コメダ珈琲店,埼玉県,所沢市,緑町3丁目36-20,小手指駅徒歩9分以上,04-2936-6665,07:00〜23:00,http://www.komeda.co.jp/search/shopdetail.php?id=430,TRUE,FALSE,TRUE,FALSE,35.8027762,139.4449205,"134席
(禁煙:42/喫煙:92)"
677,千葉ニュータウン店 | 珈琲所コメダ珈琲店,千葉県,印西市,泉野1丁目144番6,千葉ニュータウン中央駅徒歩13分以上,0476-37-3690,06:30〜23:30,http://www.komeda.co.jp/search/shopdetail.php?id=571,TRUE,FALSE,TRUE,FALSE,35.8041965,140.1254333,"101席
(禁煙:68/喫煙:33)"
678,戸田公園店 | 珈琲所コメダ珈琲店,埼玉県,戸田市,新曽南三丁目12-17,戸田公園駅徒歩15分以上,048-299-4961,07:00〜23:00,http://www.komeda.co.jp/search/shopdetail.php?id=386,TRUE,TRUE,TRUE,FALSE,35.8078307,139.6664514,"124席
(禁煙:86/喫煙:38)"
679,朝霞台店 | 珈琲所コメダ珈琲店,埼玉県,朝霞市,東弁財1丁目7番36号,朝霞台駅徒歩4分以上,048-458-0110,07:00〜23:00,http://www.komeda.co.jp/search/shopdetail.php?id=695,TRUE,FALSE,TRUE,FALSE,35.8131612,139.5843697,"97席
(禁煙:68/喫煙:29)"
680,新松戸駅前店 | 珈琲所コメダ珈琲店,千葉県,松戸市,新松戸2-121新松戸駅前ビル2F,幸谷駅徒歩1分以上,047-701-7040,07:00〜23:00,http://www.komeda.co.jp/search/shopdetail.php?id=728,TRUE,FALSE,TRUE,FALSE,35.8253112,139.9195707,"87席
(禁煙:68/喫煙:19)"
681,伊那ナイスロード店 | 珈琲所コメダ珈琲店,長野県,伊那市,上新田2412,伊那市駅徒歩16分以上,0265-73-1153,07:00〜23:00,http://www.komeda.co.jp/search/shopdetail.php?id=653,FALSE,FALSE,TRUE,FALSE,35.8293531,137.9645541,"124席
(禁煙:89/喫煙:35)"
682,入間扇台店 | 珈琲所コメダ珈琲店,埼玉県,入間市,扇台1丁目5番12号,入間市駅徒歩17分以上,04-2936-8866,07:00〜23:00,http://www.komeda.co.jp/search/shopdetail.php?id=750,TRUE,FALSE,TRUE,FALSE,35.8311719,139.3930936,"98席
(禁煙:78/喫煙:20)"
683,松戸北小金店 | 珈琲所コメダ珈琲店,千葉県,松戸市,小金きよしヶ丘2-2-1,北小金駅徒歩5分以上,047-345-8883,07:00〜23:00,http://www.komeda.co.jp/search/shopdetail.php?id=515,TRUE,TRUE,TRUE,FALSE,35.8318973,139.9342832,"105席
(禁煙:68/喫煙:37)"
684,草加店 | 珈琲所コメダ珈琲店,埼玉県,草加市,弁天4丁目12-25,松原団地駅徒歩24分以上,048-933-2345,07:00〜23:00,http://www.komeda.co.jp/search/shopdetail.php?id=522,TRUE,TRUE,TRUE,FALSE,35.8427384,139.8194754,"103席
(禁煙:68/喫煙:35)"
685,川口芝店 | 珈琲所コメダ珈琲店,埼玉県,川口市,大字芝7229,南浦和駅徒歩24分以上,048-423-0740,07:00〜23:00,http://www.komeda.co.jp/search/shopdetail.php?id=747,TRUE,FALSE,TRUE,FALSE,35.8467092,139.6882649,"102席
(禁煙:68/喫煙:34)"
686,ららぽーと富士見店 | 珈琲所コメダ珈琲店,埼玉県,富士見市,山室1-13131階15100,鶴瀬駅徒歩24分以上,049-257-5090,09:00〜22:00,http://www.komeda.co.jp/search/shopdetail.php?id=675,TRUE,FALSE,TRUE,FALSE,35.8594539,139.5482826,"107席
(禁煙:78/喫煙:29)"
687,ふじみ野店 | 珈琲所コメダ珈琲店,埼玉県,ふじみ野市,ふじみ野3-10-26,ふじみ野駅徒歩9分以上,049-267-1695,07:00〜22:00,http://www.komeda.co.jp/search/shopdetail.php?id=445,FALSE,FALSE,TRUE,FALSE,35.8598906,139.5158207,"94席
(禁煙:61/喫煙:33)"
688,ららぽーと新三郷店 | 珈琲所コメダ珈琲店,埼玉県,三郷市,新三郷ららシティ3-1-1,新三郷駅徒歩5分以上,048-934-5154,08:00〜22:00※年末年始は変更致します。,http://www.komeda.co.jp/search/shopdetail.php?id=727,TRUE,FALSE,TRUE,FALSE,35.8601478,139.8653829,"79席
(禁煙:62/喫煙:17)"
689,柏モディ店 | 珈琲所コメダ珈琲店,千葉県,柏市,柏1-2-26,柏駅徒歩3分以上,04-7113-5115,07:00〜23:00,http://www.komeda.co.jp/search/shopdetail.php?id=785,TRUE,FALSE,TRUE,FALSE,35.8604496,139.970615,"73席
(禁煙:61/喫煙:12)"
690,東川口店 | 珈琲所コメダ珈琲店,埼玉県,川口市,戸塚6-2-7,戸塚安行駅徒歩9分以上,048-291-0220,07:00〜23:00,http://www.komeda.co.jp/search/shopdetail.php?id=417,TRUE,FALSE,TRUE,FALSE,35.8651385,139.7540112,"94席
(禁煙:68/喫煙:26)"
691,イオンタウン吉川美南店 | 珈琲所コメダ珈琲店,埼玉県,吉川市,美南3丁目12,新三郷駅徒歩19分以上,048-984-5111,07:00〜22:00,http://www.komeda.co.jp/search/shopdetail.php?id=574,TRUE,FALSE,TRUE,FALSE,35.8652499,139.8565752,"88席
(禁煙:64/喫煙:24)"
692,我孫子天王台店 | 珈琲所コメダ珈琲店,千葉県,我孫子市,天王台6丁目17番8,東我孫子駅徒歩8分以上,04-7189-8448,07:00〜23:00,http://www.komeda.co.jp/search/shopdetail.php?id=638,FALSE,TRUE,TRUE,FALSE,35.86637,140.0414575,"95席
(禁煙:72/喫煙:23)"
693,流山おおたかの森店 | 珈琲所コメダ珈琲店,千葉県,流山市,西初石6-818-18,豊四季駅徒歩15分以上,0471-70-2232,06:30〜22:30,http://www.komeda.co.jp/search/shopdetail.php?id=379,FALSE,FALSE,TRUE,FALSE,35.8684469,139.9272243,"101席
(禁煙:62/喫煙:39)"
694,南与野店 | 珈琲所コメダ珈琲店,埼玉県,さいたま市,中央区鈴谷4-2-1,南与野駅徒歩6分以上,048-851-5133,07:00〜23:00,http://www.komeda.co.jp/search/shopdetail.php?id=769,TRUE,FALSE,TRUE,FALSE,35.8705833,139.6283001,"101席
(禁煙:80/喫煙:21)"
695,北浦和駅前店 | 珈琲所コメダ珈琲店,埼玉県,さいたま市,浦和区北浦和3-4-14名古谷ビル2F,北浦和駅徒歩3分以内,048-762-7113,07:00〜23:00,http://www.komeda.co.jp/search/shopdetail.php?id=855,TRUE,FALSE,TRUE,FALSE,35.8726237,139.6465443,"80席
(禁煙:61/喫煙:19)"
696,神栖店 | 珈琲所コメダ珈琲店,茨城県,神栖市,知手2974-23,笹川駅徒歩74分以上,0299-77-8812,07:00〜23:00,http://www.komeda.co.jp/search/shopdetail.php?id=568,TRUE,FALSE,TRUE,FALSE,35.8741161,140.694811,"103席
(禁煙:68/喫煙:35)"
697,新越谷店 | 珈琲所コメダ珈琲店,埼玉県,越谷市,新越谷1丁目14番地3,新越谷駅徒歩12分以上,048-964-3335,07:00〜23:00,http://www.komeda.co.jp/search/shopdetail.php?id=705,TRUE,FALSE,TRUE,FALSE,35.8774579,139.780364,"98席
(禁煙:68/喫煙:30)"
698,浦和松木店 | 珈琲所コメダ珈琲店,埼玉県,さいたま市,緑区松木2-7-3,東浦和駅徒歩37分以上,048-711-1114,07:00〜23:00,http://www.komeda.co.jp/search/shopdetail.php?id=624,FALSE,FALSE,TRUE,FALSE,35.883602,139.6878722,"98席
(禁煙:78/喫煙:20)"
699,大宮上小町店 | 珈琲所コメダ珈琲店,埼玉県,さいたま市,大宮区上小町57-1,大宮駅徒歩18分以上,048-788-3272,07:00〜23:00,http://www.komeda.co.jp/search/shopdetail.php?id=708,TRUE,FALSE,TRUE,FALSE,35.9060339,139.6087027,"105席
(禁煙:83/喫煙:22)"
700,武生店 | 珈琲所コメダ珈琲店,福井県,越前市,芝原5丁目3-8,家久駅徒歩17分以上,0778-42-5551,07:00〜23:00,http://www.komeda.co.jp/search/shopdetail.php?id=497,TRUE,FALSE,TRUE,FALSE,35.9207601,136.159022,"103席
(禁煙:71/喫煙:32)"
701,川越仲町店 | 珈琲所コメダ珈琲店,埼玉県,川越市,仲町8-3,本川越駅徒歩11分以上,049-236-3373,07:00〜23:00,http://www.komeda.co.jp/search/shopdetail.php?id=803,TRUE,FALSE,TRUE,FALSE,35.9216844,139.4819797,"94席
(禁煙:74/喫煙:20)"
702,守谷高野店 | 珈琲所コメダ珈琲店,茨城県,守谷市,高野669-1,南守谷駅徒歩13分以上,0297-44-6234,07:00〜23:00,http://www.komeda.co.jp/search/shopdetail.php?id=673,TRUE,FALSE,TRUE,FALSE,35.9282657,139.9957904,"98席
(禁煙:72/喫煙:26)"
703,龍ケ崎店 | 珈琲所コメダ珈琲店,茨城県,龍ケ崎市,中根台4-1-1,入地駅徒歩27分以上,0297-66-2212,07:00〜23:00,http://www.komeda.co.jp/search/shopdetail.php?id=586,FALSE,FALSE,TRUE,FALSE,35.9313974,140.1724669,"95席
(禁煙:72/喫煙:23)"
704,鶴ヶ島店 | 珈琲所コメダ珈琲店,埼玉県,川越市,鯨井新田20-54,鶴ヶ島駅徒歩7分以上,049-277-5308,07:00〜23:00,http://www.komeda.co.jp/search/shopdetail.php?id=500,TRUE,TRUE,TRUE,FALSE,35.9329827,139.4203557,"100席
(禁煙:81/喫煙:19)"
705,大宮土呂店 | 珈琲所コメダ珈琲店,埼玉県,さいたま市,北区土呂町1-63-9,土呂駅徒歩9分以上,048-788-2166,07:00〜23:00,http://www.komeda.co.jp/search/shopdetail.php?id=737,TRUE,FALSE,TRUE,FALSE,35.9367245,139.63247,"102席
(禁煙:68/喫煙:34)"
706,鹿島神宮南店 | 珈琲所コメダ珈琲店,茨城県,鹿嶋市,宮中1996-8,鹿島神宮駅徒歩20分以上,0299-77-9244,07:00〜23:00,http://www.komeda.co.jp/search/shopdetail.php?id=654,TRUE,FALSE,TRUE,FALSE,35.9650087,140.6397161,"103席
(禁煙:68/喫煙:35)"
707,春日部店 | 珈琲所コメダ珈琲店,埼玉県,春日部市,谷原3丁目2-2,春日部駅徒歩13分以上,048-812-4151,07:00〜23:00,http://www.komeda.co.jp/search/shopdetail.php?id=479,FALSE,FALSE,TRUE,FALSE,35.9716322,139.7502538,"97席
(禁煙:72/喫煙:25)"
708,鯖江店 | 珈琲所コメダ珈琲店,福井県,鯖江市,神明町3丁目10-20,神明駅徒歩8分以上,0778-52-0555,06:30〜23:00,http://www.komeda.co.jp/search/shopdetail.php?id=446,TRUE,FALSE,TRUE,FALSE,35.9778222,136.1827707,"98席
(禁煙:62/喫煙:36)"
709,上尾上店 | 珈琲所コメダ珈琲店,埼玉県,上尾市,上303-4,桶川駅徒歩14分以上,048-771-2233,06:30〜23:30,http://www.komeda.co.jp/search/shopdetail.php?id=416,TRUE,FALSE,TRUE,FALSE,35.9957562,139.5747369,"93席
(禁煙:71/喫煙:22)"
710,ひたち野うしく店 | 珈琲所コメダ珈琲店,茨城県,牛久市,ひたち野東5丁目21番2,ひたち野うしく駅徒歩7分以上,029-871-7272,07:00〜22:30,http://www.komeda.co.jp/search/shopdetail.php?id=801,TRUE,FALSE,TRUE,FALSE,36.003669,140.1618436,"101席
(禁煙:80/喫煙:21)"
711,諏訪店 | 珈琲所コメダ珈琲店,長野県,諏訪市,四賀赤沼1750番地1,上諏訪駅徒歩45分以上,0266-75-5628,07:30〜22:00,http://www.komeda.co.jp/search/shopdetail.php?id=475,TRUE,FALSE,TRUE,FALSE,36.018631,138.123726,"88席
(禁煙:57/喫煙:31)"
712,福井木田橋通り店 | 珈琲所コメダ珈琲店,福井県,福井市,木田町1805番,福井新駅徒歩5分以上,0776-63-6664,07:00〜23:00,http://www.komeda.co.jp/search/shopdetail.php?id=485,TRUE,FALSE,TRUE,FALSE,36.0463307,136.2193892,"101席
(禁煙:64/喫煙:37)"
713,久喜店 | 珈琲所コメダ珈琲店,埼玉県,久喜市,青毛2-2-14,幸手駅徒歩16分以上,0480-29-2378,07:00〜23:00,http://www.komeda.co.jp/search/shopdetail.php?id=558,FALSE,FALSE,TRUE,FALSE,36.0739054,139.7022764,"98席
(禁煙:68/喫煙:30)"
714,つくば店 | 珈琲所コメダ珈琲店,茨城県,つくば市,小野崎129-1,つくば駅から徒歩13分,029-896-5832,06:00〜23:00,http://www.komeda.co.jp/search/shopdetail.php?id=491,FALSE,FALSE,TRUE,FALSE,36.0766146,140.1061014,"106席
(禁煙:74/喫煙:32)"
715,福井二の宮店 | 珈琲所コメダ珈琲店,福井県,福井市,二の宮2丁目803番1,西別院駅徒歩15分以上,0776-50-2257,07:00〜23:00,http://www.komeda.co.jp/search/shopdetail.php?id=471,TRUE,FALSE,TRUE,FALSE,36.0844451,136.2262267,"101席
(禁煙:66/喫煙:35)"
716,土浦真鍋店 | 珈琲所コメダ珈琲店,茨城県,土浦市,真鍋2-2-26,土浦駅徒歩22分以上,029-897-3133,07:00〜23:00,http://www.komeda.co.jp/search/shopdetail.php?id=645,TRUE,TRUE,TRUE,FALSE,36.0916506,140.1988386,"91席
(禁煙:68/喫煙:23)"
717,加須愛宕店 | 珈琲所コメダ珈琲店,埼玉県,加須市,愛宕一丁目6番55号,加須駅徒歩20分以上,0480-62-8989,07:00〜23:00※6/25〜6/27は07:00〜17:00,http://www.komeda.co.jp/search/shopdetail.php?id=879,TRUE,FALSE,TRUE,FALSE,36.1321375,139.5852766,"92席
(禁煙:74/喫煙:18)"
718,ピュア高山店 | 珈琲所コメダ珈琲店,岐阜県,高山市,西之一色町3丁目1195-2,高山駅徒歩13分以上,0577-35-7500,07:00〜23:00,http://www.komeda.co.jp/search/shopdetail.php?id=566,TRUE,FALSE,TRUE,FALSE,36.1322448,137.2493569,"109席
(禁煙:78/喫煙:31)"
719,塩尻広丘店 | 珈琲所コメダ珈琲店,長野県,塩尻市,広丘野村1702-3,広丘駅徒歩3分以上,0263-53-5322,07:00〜23:00,http://www.komeda.co.jp/search/shopdetail.php?id=564,TRUE,FALSE,TRUE,FALSE,36.1502096,137.9500975,"99席
(禁煙:74/喫煙:25)"
720,熊谷店 | 珈琲所コメダ珈琲店,埼玉県,熊谷市,中央1-326,上熊谷駅徒歩30分以上,048-501-6540,07:00〜23:00,http://www.komeda.co.jp/search/shopdetail.php?id=557,TRUE,FALSE,TRUE,FALSE,36.1582227,139.391688,"106席
(禁煙:86/喫煙:20)"
721,深谷店 | 珈琲所コメダ珈琲店,埼玉県,熊谷市,新堀新田616-1,籠原駅徒歩28分以上,048-577-5400,07:00〜23:00,http://www.komeda.co.jp/search/shopdetail.php?id=545,TRUE,FALSE,TRUE,FALSE,36.1758519,139.3086678,"106席
(禁煙:86/喫煙:20)"
722,石岡旭台店 | 珈琲所コメダ珈琲店,茨城県,石岡市,旭台2-17-4,東田中駅徒歩18分以上,029-956-7510,07:00〜23:00,http://www.komeda.co.jp/search/shopdetail.php?id=662,TRUE,FALSE,TRUE,FALSE,36.1932929,140.3028263,"101席
(禁煙:78/喫煙:23)"
723,古河三杉町店 | 珈琲所コメダ珈琲店,茨城県,古河市,三杉町2-3-6,古河駅徒歩18分以上,0280-31-1133,07:00〜23:00,http://www.komeda.co.jp/search/shopdetail.php?id=752,TRUE,FALSE,TRUE,FALSE,36.2036098,139.7186141,"99席
(禁煙:76/喫煙:23)"
724,松本庄内店 | 珈琲所コメダ珈琲店,長野県,松本市,出川1丁目12-1,南松本駅徒歩14分以上,0263-87-1153,07:00〜23:00,http://www.komeda.co.jp/search/shopdetail.php?id=447,FALSE,FALSE,TRUE,FALSE,36.2179466,137.9763429,"98席
(禁煙:66/喫煙:32)"
725,本庄店 | 珈琲所コメダ珈琲店,埼玉県,本庄市,五十子1-1-7,本庄駅徒歩12分以上,0495-71-7890,07:00〜23:00,http://www.komeda.co.jp/search/shopdetail.php?id=618,TRUE,FALSE,TRUE,FALSE,36.2280799,139.1907267,"106席
(禁煙:86/喫煙:20)"
726,館林店 | 珈琲所コメダ珈琲店,群馬県,館林市,富士見町4-52,館林駅徒歩3分以上,0276-56-9863,07:00〜23:00,http://www.komeda.co.jp/search/shopdetail.php?id=665,TRUE,FALSE,TRUE,FALSE,36.2449868,139.5248026,"94席
(禁煙:68/喫煙:26)"
727,ベイシア佐久平店 | 珈琲所コメダ珈琲店,長野県,佐久市,佐久平駅南17-5,佐久平駅徒歩5分以上,0267-78-3828,07:00〜23:00,http://www.komeda.co.jp/search/shopdetail.php?id=567,TRUE,TRUE,TRUE,FALSE,36.2754182,138.4666892,"96席
(禁煙:22/喫煙:74)"
728,イオンモール太田店 | 珈琲所コメダ珈琲店,群馬県,太田市,石原町81イオンモール太田1F,韮川駅徒歩20分以上,0276-45-3156,09:00〜22:00,http://www.komeda.co.jp/search/shopdetail.php?id=530,FALSE,FALSE,TRUE,FALSE,36.2946812,139.4001265,"87席
(禁煙:68/喫煙:19)"
729,小山店 | 珈琲所コメダ珈琲店,栃木県,小山市,西城南3-21-1,小山駅徒歩31分以上,0285-28-4151,07:00〜23:00,http://www.komeda.co.jp/search/shopdetail.php?id=493,TRUE,FALSE,TRUE,FALSE,36.295185,139.8048726,"93席
(禁煙:60/喫煙:33)"
730,佐野店 | 珈琲所コメダ珈琲店,栃木県,佐野市,高萩町1323-1,佐野市駅徒歩39分以上,0283-85-8455,07:00〜23:00,http://www.komeda.co.jp/search/shopdetail.php?id=521,TRUE,FALSE,TRUE,FALSE,36.3012433,139.6051891,"103席
(禁煙:74/喫煙:29)"
731,安曇野豊科店 | 珈琲所コメダ珈琲店,長野県,安曇野市,豊科南穂高768-1,豊科駅徒歩16分以上,0263-73-1153,07:00〜22:00※土07:00〜23:00,http://www.komeda.co.jp/search/shopdetail.php?id=690,FALSE,FALSE,TRUE,FALSE,36.3038845,137.9128673,"98席
(禁煙:76/喫煙:22)"
732,カインズ伊勢崎店 | 珈琲所コメダ珈琲店,群馬県,伊勢崎市,宮子町3154番,駒形駅徒歩39分以上,0270-75-2700,07:00〜23:00,http://www.komeda.co.jp/search/shopdetail.php?id=457,FALSE,FALSE,TRUE,FALSE,36.3344997,139.1591153,"97席
(禁煙:33/喫煙:64)"
733,水戸元吉田町店 | 珈琲所コメダ珈琲店,茨城県,水戸市,元吉田町1029-9,水戸駅徒歩42分以上,029-350-6080,07:00〜23:00,http://www.komeda.co.jp/search/shopdetail.php?id=811,TRUE,FALSE,TRUE,FALSE,36.3462329,140.4642252,"95席
(禁煙:70/喫煙:25)"
734,カインズ前橋川曲店 | 珈琲所コメダ珈琲店,群馬県,前橋市,川曲町513-1,井野駅徒歩35分以上,027-252-1220,07:00〜23:00,http://www.komeda.co.jp/search/shopdetail.php?id=795,TRUE,FALSE,TRUE,FALSE,36.3518053,139.0495055,"96席
(禁煙:82/喫煙:14)"
735,笠懸阿左美店 | 珈琲所コメダ珈琲店,群馬県,みどり市,笠懸阿左美176-8,阿左美駅徒歩9分以上,0277-32-4778,07:00〜23:00,http://www.komeda.co.jp/search/shopdetail.php?id=632,FALSE,FALSE,TRUE,FALSE,36.3808872,139.3023854,"109席
(禁煙:80/喫煙:29)"
736,自治医大店 | 珈琲所コメダ珈琲店,栃木県,下野市,緑2-22-9,自治医大駅徒歩16分以上,0285-40-5003,07:00〜23:00,http://www.komeda.co.jp/search/shopdetail.php?id=866,TRUE,FALSE,TRUE,FALSE,36.3852592,139.8531137,"99席
(禁煙:78/喫煙:21)"
737,栃木箱森店 | 珈琲所コメダ珈琲店,栃木県,栃木市,箱森町2-44,新栃木駅徒歩20分以上,050-3608-3142,07:00〜23:00,http://www.komeda.co.jp/search/shopdetail.php?id=749,TRUE,FALSE,TRUE,FALSE,36.386102,139.7268981,"96席
(禁煙:72/喫煙:24)"
738,水戸石川店 | 珈琲所コメダ珈琲店,茨城県,水戸市,石川2丁目4046-13,赤塚駅徒歩17分以上,029-291-6100,07:00〜23:00,http://www.komeda.co.jp/search/shopdetail.php?id=751,TRUE,FALSE,TRUE,FALSE,36.3884659,140.4256967,"96席
(禁煙:74/喫煙:22)"
739,ひたちなか長堀店 | 珈琲所コメダ珈琲店,茨城県,ひたちなか市,長堀町3丁目11番2,金上駅徒歩17分以上,029-229-3223,07:00〜23:00,http://www.komeda.co.jp/search/shopdetail.php?id=676,TRUE,FALSE,TRUE,FALSE,36.389549,140.5439197,"98席
(禁煙:68/喫煙:30)"
740,イオンモール高崎店 | 珈琲所コメダ珈琲店,群馬県,高崎市,棟高町1400イオンモール高崎1F,群馬総社駅徒歩51分以上,027-373-0817,09:00〜22:00,http://www.komeda.co.jp/search/shopdetail.php?id=498,FALSE,FALSE,TRUE,FALSE,36.3906194,139.006295,"68席
(禁煙:56/喫煙:12)"
741,小松沖店 | 珈琲所コメダ珈琲店,石川県,小松市,沖町区画整理地8街区5,小松駅徒歩21分以上,0761-24-2232,07:00〜23:00,http://www.komeda.co.jp/search/shopdetail.php?id=467,TRUE,FALSE,TRUE,FALSE,36.3966383,136.467306,"99席
(禁煙:60/喫煙:39)"
742,前橋住吉店 | 珈琲所コメダ珈琲店,群馬県,前橋市,住吉町1丁目15番1号,中央前橋駅徒歩13分以上,027-212-4150,07:00〜23:00,http://www.komeda.co.jp/search/shopdetail.php?id=661,TRUE,FALSE,TRUE,FALSE,36.3977112,139.0692662,"102席
(禁煙:80/喫煙:22)"
743,上田緑が丘店 | 珈琲所コメダ珈琲店,長野県,上田市,緑が丘1丁目1番6号,上田駅徒歩24分以上,0268-71-5133,07:00〜23:00,http://www.komeda.co.jp/search/shopdetail.php?id=534,TRUE,FALSE,TRUE,FALSE,36.4107022,138.2525186,"95席
(禁煙:66/喫煙:29)"
744,真岡店 | 珈琲所コメダ珈琲店,栃木県,真岡市,上高間木3丁目7番6号,真岡駅徒歩21分以上,0285-81-3111,07:00〜23:00,http://www.komeda.co.jp/search/shopdetail.php?id=788,TRUE,FALSE,TRUE,FALSE,36.4369602,139.9864886,"94席
(禁煙:68/喫煙:26)"
745,宇都宮みどり野店 | 珈琲所コメダ珈琲店,栃木県,宇都宮市,みどり野町36番20号,雀宮駅徒歩21分以上,050-3372-0713,07:00〜23:00,http://www.komeda.co.jp/search/shopdetail.php?id=796,TRUE,FALSE,TRUE,FALSE,36.4941688,139.8602974,"112席
(禁煙:92/喫煙:20)"
746,野々市矢作店 | 珈琲所コメダ珈琲店,石川県,野々市,市矢作2丁目47-1,額住宅前駅徒歩8分以上,076-248-2242,07:00〜23:00,http://www.komeda.co.jp/search/shopdetail.php?id=451,FALSE,FALSE,TRUE,FALSE,36.5210432,136.6126847,"112席
(禁煙:72/喫煙:40)"
747,宇都宮平松本町店 | 珈琲所コメダ珈琲店,栃木県,宇都宮市,平松本町1109-4,宇都宮駅徒歩24分以上,028-688-7043,07:00〜23:00,http://www.komeda.co.jp/search/shopdetail.php?id=601,TRUE,FALSE,TRUE,FALSE,36.5447283,139.9039861,"94席
(禁煙:68/喫煙:26)"
748,金沢もりの里店 | 珈琲所コメダ珈琲店,石川県,金沢市,もりの里1丁目208,野町駅徒歩59分以上,076-210-5501,07:00〜23:00,http://www.komeda.co.jp/search/shopdetail.php?id=441,TRUE,FALSE,TRUE,FALSE,36.5488325,136.6897062,"98席
(禁煙:72/喫煙:26)"
749,鹿沼店 | 珈琲所コメダ珈琲店,栃木県,鹿沼市,西茂呂2丁目23-14,鹿沼駅徒歩30分以上,0289-74-5716,07:00〜23:00,http://www.komeda.co.jp/search/shopdetail.php?id=546,TRUE,FALSE,TRUE,FALSE,36.5524214,139.7696999,"98席
(禁煙:68/喫煙:30)"
750,金沢大学附属病院店 | 珈琲所コメダ珈琲店,石川県,金沢市,宝町13ｰ1金沢大学附属病院内1F,野町駅徒歩38分以上,076-255-1236,07:00〜21:00※土日祝08:00〜18:00,http://www.komeda.co.jp/search/shopdetail.php?id=477,FALSE,FALSE,FALSE,FALSE,36.5569406,136.6732645,"43席
(禁煙:43/喫煙:0)"
751,宇都宮下戸祭店 | 珈琲所コメダ珈琲店,栃木県,宇都宮市,下戸祭1-6-1,東武宇都宮駅徒歩22分以上,028-680-7905,07:00〜23:00,http://www.komeda.co.jp/search/shopdetail.php?id=448,TRUE,FALSE,TRUE,FALSE,36.5733324,139.8811455,"94席
(禁煙:70/喫煙:24)"
752,金沢松村店 | 珈琲所コメダ珈琲店,石川県,金沢市,松村3-358,金沢駅徒歩44分以上,076-255-2031,07:00〜23:00,http://www.komeda.co.jp/search/shopdetail.php?id=384,TRUE,FALSE,TRUE,FALSE,36.5828662,136.6143935,"101席
(禁煙:58/喫煙:43)"
753,金沢高柳店 | 珈琲所コメダ珈琲店,石川県,金沢市,高柳町ﾆ32番地,東金沢駅徒歩10分以上,076-253-3001,07:00〜23:00,http://www.komeda.co.jp/search/shopdetail.php?id=420,TRUE,FALSE,TRUE,FALSE,36.5924739,136.6624453,"100席
(禁煙:60/喫煙:40)"
754,金沢直江店 | 珈琲所コメダ珈琲店,石川県,金沢市,直江土地区画整理地24A街区1,大河端駅徒歩11分以上,076-239-0303,07:00〜23:00,http://www.komeda.co.jp/search/shopdetail.php?id=609,TRUE,FALSE,TRUE,FALSE,36.61342,136.6352129,"121席
(禁煙:74/喫煙:47)"
755,イータウンとなみ店 | 珈琲所コメダ珈琲店,富山県,砺波市,三島町11番21号,砺波駅徒歩6分以上,0763-55-6663,07:00〜21:00,http://www.komeda.co.jp/search/shopdetail.php?id=487,TRUE,FALSE,TRUE,FALSE,36.6323805,136.9558647,"99席
(禁煙:64/喫煙:35)"
756,長野東和田店 | 珈琲所コメダ珈琲店,長野県,長野市,東和田508-1,北長野駅徒歩18分以上,026-219-3345,07:00〜23:00,http://www.komeda.co.jp/search/shopdetail.php?id=575,TRUE,FALSE,TRUE,FALSE,36.6541778,138.2259338,"105席
(禁煙:84/喫煙:21)"
757,富山掛尾店 | 珈琲所コメダ珈琲店,富山県,富山市,掛尾町26番1,朝菜町駅徒歩14分以上,076-464-5021,07:00〜23:00,http://www.komeda.co.jp/search/shopdetail.php?id=442,TRUE,FALSE,TRUE,FALSE,36.6616734,137.2134479,"101席
(禁煙:58/喫煙:43)"
758,富山呉羽店 | 珈琲所コメダ珈琲店,富山県,富山市,呉羽町草田2425-3,呉羽駅徒歩8分以上,076-482-3133,07:00〜23:00,http://www.komeda.co.jp/search/shopdetail.php?id=639,TRUE,FALSE,TRUE,FALSE,36.7141946,137.161663,"99席
(禁煙:74/喫煙:25)"
759,新高岡店 | 珈琲所コメダ珈琲店,富山県,高岡市,二塚414番1,二塚駅徒歩13分以上,0766-54-0572,07:00〜23:00,http://www.komeda.co.jp/search/shopdetail.php?id=642,FALSE,FALSE,TRUE,FALSE,36.7202529,137.0138371,"109席
(禁煙:76/喫煙:33)"
760,高岡中曽根店 | 珈琲所コメダ珈琲店,富山県,高岡市,中曽根2310番地,中新湊駅徒歩15分以上,0766-54-5811,07:00〜22:00※土祝前日07:00〜23:00日祝07:00〜21:00,http://www.komeda.co.jp/search/shopdetail.php?id=517,FALSE,TRUE,TRUE,FALSE,36.7685454,137.0801261,"95席
(禁煙:73/喫煙:22)"
761,魚津店 | 珈琲所コメダ珈琲店,富山県,魚津市,吉島259-1,魚津駅徒歩12分以上,0765-32-4511,07:00〜23:00,http://www.komeda.co.jp/search/shopdetail.php?id=570,TRUE,FALSE,TRUE,FALSE,36.8242457,137.4156644,"101席
(禁煙:72/喫煙:29)"
762,西那須野店 | 珈琲所コメダ珈琲店,栃木県,那須塩原市,下永田1丁目1003-2,西那須野駅徒歩15分以上,0287-46-5586,07:00〜23:00,http://www.komeda.co.jp/search/shopdetail.php?id=660,TRUE,FALSE,TRUE,FALSE,36.8826572,139.9976704,"106席
(禁煙:76/喫煙:30)"
763,いわき泉店 | 珈琲所コメダ珈琲店,福島県,いわき市,泉町滝尻定ノ田216,泉駅から徒歩7分,0246-56-9866,07:00〜23:00,http://www.komeda.co.jp/search/shopdetail.php?id=726,TRUE,FALSE,TRUE,FALSE,36.9550135,140.8604855,"96席
(禁煙:66/喫煙:30)"
764,ベイシア白河店 | 珈琲所コメダ珈琲店,福島県,白河市,老久保28ベイシアモール内,新白河駅徒歩17分以上,0248-21-5735,07:00〜23:00,http://www.komeda.co.jp/search/shopdetail.php?id=569,TRUE,FALSE,TRUE,FALSE,37.115832,140.198344,"103席
(禁煙:68/喫煙:35)"
765,上越店 | 珈琲所コメダ珈琲店,新潟県,上越市,下門前1645,直江津駅徒歩29分以上,025-539-0571,07:00〜23:00,http://www.komeda.co.jp/search/shopdetail.php?id=548,FALSE,FALSE,TRUE,FALSE,37.1548946,138.2544391,"121席
(禁煙:90/喫煙:31)"
766,柏崎店 | 珈琲所コメダ珈琲店,新潟県,柏崎市,大字鯨波乙1590-9,鯨波駅徒歩4分以上,0257-32-0016,07:00〜23:00,http://www.komeda.co.jp/search/shopdetail.php?id=822,TRUE,FALSE,TRUE,FALSE,37.3556242,138.5214042,"106席
(禁煙:76/喫煙:30)"
767,郡山大槻店 | 珈琲所コメダ珈琲店,福島県,郡山市,御前南1-22,安積永盛駅徒歩66分以上,024-983-3421,07:00〜23:00,http://www.komeda.co.jp/search/shopdetail.php?id=755,TRUE,FALSE,TRUE,FALSE,37.3863521,140.3325814,"106席
(禁煙:86/喫煙:20)"
768,郡山富田店 | 珈琲所コメダ珈琲店,福島県,郡山市,富田東1丁目320番地,喜久田駅徒歩49分以上,024-983-5801,07:00〜23:00,http://www.komeda.co.jp/search/shopdetail.php?id=715,TRUE,FALSE,TRUE,FALSE,37.4214073,140.3506728,"106席
(禁煙:86/喫煙:20)"
769,長岡今朝白店 | 珈琲所コメダ珈琲店,新潟県,長岡市,今朝白2丁目5番20号,長岡駅徒歩7分以上,0258-86-6350,07:00〜23:00,http://www.komeda.co.jp/search/shopdetail.php?id=540,TRUE,FALSE,TRUE,FALSE,37.4492733,138.8593345,"97席
(禁煙:64/喫煙:33)"
770,会津若松白虎通り店 | 珈琲所コメダ珈琲店,福島県,会津若松市,白虎町178-1,会津若松駅徒歩8分以上,0242-23-4227,07:00〜23:00,http://www.komeda.co.jp/search/shopdetail.php?id=770,TRUE,FALSE,TRUE,FALSE,37.5063766,139.9364586,"96席
(禁煙:66/喫煙:30)"
771,三条店 | 珈琲所コメダ珈琲店,新潟県,三条市,下須頃217,燕三条駅徒歩10分以上,0256-31-1070,07:00〜23:00,http://www.komeda.co.jp/search/shopdetail.php?id=509,FALSE,FALSE,TRUE,FALSE,37.6425166,138.9404884,"106席
(禁煙:78/喫煙:28)"
772,福島南中央店 | 珈琲所コメダ珈琲店,福島県,福島市,南中央1丁目19番5,笹木野駅徒歩22分以上,024-563-1698,07:00〜23:00,http://www.komeda.co.jp/search/shopdetail.php?id=859,TRUE,FALSE,TRUE,FALSE,37.7578582,140.4400592,"101席
(禁煙:82/喫煙:19)"
773,イオンモール新潟南店 | 珈琲所コメダ珈琲店,新潟県,新潟市,江南区下早通柳田1-1-1,亀田駅徒歩34分以上,025-384-8187,09:00〜22:00,http://www.komeda.co.jp/search/shopdetail.php?id=602,TRUE,FALSE,FALSE,FALSE,37.8760671,139.0812391,"78席
(禁煙:78/喫煙:0)"
774,イオン新潟青山店 | 珈琲所コメダ珈琲店,新潟県,新潟市,西区青山2-5-1,東青山駅徒歩2分以上,025-211-8551,07:00〜22:00,http://www.komeda.co.jp/search/shopdetail.php?id=527,TRUE,FALSE,TRUE,FALSE,37.8962826,139.0048827,"76席
(禁煙:56/喫煙:20)"
775,新潟新和店 | 珈琲所コメダ珈琲店,新潟県,新潟市,中央区新和1-5-34,白山駅徒歩20分以上,025-280-1060,07:00〜23:00,http://www.komeda.co.jp/search/shopdetail.php?id=463,TRUE,FALSE,TRUE,FALSE,37.9018301,139.0393714,"114席
(禁煙:81/喫煙:33)"
776,逢谷内インター店 | 珈琲所コメダ珈琲店,新潟県,新潟市,東区逢谷内3-1-45,大形駅徒歩17分以上,025-383-8501,07:00〜23:00,http://www.komeda.co.jp/search/shopdetail.php?id=490,FALSE,FALSE,TRUE,FALSE,37.9207974,139.1170921,"96席
(禁煙:76/喫煙:20)"
777,米沢徳町店 | 珈琲所コメダ珈琲店,山形県,米沢市,徳町2-69-1,西米沢駅徒歩23分以上,0238-21-1722,07:00〜23:00,http://www.komeda.co.jp/search/shopdetail.php?id=852,TRUE,FALSE,FALSE,FALSE,37.9216231,140.1025354,"93席
(禁煙:93/喫煙:0)"
778,仙台富沢店 | 珈琲所コメダ珈琲店,宮城県,仙台市,太白区大野田5-22-1,富沢駅徒歩5分以上,022-797-7990,07:00〜23:00,http://www.komeda.co.jp/search/shopdetail.php?id=656,TRUE,FALSE,TRUE,FALSE,38.2146708,140.8747236,"123席
(禁煙:98/喫煙:25)"
779,山形南館店 | 珈琲所コメダ珈琲店,山形県,山形市,南館西1-1,山形駅徒歩32分以上,023-674-6940,07:00〜23:00,http://www.komeda.co.jp/search/shopdetail.php?id=701,TRUE,FALSE,TRUE,FALSE,38.2383785,140.3052808,"100席
(禁煙:80/喫煙:20)"
780,仙台荒井店 | 珈琲所コメダ珈琲店,宮城県,仙台市,若林区伊在2丁目3-4,苦竹駅徒歩42分以上,022-288-8819,07:00〜23:00,http://www.komeda.co.jp/search/shopdetail.php?id=780,TRUE,FALSE,TRUE,FALSE,38.2461195,140.9361926,"103席
(禁煙:86/喫煙:17)"
781,山形嶋南店 | 珈琲所コメダ珈琲店,山形県,山形市,嶋南2丁目13番26号,東金井駅徒歩24分以上,023-666-6210,07:00〜23:00,http://www.komeda.co.jp/search/shopdetail.php?id=793,TRUE,FALSE,TRUE,FALSE,38.282108,140.3209613,"97席
(禁煙:80/喫煙:17)"
782,仙台桂店 | 珈琲所コメダ珈琲店,宮城県,仙台市,泉区桂1丁目16-7,泉中央駅徒歩27分以上,022-341-6351,07:00〜23:00,http://www.komeda.co.jp/search/shopdetail.php?id=702,TRUE,FALSE,TRUE,FALSE,38.3354485,140.8659188,"100席
(禁煙:84/喫煙:16)"
783,富谷店 | 珈琲所コメダ珈琲店,宮城県,富谷市,成田8丁目2-4,泉中央駅徒歩61分以上,022-342-1321,07:00〜23:00,http://www.komeda.co.jp/search/shopdetail.php?id=713,TRUE,FALSE,TRUE,FALSE,38.3598327,140.8932232,"103席
(禁煙:80/喫煙:23)"
784,石巻蛇田店 | 珈琲所コメダ珈琲店,宮城県,石巻市,蛇田新立野297-1,蛇田駅徒歩25分以上,0225-98-9830,07:00〜23:00,http://www.komeda.co.jp/search/shopdetail.php?id=830,TRUE,FALSE,TRUE,FALSE,38.4488635,141.2627664,"93席
(禁煙:68/喫煙:25)"
785,盛岡南店 | 珈琲所コメダ珈琲店,岩手県,盛岡市,向中野7-17-55,仙北町駅徒歩28分以上,019-656-7021,07:00〜23:00,http://www.komeda.co.jp/search/shopdetail.php?id=806,TRUE,FALSE,TRUE,FALSE,39.6731031,141.1359752,"100席
(禁煙:80/喫煙:20)"
786,秋田八橋店 | 珈琲所コメダ珈琲店,秋田県,秋田市,八橋大道東1番2-2号,秋田駅徒歩51分以上,018-864-1510,07:00〜23:00,http://www.komeda.co.jp/search/shopdetail.php?id=864,TRUE,FALSE,TRUE,FALSE,39.72739,140.0924869,"101席
(禁煙:82/喫煙:19)"
787,清田北野店 | 珈琲所コメダ珈琲店,北海道,札幌市,清田区北野1条2丁目10-31,南郷18丁目駅徒歩35分以上,011-886-5539,07:00〜23:00,http://www.komeda.co.jp/search/shopdetail.php?id=789,TRUE,FALSE,TRUE,FALSE,43.0079731,141.4321531,"92席
(禁煙:72/喫煙:20)"
788,南34条石山通り店 | 珈琲所コメダ珈琲店,北海道,札幌市,南区南34条西10丁目384-20,自衛隊前駅徒歩24分以上,011-588-3320,07:00〜23:00,http://www.komeda.co.jp/search/shopdetail.php?id=836,TRUE,FALSE,TRUE,FALSE,43.012487,141.3476578,"99席
(禁煙:80/喫煙:19)"
789,東札幌5条店 | 珈琲所コメダ珈琲店,北海道,札幌市,白石区東札幌5条1丁目3番1号,東札幌駅徒歩5分以上,011-799-0275,07:00〜23:00,http://www.komeda.co.jp/search/shopdetail.php?id=768,TRUE,FALSE,TRUE,FALSE,43.0553861,141.3865662,"100席
(禁煙:78/喫煙:22)"
790,二十四軒店 | 珈琲所コメダ珈琲店,北海道,札幌市,西区二十四軒3条2丁目１番8号,二十四軒駅徒歩7分以上,011-611-7111,07:00〜23:00,http://www.komeda.co.jp/search/shopdetail.php?id=844,TRUE,FALSE,TRUE,FALSE,43.0751456,141.3136208,"95席
(禁煙:76/喫煙:19)"
791,江別一番町店 | 珈琲所コメダ珈琲店,北海道,江別市,一番町30-16,高砂駅徒歩14分以上,011-385-0058,07:00〜23:00,http://www.komeda.co.jp/search/shopdetail.php?id=853,TRUE,FALSE,TRUE,FALSE,43.1083498,141.5459931,"91席
(禁煙:70/喫煙:21)"
792,手稲前田店 | 珈琲所コメダ珈琲店,北海道,札幌市,手稲区前田2条13丁目3-27,手稲駅徒歩7分以上,011-691-6007,07:00〜23:00,http://www.komeda.co.jp/search/shopdetail.php?id=841,TRUE,FALSE,TRUE,FALSE,43.1247461,141.2430406,"91席
(禁煙:72/喫煙:19)"
793,町田鶴川店 | 珈琲所コメダ珈琲店,東京都,町田市,能ヶ谷七丁目12-17,鶴川駅徒歩11分以上,042-708-4188,07:00〜23:30,http://www.komeda.co.jp/search/shopdetail.php?id=283,TRUE,TRUE,TRUE,FALSE,35.590304,139.4790315,"107席
(禁煙:56/喫煙:51)"
794,町田森野店 | 珈琲所コメダ珈琲店,東京都,町田市,森野6ｰ4ｰ12,古淵駅徒歩11分以上,042-860-1138,07:00〜23:30,http://www.komeda.co.jp/search/shopdetail.php?id=297,TRUE,FALSE,TRUE,FALSE,35.5536968,139.4277749,"114席
(禁煙:76/喫煙:38)"
795,イオン南行徳店 | 珈琲所コメダ珈琲店,千葉県,市川市,南行徳2-20-25,南行徳駅徒歩8分以上,047-312-6588,08:00〜21:00,http://www.komeda.co.jp/search/shopdetail.php?id=426,FALSE,FALSE,TRUE,FALSE,35.6684987,139.9057749,"63席
(禁煙:53/喫煙:10)"
796,カインズ市原店 | 珈琲所コメダ珈琲店,千葉県,市原市,更級3-1-1,上総村上駅徒歩16分以上,0436-26-5302,06:30〜23:30,http://www.komeda.co.jp/search/shopdetail.php?id=468,TRUE,FALSE,TRUE,FALSE,35.506253,140.1029602,"101席
(禁煙:68/喫煙:33)"