id,name,prefecture,city,other_address,access,tel,business_hour,hp,wifi,socket,smoking,iccard,lat,lng
0,イオンモール旭川西店 | タリーズコーヒー,北海道,旭川市,緑町23-2161-3イオンモール旭川西店1F,近文駅徒歩7分以上,0166-59-7313,"平日：9:00〜22:00
土：9:00〜22:00
日祝：9:00〜22:00",https://map.tullys.co.jp/tullys/detailMap?account=tullys&accmd=0&bid=189,TRUE,FALSE,TRUE,FALSE,43.793938,142.326353
1,イオン札幌麻生店 | タリーズコーヒー,北海道,札幌市,北区北39条西4-1-5イオン札幌麻生店1F,麻生駅徒歩2分以上,011-299-8084,"平日：8:00〜21:00
土：8:00〜21:00
日祝：8:00〜21:00",https://map.tullys.co.jp/tullys/detailMap?account=tullys&accmd=0&bid=863,FALSE,FALSE,TRUE,FALSE,43.1072495,141.3397108
2,カテプリ新さっぽろ店 | タリーズコーヒー,北海道,札幌市,厚別区厚別中央2条5丁目7番カテプリ新さっぽろ店1F,新さっぽろ駅徒歩2分以上,011-398-7011,"平日：10:00〜21:00
土：10:00〜21:00
日祝：10:00〜21:00",https://map.tullys.co.jp/tullys/detailMap?account=tullys&accmd=0&bid=859,FALSE,FALSE,FALSE,FALSE,43.0374735,141.4727177
3,サッポロファクトリー店 | タリーズコーヒー,北海道,札幌市,中央区北2条東4丁目,バスセンター前駅徒歩6分以上,011-218-2266,"平日：9:00〜21:30
土：9:30〜21:30
日祝：9:30〜21:30",https://map.tullys.co.jp/tullys/detailMap?account=tullys&accmd=0&bid=360,TRUE,FALSE,TRUE,TRUE,43.0656845,141.3630421
4,旭川赤十字病院店 | タリーズコーヒー,北海道,旭川市,曙1条1-1-1,旭川駅徒歩16分以上,0166-21-6228,"平日：7:30〜19:30
土：8:30〜18:00
日祝：8:30〜18:00",https://map.tullys.co.jp/tullys/detailMap?account=tullys&accmd=0&bid=421,FALSE,FALSE,FALSE,FALSE,43.7696295,142.3483043
5,釧路店 | タリーズコーヒー,北海道,釧路市,末広町3-1-1パステルパーク1F,釧路駅徒歩11分以上,0154-32-0321,"平日：9:30〜23:30
土：9:30〜23:30
日祝：9:30〜22:00",https://map.tullys.co.jp/tullys/detailMap?account=tullys&accmd=0&bid=166,TRUE,FALSE,TRUE,FALSE,42.9837202,144.3858241
6,札幌 IKEUCHI GATE店 | タリーズコーヒー,北海道,札幌市,中央区南1条西2丁目18番地IKEUCHIGATE2F,大通駅徒歩2分以上,011-206-1140,"平日：10:00〜20:00
土：10:00〜20:00
日祝：10:00〜20:00",https://map.tullys.co.jp/tullys/detailMap?account=tullys&accmd=0&bid=806,TRUE,FALSE,TRUE,FALSE,43.0596156,141.3541681
7,札幌ＳＴＶ北２条店 | タリーズコーヒー,北海道,札幌市,中央区北2条西2-15STV北2条ビル1F,さっぽろ駅徒歩3分以上,011-204-6088,"平日：7:30〜21:00
土：8:00〜19:30
日祝：9:00〜19:30",https://map.tullys.co.jp/tullys/detailMap?account=tullys&accmd=0&bid=132,TRUE,FALSE,TRUE,TRUE,43.0638415,141.3541828
8,札幌ステラプレイス店 | タリーズコーヒー,北海道,札幌市,中央区北5条西2-5札幌ステラプレイス6F,札幌駅徒歩2分以上,011-252-2261,"平日：10:00〜22:00
土：10:00〜22:00
日祝：10:00〜22:00",https://map.tullys.co.jp/tullys/detailMap?account=tullys&accmd=0&bid=105,TRUE,FALSE,TRUE,FALSE,43.0678872,141.3518986
9,札幌ちえりあ店 | タリーズコーヒー,北海道,札幌市,西区宮の沢1条1丁目1-10,宮の沢駅徒歩4分以上,011-669-1011,"平日：8:30〜2000
土：8:30〜20:00
日祝：8:30〜20:00",https://map.tullys.co.jp/tullys/detailMap?account=tullys&accmd=0&bid=866,FALSE,TRUE,FALSE,TRUE,43.0883006,141.2744234
10,札幌徳洲会病院店 | タリーズコーヒー,北海道,札幌市,厚別区大谷地東1丁目1-1,大谷地駅徒歩6分以上,011-890-0065,"平日：7：30〜19：00
土：7:30〜18:00
日祝：10:00〜18:00",https://map.tullys.co.jp/tullys/detailMap?account=tullys&accmd=0&bid=585,FALSE,FALSE,FALSE,TRUE,43.0292161,141.4478893
11,札幌日本生命ビル店 | タリーズコーヒー,北海道,札幌市,中央区北3条西4丁目1-1,札幌駅徒歩4分以上,011-290-2900,"平日：8：00〜20：00
土：9：00〜19：00
日祝：10：00〜18：00",https://map.tullys.co.jp/tullys/detailMap?account=tullys&accmd=0&bid=446,TRUE,FALSE,TRUE,TRUE,43.0650314,141.3499099
12,三井アウトレットパーク札幌北広島店 | タリーズコーヒー,北海道,北広島市,大曲幸町3丁目7−6三井アウトレットパーク札幌北広島2F,上野幌駅徒歩74分以上,011-377-2451,"平日：10:00〜20:00
土：10:00〜20:00
日祝：10:00〜20:00",https://map.tullys.co.jp/tullys/detailMap?account=tullys&accmd=0&bid=453,TRUE,FALSE,TRUE,FALSE,42.9709593,141.4712745
13,市立釧路総合病院店 | タリーズコーヒー,北海道,釧路市,春湖台1番12号1階,東釧路駅徒歩30分以上,0154-43-0003,"平日：7：30〜19：00
土：8：30〜17：00
日祝：8：30〜17：00",https://map.tullys.co.jp/tullys/detailMap?account=tullys&accmd=0&bid=519,FALSE,FALSE,FALSE,FALSE,42.9769812,144.4036699
14,市立札幌病院店 | タリーズコーヒー,北海道,札幌市,中央区北11条西13丁目1-1,桑園駅徒歩3分以上,011-700-5022,"平日：7：30-19：30
土：9：00-18：00
日祝：9：00-18：00",https://map.tullys.co.jp/tullys/detailMap?account=tullys&accmd=0&bid=580,FALSE,FALSE,FALSE,TRUE,43.0707969,141.3343442
15,手稲渓仁会病院店 | タリーズコーヒー,北海道,札幌市,手稲区前田1条12丁目-1-40,手稲駅徒歩3分以上,011-688-3888,"平日：7:00〜19:00
土：8:00〜18:00
日祝：10:00〜16:00",https://map.tullys.co.jp/tullys/detailMap?account=tullys&accmd=0&bid=351,TRUE,FALSE,FALSE,TRUE,43.1222769,141.2431129
16,千歳アウトレットモール店 | タリーズコーヒー,北海道,千歳市,柏台南1-2-1千歳アウトレットモール・レラ,南千歳駅徒歩5分以上,0123-40-6033,"平日：10:00〜20:00
土：10:00〜20:00
日祝：10:00〜20:00",https://map.tullys.co.jp/tullys/detailMap?account=tullys&accmd=0&bid=259,FALSE,FALSE,TRUE,FALSE,42.8120565,141.6765849
17,函館駅店 | タリーズコーヒー,北海道,函館市,若松町12番地13号函館本線函館駅舎内2F,函館駅徒歩3分以内,0138-24-3855,"平日：7:30〜20:00
土：7:30〜20:00
日祝：7:30〜20:00",https://map.tullys.co.jp/tullys/detailMap?account=tullys&accmd=0&bid=810,TRUE,FALSE,FALSE,FALSE,41.7735159,140.7260503
18,函館五稜郭病院店 | タリーズコーヒー,北海道,函館市,五稜郭町38番3号函館五稜郭病院1F,五稜郭公園前駅徒歩6分以上,0138-51-0051,"平日：7:30〜19:00
土：7:30〜18:00
日祝：10:00〜18:00",https://map.tullys.co.jp/tullys/detailMap?account=tullys&accmd=0&bid=661,FALSE,FALSE,FALSE,TRUE,41.792436,140.7555209
19,北海道大学病院店 | タリーズコーヒー,北海道,札幌市,北区北14条西5丁目,北12条駅徒歩5分以上,011-769-0957,"平日：7:00〜20:00
土：8:30〜19:00
日祝：8:30〜19:00",https://map.tullys.co.jp/tullys/detailMap?account=tullys&accmd=0&bid=673,TRUE,FALSE,FALSE,FALSE,43.0777603,141.3458511
20,TSUTAYA弘前店 | タリーズコーヒー,青森県,弘前市,大字高田2-1-1,運動公園前駅徒歩17分以上,0172-29-1055,"平日：9:00〜21:00
土：9:00〜21:00
日祝：9:00〜21:00",https://map.tullys.co.jp/tullys/detailMap?account=tullys&accmd=0&bid=867,FALSE,FALSE,TRUE,FALSE,40.6006563,140.5012861
21,イオンモールつがる市立図書館店 | タリーズコーヒー,青森県,つがる市,柏稲盛幾世41イオンモールつがる市立図書館棟1F,木造駅徒歩38分以上,0173-27-5925,"平日：10:00〜21:00
土：10:00〜21:00
日祝：10:00〜21:00",https://map.tullys.co.jp/tullys/detailMap?account=tullys&accmd=0&bid=839,FALSE,FALSE,FALSE,FALSE,40.8022677,140.4177867
22,イオンモールつがる柏店 | タリーズコーヒー,青森県,つがる市,柏稲盛幾世41イオンモールつがる柏1F,木造駅徒歩38分以上,0173-27-5925,"平日：10：00〜21：00
土：10:00〜21:00
日祝：10:00〜21:00",https://map.tullys.co.jp/tullys/detailMap?account=tullys&accmd=0&bid=143,FALSE,FALSE,FALSE,FALSE,40.8022677,140.4177867
23,イオンモール下田店 | タリーズコーヒー,青森県,上北郡,おいらせ町中野平40-1,下田駅徒歩21分以上,0178-50-5015,"平日：9:00〜21:00
土：9:00〜21:00
日祝：9:00〜21:00",https://map.tullys.co.jp/tullys/detailMap?account=tullys&accmd=0&bid=187,TRUE,FALSE,FALSE,FALSE,40.6020537,141.4181727
24,八戸六日町店 | タリーズコーヒー,青森県,八戸市,六日町16-2GardenTerrace1F,本八戸駅徒歩11分以上,0178-73-1088,"平日：7:00〜21:00
土：7:00〜21:00
日祝：7:00〜21:00",https://map.tullys.co.jp/tullys/detailMap?account=tullys&accmd=0&bid=847,FALSE,TRUE,FALSE,TRUE,40.5093077,141.4915444
25,ナナック盛岡店 | タリーズコーヒー,岩手県,盛岡市,中ノ橋通1-6-8ナナック1F,仙北町駅徒歩20分以上,019-604-7688,"平日：7:30〜20:00
土：8：00〜20：00
日祝：8：00〜20：00",https://map.tullys.co.jp/tullys/detailMap?account=tullys&accmd=0&bid=626,TRUE,FALSE,FALSE,FALSE,39.6995854,141.1559795
26,盛岡駅フェザン店 | タリーズコーヒー,岩手県,盛岡市,盛岡駅前通1-44盛岡フェザン1，2階,盛岡駅徒歩3分以上,019-654-7880,"平日：7:00〜22:00（L.O.21:30）
土：7:00〜22:00（L.O.21:30）
日祝：7:00〜22:00（L.O.21:30）",https://map.tullys.co.jp/tullys/detailMap?account=tullys&accmd=0&bid=142,TRUE,FALSE,TRUE,FALSE,39.703447,141.13507
27,tekuteながまち店 | タリーズコーヒー,宮城県,仙台市,太白区長町5丁目1-1tekuteながまち,長町駅徒歩1分以上,022-281-9178,"平日：7:30〜21:00
土：9:00〜21:00
日祝：9:00〜21:00",https://map.tullys.co.jp/tullys/detailMap?account=tullys&accmd=0&bid=805,TRUE,FALSE,TRUE,FALSE,38.2277302,140.8857403
28,コミュシティエスパル仙台店 | タリーズコーヒー,宮城県,仙台市,青葉区中央一丁目1-1,仙台駅徒歩2分以上,022-794-7757,"平日：7:00〜22:00
土：7:00〜22:00
日祝：7:00〜22:00",https://map.tullys.co.jp/tullys/detailMap?account=tullys&accmd=0&bid=880,FALSE,FALSE,FALSE,FALSE,38.2601439,140.8821271
29,ララガーデン長町店 | タリーズコーヒー,宮城県,仙台市,太白区長町7-20-5,長町南駅徒歩1分以上,022-746-8727,"平日：10:00〜21:00
土：10:00〜21:00
日祝：10:00〜21:00",https://map.tullys.co.jp/tullys/detailMap?account=tullys&accmd=0&bid=439,TRUE,FALSE,TRUE,FALSE,38.2252557,140.8757038
30,古川駅店 | タリーズコーヒー,宮城県,大崎市,古川駅前大通1-7-35古川駅ショッピングセンター「古川駅食品館ピボット」,古川駅徒歩4分以上,0229-25-8471,"平日：7:30〜20:00
土：7:30〜20:00
日祝：7:30〜20:00",https://map.tullys.co.jp/tullys/detailMap?account=tullys&accmd=0&bid=680,TRUE,TRUE,TRUE,FALSE,38.5717685,140.9680297
31,三井アウトレットパーク仙台港店 | タリーズコーヒー,宮城県,仙台市,宮城野区中野三丁目7番地の2三井アウトレットパーク仙台港2320,中野栄駅徒歩10分以上,022-388-7535,"平日：10:00〜20:00
土：10:00〜20:00
日祝：10:00〜20:00",https://map.tullys.co.jp/tullys/detailMap?account=tullys&accmd=0&bid=392,TRUE,FALSE,TRUE,FALSE,38.275162,140.989815
32,石巻赤十字病院店 | タリーズコーヒー,宮城県,石巻市,蛇田字西道下71,曽波神駅徒歩13分以上,0225-90-3601,"平日：7:00〜21:00
土：8:30〜20:00
日祝：8:30〜20:00",https://map.tullys.co.jp/tullys/detailMap?account=tullys&accmd=0&bid=769,TRUE,FALSE,FALSE,TRUE,38.4594794,141.2802344
33,仙台パルコ２店 | タリーズコーヒー,宮城県,仙台市,青葉区中央3丁目7番5号仙台パルコ２1F,仙台駅徒歩3分以内,022-395-6933,"平日：8:00〜000
土：8:00〜0:00
日祝：8:00〜0:00",https://map.tullys.co.jp/tullys/detailMap?account=tullys&accmd=0&bid=834,TRUE,FALSE,FALSE,TRUE,38.2589537,140.8796247
34,仙台市立病院店 | タリーズコーヒー,宮城県,仙台市,太白区あすと長町一丁目1番1号仙台市立病院1F,長町一丁目駅徒歩3分以上,022-797-7715,"平日：7:30〜19:00
土：8:00〜18:00
日祝：8:00〜18:00",https://map.tullys.co.jp/tullys/detailMap?account=tullys&accmd=0&bid=734,TRUE,FALSE,FALSE,TRUE,38.2320097,140.8881756
35,仙台泉プレミアム・アウトレット店 | タリーズコーヒー,宮城県,仙台市,泉区寺岡6-1仙台泉プレミアム・アウトレット2385区,泉中央駅徒歩64分以上,022-342-6880,"平日：9:30〜20:00
土：9:30〜20:00
日祝：9:30〜20:00",https://map.tullys.co.jp/tullys/detailMap?account=tullys&accmd=0&bid=398,TRUE,FALSE,TRUE,FALSE,38.341805,140.8369608
36,仙台泉店 | タリーズコーヒー,宮城県,仙台市,泉区大沢2-12-4蔦屋書店仙台泉店内,泉中央駅徒歩46分以上,022-772-4560,"平日：9:00〜22:00
土：8:00〜22:00
日祝：8:00〜22:00",https://map.tullys.co.jp/tullys/detailMap?account=tullys&accmd=0&bid=641,FALSE,FALSE,TRUE,FALSE,38.3520265,140.8795077
37,仙台中央通り店 | タリーズコーヒー,宮城県,仙台市,青葉区中央1丁目8-23タイコヤビル1F,あおば通駅徒歩1分以上,022-716-0210,"平日：7:30〜22:30
土：8:00〜23:00
日祝：9:00〜21:00",https://map.tullys.co.jp/tullys/detailMap?account=tullys&accmd=0&bid=96,TRUE,FALSE,TRUE,TRUE,38.2617311,140.8795191
38,仙台富沢西店 | タリーズコーヒー,宮城県,仙台市,太白区富田字京ノ北72-1,富沢駅徒歩22分以上,022-307-1067,"平日：9:00〜22:00
土：9:00〜22:00
日祝：9:00〜22:00",https://map.tullys.co.jp/tullys/detailMap?account=tullys&accmd=0&bid=912,FALSE,FALSE,FALSE,FALSE,38.2131316,140.8532034
39,東北大学医学部店 | タリーズコーヒー,宮城県,仙台市,青葉区星陵町2-1東北大学医学部星陵キャンパス内星陵会館1F,北四番丁駅徒歩12分以上,022-727-5028,"平日：10:30〜17:30
土：休業
日祝：休業",https://map.tullys.co.jp/tullys/detailMap?account=tullys&accmd=0&bid=765,FALSE,FALSE,FALSE,FALSE,38.2710592,140.8592246
40,東北大学病院店 | タリーズコーヒー,宮城県,仙台市,青葉区星陵町1-1東北大学病院内,北四番丁駅徒歩10分以上,022-728-6080,"平日：7:00〜19:30
土：8:30〜17:30
日祝：8:30〜17:30",https://map.tullys.co.jp/tullys/detailMap?account=tullys&accmd=0&bid=304,FALSE,FALSE,FALSE,FALSE,38.272008,140.861253
41,フォンテＡＫＩＴＡ店 | タリーズコーヒー,秋田県,秋田市,中通2−8−1SC内2F,秋田駅徒歩3分以上,018-893-5653,"平日：8:00〜20:00
土：8:00〜20:00
日祝：8:00〜20:00",https://map.tullys.co.jp/tullys/detailMap?account=tullys&accmd=0&bid=497,TRUE,TRUE,TRUE,FALSE,39.7163482,140.1276316
42,大館店 | タリーズコーヒー,秋田県,大館市,清水5-2-41,大館駅徒歩13分以上,0186-44-6577,"平日：10:00〜21:00
土：10:00〜21:00
日祝：10:00〜21:00",https://map.tullys.co.jp/tullys/detailMap?account=tullys&accmd=0&bid=864,FALSE,FALSE,FALSE,FALSE,40.283492,140.5471363
43,山形七日町店 | タリーズコーヒー,山形県,山形市,七日町2-1-8イイナス1階,山形駅徒歩16分以上,023-615-4618,"平日：8:00〜20:00
土：8:30〜20:00
日祝：9:00〜20:00",https://map.tullys.co.jp/tullys/detailMap?account=tullys&accmd=0&bid=152,TRUE,FALSE,TRUE,FALSE,38.2525344,140.3390615
44,山形松見町店 | タリーズコーヒー,山形県,山形市,松見町21-10ヤマザワ松見町店内,山形駅徒歩31分以上,023-615-2281,"平日：8:00〜23：30
土：8:00〜23：30
日祝：8:00〜23：30",https://map.tullys.co.jp/tullys/detailMap?account=tullys&accmd=0&bid=613,TRUE,FALSE,FALSE,FALSE,38.23125,140.340452
45,エスパル郡山店 | タリーズコーヒー,福島県,郡山市,山市字燧田195エスパル郡山2F,郡山駅徒歩2分以上,024-954-7970,"平日：10:00〜20:00
土：10:00〜20:00
日祝：10:00〜20:00",https://map.tullys.co.jp/tullys/detailMap?account=tullys&accmd=0&bid=927,FALSE,FALSE,FALSE,FALSE,37.3967468,140.3880619
46,会津若松店 | タリーズコーヒー,福島県,会津若松市,幕内南9-10アピタ会津若松店1F,西若松駅徒歩13分以上,0242-36-6055,"平日：10:00〜21:00
土：10:00〜21:00
日祝：10:00〜21:00",https://map.tullys.co.jp/tullys/detailMap?account=tullys&accmd=0&bid=294,TRUE,FALSE,TRUE,FALSE,37.483345,139.9043677
47,郡山駅店 | タリーズコーヒー,福島県,郡山市,山市字燧田195JR郡山駅構内,郡山駅徒歩1分以上,024-991-7877,"平日：7:00〜21:00
土：7:00〜21:00
日祝：7:00〜20:00",https://map.tullys.co.jp/tullys/detailMap?account=tullys&accmd=0&bid=242,TRUE,FALSE,TRUE,FALSE,37.3974218,140.3880998
48,ＴＸ守谷駅店 | タリーズコーヒー,茨城県,守谷市,中央4-9TX守谷駅1F,守谷駅徒歩3分以内,0297-47-8388,"平日：7:30〜21:00
土：8:00〜21:00
日祝：8:00〜21:00",https://map.tullys.co.jp/tullys/detailMap?account=tullys&accmd=0&bid=271,TRUE,FALSE,TRUE,FALSE,35.9506698,139.9922675
49,あみプレミアム・アウトレット店 | タリーズコーヒー,茨城県,稲敷郡,阿見町よしわら四丁目1番地１100区画,errererror,029-833-6685,"平日：9:30〜20:00
土：9:30〜20:00
日祝：9:30〜20:00",https://map.tullys.co.jp/tullys/detailMap?account=tullys&accmd=0&bid=432,FALSE,FALSE,TRUE,FALSE,35.984501,140.2394667
50,イオンモールつくば店 | タリーズコーヒー,茨城県,つくば市,稲岡66-1イオンモールつくば3F,荒川沖駅徒歩43分以上,029-896-6108,"平日：9:00〜21:00
土：9：00〜21：00
日祝：9：00〜21：00",https://map.tullys.co.jp/tullys/detailMap?account=tullys&accmd=0&bid=632,TRUE,FALSE,TRUE,FALSE,36.0349817,140.1329673
51,イオンモール水戸内原店 | タリーズコーヒー,茨城県,水戸市,内原2丁目1番地イオンモール水戸内原2F,内原駅徒歩10分以上,029-259-1537,"平日：10:00〜22:00
土：10:00〜22:00
日祝：10:00〜22:00",https://map.tullys.co.jp/tullys/detailMap?account=tullys&accmd=0&bid=286,FALSE,FALSE,TRUE,FALSE,36.3746677,140.3586856
52,ニューポートひたちなか店 | タリーズコーヒー,茨城県,ひたちなか市,新光町35ニューポートひたちなかファッションクルーズ1F,阿字ヶ浦駅徒歩48分以上,029-264-2418,"平日：10:00〜20:00
土：10:00〜20:00
日祝：10:00〜20:00",https://map.tullys.co.jp/tullys/detailMap?account=tullys&accmd=0&bid=312,TRUE,FALSE,TRUE,TRUE,36.4053805,140.5861003
53,ひたちなか新光町店 | タリーズコーヒー,茨城県,ひたちなか市,新光町30番4号蔦屋書店ひたちなか店内,阿字ヶ浦駅徒歩52分以上,029-265-1127,"平日：9:00〜22:00
土：8:00〜22:00
日祝：8:00〜22:00",https://map.tullys.co.jp/tullys/detailMap?account=tullys&accmd=0&bid=615,TRUE,TRUE,TRUE,FALSE,36.4072825,140.5841125
54,プレイアトレ土浦店 | タリーズコーヒー,茨城県,土浦市,有明町1-30,土浦駅徒歩1分以上,029-869-8870,"平日：7:00〜21:00
土：7:00〜21:00
日祝：7:00〜21:00",https://map.tullys.co.jp/tullys/detailMap?account=tullys&accmd=0&bid=931,FALSE,FALSE,FALSE,FALSE,36.0777557,140.2059052
55,水戸駅南口店 | タリーズコーヒー,茨城県,水戸市,宮町1-7-44COMBOX3103階,水戸駅徒歩3分以上,029-302-3003,"平日：7:00〜22:00
土：8:00〜22:00
日祝：8:00〜21:00",https://map.tullys.co.jp/tullys/detailMap?account=tullys&accmd=0&bid=303,TRUE,FALSE,TRUE,TRUE,36.3694564,140.4748402
56,水戸赤十字病院店 | タリーズコーヒー,茨城県,水戸市,三の丸3丁目12番48号水戸赤十字病院1F,水戸駅徒歩13分以上,029-302-6515,"平日：7:30〜18:00
土：7:30〜18:00<第1.3.5土>
日祝：10：00〜18：00<第2.4土>",https://map.tullys.co.jp/tullys/detailMap?account=tullys&accmd=0&bid=599,TRUE,FALSE,FALSE,FALSE,36.3712864,140.4871241
57,筑波大学附属病院店 | タリーズコーヒー,茨城県,つくば市,天久保2-1-1,errererror,029-860-3077,"平日：7:30〜20:00
土：7:30〜19:00
日祝：7:30〜19:00",https://map.tullys.co.jp/tullys/detailMap?account=tullys&accmd=0&bid=616,FALSE,FALSE,FALSE,FALSE,36.0930488,140.1030514
58,土浦協同病院店 | タリーズコーヒー,茨城県,土浦市,おおつ野4丁目1番1号土浦協同病院1階,神立駅徒歩59分以上,029-830-3345,"平日：9:00〜17:00
土：休業日
日祝：休業日",https://map.tullys.co.jp/tullys/detailMap?account=tullys&accmd=0&bid=824,TRUE,FALSE,FALSE,TRUE,36.0834296,140.2584852
59,龍ヶ崎店 | タリーズコーヒー,茨城県,龍ヶ崎市,中里2−1−2,竜ヶ崎駅徒歩46分以上,0297-60-7012,"平日：9:00〜22:00
土：9:00〜22:00
日祝：9:00〜22:00",https://map.tullys.co.jp/tullys/detailMap?account=tullys&accmd=0&bid=928,FALSE,FALSE,FALSE,FALSE,35.9294982,140.2044557
60,FKD宇都宮店 | タリーズコーヒー,栃木県,宇都宮市,今泉町237福田屋ショッピングプラザ宇都宮店2F,宇都宮駅徒歩23分以上,028-650-6533,"平日：10:00〜21:00
土：10:00〜21:00
日祝：10:00〜21:00",https://map.tullys.co.jp/tullys/detailMap?account=tullys&accmd=0&bid=836,TRUE,FALSE,TRUE,TRUE,36.574154,139.9009693
61,VAL小山駅店 | タリーズコーヒー,栃木県,小山市,城山町3-3-22,小山駅徒歩2分以上,0285-30-0880,"平日：7:00〜21:00
土：7:00〜21：00
日祝：7:00〜21:00",https://map.tullys.co.jp/tullys/detailMap?account=tullys&accmd=0&bid=854,FALSE,FALSE,TRUE,TRUE,36.3138719,139.8065387
62,ララスクエア宇都宮店 | タリーズコーヒー,栃木県,宇都宮市,駅前通り1-4-6ララスクエア宇都宮1F,宇都宮駅徒歩2分以上,028-600-3108,"平日：10:00〜21:00
土：10:00〜21:00
日祝：10:00〜21:00",https://map.tullys.co.jp/tullys/detailMap?account=tullys&accmd=0&bid=254,TRUE,FALSE,TRUE,FALSE,36.5603005,139.8968949
63,宇都宮インターパークビレッジ店 | タリーズコーヒー,栃木県,宇都宮市,インターパーク4-1-3インターパークショッピングビレッジ内,雀宮駅徒歩39分以上,028-657-6710,"平日：10:00〜21:00
土：10:00〜21:00
日祝：10:00〜21:00",https://map.tullys.co.jp/tullys/detailMap?account=tullys&accmd=0&bid=284,TRUE,FALSE,TRUE,TRUE,36.4934028,139.9074353
64,宇都宮テクノ店 | タリーズコーヒー,栃木県,宇都宮市,ゆいの杜4-1-39,岡本駅徒歩74分以上,028-670-0168,"平日：10:00〜22:00
土：10:00〜22:00
日祝：10:00〜22:00",https://map.tullys.co.jp/tullys/detailMap?account=tullys&accmd=0&bid=428,TRUE,TRUE,TRUE,TRUE,36.5681871,139.9880946
65,宇都宮ベルモール店 | タリーズコーヒー,栃木県,宇都宮市,陽東6-2-1ベルモール1F,宇都宮駅徒歩39分以上,028-613-0350,"平日：10:00〜22:00
土：10:00〜22:00
日祝：10:00〜22:00",https://map.tullys.co.jp/tullys/detailMap?account=tullys&accmd=0&bid=218,TRUE,FALSE,TRUE,FALSE,36.5550373,139.9283866
66,宇都宮駅ビルパセオ店 | タリーズコーヒー,栃木県,宇都宮市,川向町1-23宇都宮駅ビルパセオ2F,宇都宮駅徒歩2分以上,028-650-5567,"平日：6:30〜22:00
土：6:30〜22:00
日祝：6:30〜22:00",https://map.tullys.co.jp/tullys/detailMap?account=tullys&accmd=0&bid=738,TRUE,TRUE,TRUE,TRUE,36.560777,139.898336
67,宇都宮駅東口店 | タリーズコーヒー,栃木県,宇都宮市,元今泉4-19-16,宇都宮駅徒歩7分以上,028-610-1107,"平日：8:00〜22:00
土：8:00〜22:00
日祝：8:00〜22:00",https://map.tullys.co.jp/tullys/detailMap?account=tullys&accmd=0&bid=699,TRUE,FALSE,TRUE,TRUE,36.5602711,139.9043132
68,作新学院前店 | タリーズコーヒー,栃木県,宇都宮市,西一の沢町2-1,東武宇都宮駅徒歩28分以上,028-649-0225,"平日：10:00〜22:00
土：10:00〜22:00
日祝：10:00〜22:00",https://map.tullys.co.jp/tullys/detailMap?account=tullys&accmd=0&bid=573,TRUE,FALSE,TRUE,TRUE,36.5686934,139.8619163
69,自治医大駅前店 | タリーズコーヒー,栃木県,下野市,医大前3-1-1TSUTAYA自治医大1F,自治医大駅徒歩1分以上,0285-40-1053,"平日：9:00〜22:00
土：9:00〜22:00
日祝：9:00〜22:00",https://map.tullys.co.jp/tullys/detailMap?account=tullys&accmd=0&bid=318,TRUE,FALSE,TRUE,TRUE,36.3951235,139.8556335
70,東武宇都宮店 | タリーズコーヒー,栃木県,宇都宮市,宮園町5-4東武宇都宮百貨店5F,東武宇都宮駅徒歩1分以上,028-651-1377,"平日：10:00〜19:00
土：10:00〜19:00
日祝：10:00〜19:00",https://map.tullys.co.jp/tullys/detailMap?account=tullys&accmd=0&bid=843,FALSE,FALSE,FALSE,FALSE,36.5598712,139.8804882
71,栃木城内店 | タリーズコーヒー,栃木県,栃木市,城内町2-6-23,栃木駅徒歩16分以上,028-220-1033,"平日：9:00〜22:00
土：9:00〜22:00
日祝：9:00〜22:00",https://map.tullys.co.jp/tullys/detailMap?account=tullys&accmd=0&bid=455,FALSE,FALSE,TRUE,TRUE,36.3725625,139.7444334
72,那須ガーデンアウトレット店 | タリーズコーヒー,栃木県,那須塩原市,塩野崎184-7,那須塩原駅徒歩66分以上,0287-69-6231,"11月〜6月：10:00〜19:00
7月：10:00〜19:00（土日祝のみ10:00〜20:00）
8月〜10月：10:00〜20:00",https://map.tullys.co.jp/tullys/detailMap?account=tullys&accmd=0&bid=382,TRUE,FALSE,FALSE,FALSE,36.9662257,139.9915522
73,矢板店 | タリーズコーヒー,栃木県,矢板市,末広町20-1うさぎやTSUTAYA矢板店1F,矢板駅徒歩2分以上,0287-40-0127,"平日：09:00〜22:00
土：09:00〜22:00
日祝：09:00〜22:00",https://map.tullys.co.jp/tullys/detailMap?account=tullys&accmd=0&bid=232,TRUE,FALSE,TRUE,TRUE,36.8055116,139.9346642
74,ウニクス高崎店 | タリーズコーヒー,群馬県,高崎市,飯塚町1150-5ウニクス高崎2F,北高崎駅徒歩6分以上,027-370-6011,"平日：9:30〜21:00
土：9:30〜21:00
日祝：9:30〜21:00",https://map.tullys.co.jp/tullys/detailMap?account=tullys&accmd=0&bid=404,TRUE,TRUE,TRUE,FALSE,36.3393121,139.0070888
75,横川SA下り店 | タリーズコーヒー,群馬県,安中市,松井田町横川字井戸入917（横川SA下り）1F,横川駅徒歩9分以上,027-395-2066,"平日：7:00〜19:00
土：7:00〜19:00
日祝：7:00〜19:00",https://map.tullys.co.jp/tullys/detailMap?account=tullys&accmd=0&bid=494,TRUE,FALSE,FALSE,FALSE,36.3415947,138.7405064
76,館林アゼリアモール店 | タリーズコーヒー,群馬県,館林市,楠町3648-1館林つつじの里SC内アゼリアモール1F,渡瀬駅徒歩51分以上,0276-76-8052,"平日：10:00〜20:00
土：10:00〜20:00
日祝：10:00〜20:00",https://map.tullys.co.jp/tullys/detailMap?account=tullys&accmd=0&bid=247,FALSE,FALSE,TRUE,FALSE,36.2417151,139.5689772
77,高崎モントレー店 | タリーズコーヒー,群馬県,高崎市,八島町222番地高崎モントレー4F,高崎駅徒歩2分以上,027-310-5040,"平日：10:00〜20:30
土：10:00〜20:30
日祝：10:00〜20:30",https://map.tullys.co.jp/tullys/detailMap?account=tullys&accmd=0&bid=819,TRUE,TRUE,TRUE,FALSE,36.3225034,139.0126012
78,高崎店 | タリーズコーヒー,群馬県,高崎市,八島町20淡路ビル1F,高崎駅徒歩2分以上,027-310-1260,"平日：7:30〜20:00
土：8:30〜20:00
日祝：8:30〜20:00",https://map.tullys.co.jp/tullys/detailMap?account=tullys&accmd=0&bid=131,TRUE,TRUE,TRUE,TRUE,36.323034,139.010212
79,前橋みなみモール店 | タリーズコーヒー,群馬県,前橋市,新堀町940,前橋大島駅徒歩63分以上,027-290-3880,"平日：10：00〜22：00
土：8：00〜22：00
日祝：8：00〜22：00",https://map.tullys.co.jp/tullys/detailMap?account=tullys&accmd=0&bid=544,TRUE,FALSE,TRUE,FALSE,36.3315776,139.0984897
80,Emio狭山市店 | タリーズコーヒー,埼玉県,狭山市,祇園4-55,狭山市駅徒歩3分以内,042-950-7500,"平日：7：30〜21：30
土：8：00〜21：00
日祝：8：00〜21：00",https://map.tullys.co.jp/tullys/detailMap?account=tullys&accmd=0&bid=487,TRUE,FALSE,TRUE,FALSE,35.8568805,139.4132321
81,TMGあさか医療センター店 | タリーズコーヒー,埼玉県,朝霞市,溝沼1340-1TMGあさか医療センター１F,朝霞台駅徒歩9分以上,048-458-0501,"平日：7:30〜19:00
土：7:30〜19:00
日祝：8:00〜18:00",https://map.tullys.co.jp/tullys/detailMap?account=tullys&accmd=0&bid=917,FALSE,FALSE,FALSE,FALSE,35.8110395,139.5936776
82,TSUTAYAレイクタウン店 | タリーズコーヒー,埼玉県,越谷市,レイクタウン4丁目21番地1イオンレイクタウンKazeA-107,吉川駅徒歩24分以上,048-990-3382,"平日：9:00〜23:00(L.O.22:30)
土：9:00〜23:00(L.O.22:30)
日祝：9:00〜23:00(L.O.22:30)",https://map.tullys.co.jp/tullys/detailMap?account=tullys&accmd=0&bid=394,FALSE,FALSE,TRUE,FALSE,35.8778002,139.8245962
83,アクロスプラザ三芳店 | タリーズコーヒー,埼玉県,入間郡,三芳町大字藤久保北新埜855番403,鶴瀬駅徒歩21分以上,049-274-2133,"平日：9:30〜21:00
土：9:30〜21:00
日祝：9:30〜21:00",https://map.tullys.co.jp/tullys/detailMap?account=tullys&accmd=0&bid=756,TRUE,FALSE,TRUE,FALSE,35.8389162,139.5250047
84,アリオ上尾店 | タリーズコーヒー,埼玉県,上尾市,大字壱丁目367番地,上尾駅徒歩35分以上,048-780-1188,"平日：10:00〜21:00
土：10:00〜21:00
日祝：10:00〜21:00",https://map.tullys.co.jp/tullys/detailMap?account=tullys&accmd=0&bid=646,TRUE,FALSE,TRUE,FALSE,35.9616186,139.565464
85,イーサイト籠原店 | タリーズコーヒー,埼玉県,熊谷市,新堀713イーサイト籠原2F,籠原駅徒歩3分以内,048-577-6800,"平日：9:00〜20:00
土：9:00〜19:00
日祝：9:00〜19:00",https://map.tullys.co.jp/tullys/detailMap?account=tullys&accmd=0&bid=693,TRUE,TRUE,TRUE,FALSE,36.174952,139.3299864
86,イオンモール与野店 | タリーズコーヒー,埼玉県,さいたま市,中央区本町西5-2-9イオンモール与野店2F,北与野駅徒歩17分以上,048-859-6345,"平日：9:00〜22:00（LO.21:30)
土：9:00〜22:00（LO.21:30)
日祝：9:00〜22:00（LO.21:30)",https://map.tullys.co.jp/tullys/detailMap?account=tullys&accmd=0&bid=235,TRUE,FALSE,TRUE,FALSE,35.8909133,139.6148795
87,イオン所沢店 | タリーズコーヒー,埼玉県,所沢市,東町5-22イオン所沢１Ｆ,所沢駅徒歩5分以上,04-2929-0017,"平日：8:00〜22:00
土：8:00〜22:00
日祝：8:00〜22:00",https://map.tullys.co.jp/tullys/detailMap?account=tullys&accmd=0&bid=393,TRUE,FALSE,TRUE,FALSE,35.7892231,139.4699921
88,ウニクス伊奈店 | タリーズコーヒー,埼玉県,北足立郡,伊奈町学園2丁目188-1ウニクス伊奈2F,羽貫駅徒歩7分以上,048-720-7660,"平日：9:30〜20:00
土：9:30〜21:00
日祝：9:30〜20:00",https://map.tullys.co.jp/tullys/detailMap?account=tullys&accmd=0&bid=334,FALSE,FALSE,FALSE,FALSE,36.0093756,139.6134153
89,ウニクス浦和美園店 | タリーズコーヒー,埼玉県,さいたま市,岩槻区美園東二丁目17番地13ウニクス浦和美園2F,浦和美園駅徒歩14分以上,048-791-1570,"平日：9:00〜21:00
土：9:00〜21:00
日祝：9:00〜21:00",https://map.tullys.co.jp/tullys/detailMap?account=tullys&accmd=0&bid=872,FALSE,FALSE,TRUE,FALSE,35.9029535,139.7298537
90,ウニクス鴻巣店 | タリーズコーヒー,埼玉県,鴻巣市,北新宿225-1ウニクス鴻巣2F,行田駅徒歩9分以上,048-548-5294,"平日：10:00〜21:00
土：10:00〜21:00
日祝：10:00〜21:00",https://map.tullys.co.jp/tullys/detailMap?account=tullys&accmd=0&bid=471,TRUE,FALSE,TRUE,FALSE,36.1127335,139.4393722
91,ウニクス上里店 | タリーズコーヒー,埼玉県,児玉郡,上里町大字七本木2272-1ウニクス上里1階,神保原駅徒歩25分以上,0495-35-3333,"平日：9:00〜21:30
土：9:00〜21:30
日祝：9:00〜21:30",https://map.tullys.co.jp/tullys/detailMap?account=tullys&accmd=0&bid=338,FALSE,FALSE,TRUE,FALSE,36.2378236,139.1515469
92,ウニクス川越店 | タリーズコーヒー,埼玉県,川越市,新宿町1丁目17番地1ウニクス川越2F,川越駅徒歩8分以上,049-249-5188,"平日：9:00〜21:00
土：9:00〜21:00
日祝：9:00〜21:00",https://map.tullys.co.jp/tullys/detailMap?account=tullys&accmd=0&bid=757,TRUE,TRUE,TRUE,TRUE,35.9040693,139.4801095
93,ウニクス秩父店 | タリーズコーヒー,埼玉県,秩父市,大宮字上野原905外,大野原駅徒歩11分以上,0494-21-2117,"平日：9:30〜20:00
土：9:30〜20:00
日祝：9:30〜20:00",https://map.tullys.co.jp/tullys/detailMap?account=tullys&accmd=0&bid=445,TRUE,FALSE,TRUE,FALSE,36.0116337,139.096701
94,ウニクス南古谷店 | タリーズコーヒー,埼玉県,川越市,泉町1-1ウニクス南古谷店1F,南古谷駅徒歩5分以上,049-230-1121,"平日：9:00〜21:00
土：9:00〜21:00
日祝：9:00〜21:00",https://map.tullys.co.jp/tullys/detailMap?account=tullys&accmd=0&bid=425,TRUE,FALSE,TRUE,FALSE,35.9033796,139.5146453
95,キューポラ川口店 | タリーズコーヒー,埼玉県,川口市,川口1-1-1キュ･ポラ本館専門店3F,川口駅徒歩1分以上,048-227-5348,"平日：7:30〜22:00
土：8:00〜22:00
日祝：9:00〜21:00",https://map.tullys.co.jp/tullys/detailMap?account=tullys&accmd=0&bid=297,FALSE,TRUE,TRUE,FALSE,35.8013712,139.7182076
96,コクーンシティ店 | タリーズコーヒー,埼玉県,さいたま市,大宮区吉敷町4-267-2コクーンシティ内コクーン1西館2F,さいたま新都心駅徒歩1分以上,048-600-1680,"平日：9:30〜23:00
土：9:30〜23:00
日祝：9:30〜23:00",https://map.tullys.co.jp/tullys/detailMap?account=tullys&accmd=0&bid=213,TRUE,FALSE,TRUE,TRUE,35.8942075,139.6347817
97,タリーズコーヒー・ナチュラルステーション小手指駅店 | タリーズコーヒー,埼玉県,所沢市,小手指町1-1-1小手指駅1F,小手指駅徒歩3分以内,04-2929-0666,"平日：7:30〜21:30
土：8:00〜21:00
日：8:00〜21:00",https://map.tullys.co.jp/tullys/detailMap?account=tullys&accmd=0&bid=581,TRUE,TRUE,TRUE,FALSE,35.8005837,139.4379823
98,フォレオ菖蒲店 | タリーズコーヒー,埼玉県,久喜市,菖蒲町大字菖蒲字寺田4900番地蔦屋書店フォレオ菖蒲店内,花崎駅徒歩65分以上,0480-87-2277,"平日：9:00〜22:00
土：8:00〜22:00
日祝：8:00〜22:00",https://map.tullys.co.jp/tullys/detailMap?account=tullys&accmd=0&bid=571,TRUE,FALSE,TRUE,FALSE,36.0708853,139.617079
99,ベニバナウォーク桶川店 | タリーズコーヒー,埼玉県,桶川都市,計画事業下日出谷東特定土地区画整理事業地内42街区1画地,桶川駅徒歩18分以上,048-871-6214,"平日：10:00〜21:00
土：10:00〜21:00
日祝：10:00〜21:00",https://map.tullys.co.jp/tullys/detailMap?account=tullys&accmd=0&bid=743,FALSE,FALSE,TRUE,FALSE,35.996565,139.5506144
100,ららぽーと新三郷店 | タリーズコーヒー,埼玉県,三郷市,新三郷ららシティ3丁目1-1,新三郷駅徒歩5分以上,048-950-1488,"平日：10:00〜21:00
土：10:00〜21:00
日祝：10:00〜21:00",https://map.tullys.co.jp/tullys/detailMap?account=tullys&accmd=0&bid=437,TRUE,FALSE,TRUE,FALSE,35.8601478,139.8653829
101,ルミネ大宮店 | タリーズコーヒー,埼玉県,さいたま市,大宮区錦町630ルミネ大宮LUMINE21F(改札内),大宮駅徒歩2分以上,048-782-7940,"平日：7:00〜22:00
土：7:00〜22:00
日祝：7:00〜22:00",https://map.tullys.co.jp/tullys/detailMap?account=tullys&accmd=0&bid=929,FALSE,TRUE,FALSE,FALSE,35.9068613,139.6248554
102,浦和さくら草通り店 | タリーズコーヒー,埼玉県,さいたま市,浦和区高砂2丁目5番11,浦和駅徒歩4分以上,048-762-9288,"平日：7:30〜22:00
土：8:00〜21:00
日祝：8:00〜21:00",https://map.tullys.co.jp/tullys/detailMap?account=tullys&accmd=0&bid=718,TRUE,FALSE,TRUE,TRUE,35.8577353,139.6534316
103,浦和パルコ店 | タリーズコーヒー,埼玉県,さいたま市,浦和区東高砂町11-1浦和パルコB1F,浦和駅徒歩2分以上,048-711-5607,"平日：10:00〜21:00
土：10:00〜21:00
日祝：10:00〜21:00",https://map.tullys.co.jp/tullys/detailMap?account=tullys&accmd=0&bid=914,FALSE,FALSE,FALSE,FALSE,35.858574,139.659306
104,浦和仲町店 | タリーズコーヒー,埼玉県,さいたま市,浦和区仲町1丁目4番10,浦和駅徒歩4分以上,048-764-9735,"平日：7:30〜22:00
土：8:00〜22:00
日祝：9:00〜21:00",https://map.tullys.co.jp/tullys/detailMap?account=tullys&accmd=0&bid=881,FALSE,FALSE,TRUE,FALSE,35.859549,139.6536426
105,戸田中央総合病院店 | タリーズコーヒー,埼玉県,戸田市,本町1-19-3Ａ館1F,戸田公園駅徒歩5分以上,048-434-4011,"平日：7:30〜19:00
土：7:30〜19:00
日祝：8:00〜18:00",https://map.tullys.co.jp/tullys/detailMap?account=tullys&accmd=0&bid=559,TRUE,FALSE,FALSE,TRUE,35.8112529,139.6801389
106,戸田店 | タリーズコーヒー,埼玉県,戸田市,新曽662T-FRONTE2F,北戸田駅徒歩17分以上,048-498-6177,"平日：9:00〜21:30
土：9:00〜21:30
日祝：9:00〜21:30",https://map.tullys.co.jp/tullys/detailMap?account=tullys&accmd=0&bid=844,FALSE,TRUE,FALSE,FALSE,35.817496,139.6687537
107,高坂ＳＡ上り店 | タリーズコーヒー,埼玉県,東松山市,大字田木字立野4-5,北坂戸駅徒歩25分以上,0493-31-0707,"平日：10:00〜20:00
土：10:00〜20:00
日祝：10:00〜20:00",https://map.tullys.co.jp/tullys/detailMap?account=tullys&accmd=0&bid=381,FALSE,FALSE,FALSE,FALSE,35.9852158,139.3849085
108,埼玉医科大学総合医療センター茶寮店 | タリーズコーヒー,埼玉県,川越市,鴨田1981埼玉医科大学総合医療センター本館2F,南古谷駅徒歩49分以上,049-226-6573,"平日：7:30〜19:00
土：7:30〜19:00
日祝：10:00〜19:00",https://map.tullys.co.jp/tullys/detailMap?account=tullys&accmd=0&bid=923,FALSE,FALSE,FALSE,FALSE,35.9344662,139.5195682
109,埼玉医科大学病院店 | タリーズコーヒー,埼玉県,入間郡,毛呂山町毛呂本郷38,毛呂駅徒歩6分以上,049-276-1851,"平日：7:30〜19:00
土：7:30〜19:00
日祝：休業日",https://map.tullys.co.jp/tullys/detailMap?account=tullys&accmd=0&bid=823,FALSE,FALSE,FALSE,FALSE,35.9381145,139.3051713
110,三井アウトレットパーク入間店 | タリーズコーヒー,埼玉県,入間市,宮寺3169-1,武蔵藤沢駅徒歩45分以上,04-2902-5204,"平日：10:00〜20:00
土：10:00〜21:00
日祝：10:00〜21:00",https://map.tullys.co.jp/tullys/detailMap?account=tullys&accmd=0&bid=368,TRUE,FALSE,TRUE,FALSE,35.8101879,139.3802147
111,春日部駅西口店 | タリーズコーヒー,埼玉県,春日部市,粕壁1-10-1,春日部駅徒歩3分以内,048-753-3350,"平日：7:00〜22:00
土：8:00〜22:00
日祝：8:00〜21:00",https://map.tullys.co.jp/tullys/detailMap?account=tullys&accmd=0&bid=274,TRUE,FALSE,TRUE,TRUE,35.9802617,139.7525201
112,所沢駅店 | タリーズコーヒー,埼玉県,所沢市,くすのき台1丁目14番5号西武鉄道所沢駅改札内,所沢駅徒歩3分以内,04-2997-5030,"平日：7:00〜22:00
土：8:00〜21:00
日祝：8:00〜21:00",https://map.tullys.co.jp/tullys/detailMap?account=tullys&accmd=0&bid=619,FALSE,TRUE,TRUE,FALSE,35.786886,139.473287
113,上尾中央総合病院店 | タリーズコーヒー,埼玉県,上尾市,柏座1-10-10上尾中央総合病院B館1F,上尾駅徒歩4分以上,048-778-0816,"平日：7:30〜19:00
土：7:30〜19:00
日祝：10:00〜19:00",https://map.tullys.co.jp/tullys/detailMap?account=tullys&accmd=0&bid=719,FALSE,FALSE,FALSE,TRUE,35.9743762,139.5858509
114,川口市立医療センター店 | タリーズコーヒー,埼玉県,川口市,西新井宿1801F,新井宿駅徒歩10分以上,048-287-5355,"平日：7:30〜20:00
土：7:30〜18:00
日祝：10:00〜18:00",https://map.tullys.co.jp/tullys/detailMap?account=tullys&accmd=0&bid=479,TRUE,FALSE,FALSE,FALSE,35.8433182,139.7305223
115,大宮ソニックシティ店 | タリーズコーヒー,埼玉県,さいたま市,大宮区桜木町1-7-5大宮ソニックシティー2F,大宮駅徒歩4分以上,048-658-5020,"平日：7:30〜20:00
土：8:00〜19:00
日祝：9:00〜19:00",https://map.tullys.co.jp/tullys/detailMap?account=tullys&accmd=0&bid=43,TRUE,TRUE,FALSE,TRUE,35.9052316,139.6197239
116,大利根店 | タリーズコーヒー,埼玉県,加須市,琴寄111,栗橋駅徒歩22分以上,0480-78-0078,"平日：9:00〜21:00
土：9:00〜21:00
日祝：9:00〜21:00",https://map.tullys.co.jp/tullys/detailMap?account=tullys&accmd=0&bid=907,FALSE,FALSE,TRUE,TRUE,36.1253292,139.6844677
117,東松山店 | タリーズコーヒー,埼玉県,東松山市,あずま町4丁目8-3,高坂駅徒歩20分以上,0493-31-0055,"平日：9:00〜22:00
土：9:00〜22:00
日祝：9:00〜22:00",https://map.tullys.co.jp/tullys/detailMap?account=tullys&accmd=0&bid=721,TRUE,FALSE,TRUE,FALSE,36.0035748,139.4131143
118,武蔵浦和駅前店 | タリーズコーヒー,埼玉県,さいたま市,南区別所7丁目21番1号プラウドタワー武蔵浦和マークス1F,武蔵浦和駅徒歩3分以上,048-710-6778,"平日：7:30〜21:00
土：8:00〜21:00
日祝：8:30〜20:00",https://map.tullys.co.jp/tullys/detailMap?account=tullys&accmd=0&bid=652,FALSE,TRUE,TRUE,FALSE,35.845847,139.6454483
119,防衛医大病院店 | タリーズコーヒー,埼玉県,所沢市,並木3-2,航空公園駅徒歩8分以上,042-991-0511,"平日：7:00〜18:00
土：休業日
日祝：休業日",https://map.tullys.co.jp/tullys/detailMap?account=tullys&accmd=0&bid=461,TRUE,FALSE,FALSE,TRUE,35.8026072,139.4695238
120,本庄早稲田店 | タリーズコーヒー,埼玉県,本庄市,早稲田の杜2丁目1-46,本庄早稲田駅徒歩7分以上,049-527-6522,"平日：9:00〜22:00
土：9:00〜22:00
日祝：9:00〜22:00",https://map.tullys.co.jp/tullys/detailMap?account=tullys&accmd=0&bid=689,TRUE,TRUE,TRUE,FALSE,36.2196221,139.1849055
121,Ｐａｓａｒ幕張店 | タリーズコーヒー,千葉県,千葉市,花見川区幕張町2-2651-1Pasar幕張（下り線）内,幕張本郷駅徒歩14分以上,043-213-3160,"平日：7:00〜20:00
土：6:00〜22:00
日祝：6:00〜22:00",https://map.tullys.co.jp/tullys/detailMap?account=tullys&accmd=0&bid=357,TRUE,FALSE,FALSE,FALSE,35.6714105,140.0537753
122,TX柏の葉キャンパス駅前店 | タリーズコーヒー,千葉県,柏市,若柴174,豊四季駅徒歩46分以上,04-7128-6677,"平日：7:00〜23:00
土：7:00〜23:00
祝日：7:00〜23:00",https://map.tullys.co.jp/tullys/detailMap?account=tullys&accmd=0&bid=911,FALSE,FALSE,FALSE,FALSE,35.8935911,139.952454
123,アトレ松戸店 | タリーズコーヒー,千葉県,松戸市,松戸1181アトレ松戸(旧：ボックスヒル松戸)5階,松戸駅徒歩1分以上,047-308-7088,"平日：10:00〜21:00
土：10:00〜21:00
日祝：10:00〜21:00",https://map.tullys.co.jp/tullys/detailMap?account=tullys&accmd=0&bid=566,TRUE,FALSE,TRUE,FALSE,35.7850365,139.9005725
124,イオンモール成田店 | タリーズコーヒー,千葉県,成田市,ウイング土屋24イオンモール成田店,成田駅徒歩28分以上,0476-23-8201,"平日：9:00〜22:00
土：9:00〜22:00
日祝：9:00〜22:00",https://map.tullys.co.jp/tullys/detailMap?account=tullys&accmd=0&bid=8,FALSE,FALSE,FALSE,FALSE,35.795727,140.318048
125,イオンモール津田沼店 | タリーズコーヒー,千葉県,習志野市,津田沼1-23-1イオンモール津田沼店2F,新津田沼駅徒歩1分以上,047-403-3610,"平日：9:00〜22:00
土：9:00〜22:00
日祝：9:00〜22:00",https://map.tullys.co.jp/tullys/detailMap?account=tullys&accmd=0&bid=140,TRUE,TRUE,FALSE,FALSE,35.6902833,140.0251411
126,イクスピアリ店 | タリーズコーヒー,千葉県,浦安市,舞浜1-4イクスピアリ１Fガーデンサイト,リゾートゲートウェイ・ステーション駅徒歩3分以上,047-316-5266,"平日：8:00〜22:00
土：8:00〜22:00
日祝：8:00〜22:00",https://map.tullys.co.jp/tullys/detailMap?account=tullys&accmd=0&bid=397,TRUE,FALSE,TRUE,FALSE,35.6336939,139.8869735
127,シャポー市川店 | タリーズコーヒー,千葉県,市川市,川市市川1-1-1,市川駅徒歩3分以内,047-329-3222,"平日：10:00〜23:00（L.O.22:30）
土：10:00〜23:00（L.O.22:30）
日祝：10:00〜23:00（L.O.22:30）",https://map.tullys.co.jp/tullys/detailMap?account=tullys&accmd=0&bid=603,TRUE,TRUE,FALSE,FALSE,35.7293574,139.9076364
128,シャポー本八幡西口店 | タリーズコーヒー,千葉県,市川市,川市八幡2-17-1本八幡ショッピングセンター1階109号,京成八幡駅徒歩4分以上,047-711-3014,"平日：7:00〜22:00
土：7:00〜22:00
日祝：7:00〜22:00",https://map.tullys.co.jp/tullys/detailMap?account=tullys&accmd=0&bid=883,TRUE,FALSE,FALSE,FALSE,35.7210653,139.926857
129,シャポー本八幡店 | タリーズコーヒー,千葉県,市川市,川市八幡2-17-1,京成八幡駅徒歩4分以上,047-314-5133,"平日：7:00〜22:00
土：7:00〜22:00
日祝：7:00〜22:00",https://map.tullys.co.jp/tullys/detailMap?account=tullys&accmd=0&bid=837,TRUE,FALSE,FALSE,FALSE,35.7211922,139.9270686
130,セブンパークアリオ柏店 | タリーズコーヒー,千葉県,柏市,大島田1丁目6番地1セブンパークアリオ柏2F,逆井駅徒歩41分以上,04-7157-0711,"平日：10:00〜21:00
土：10:00〜21:00
日祝：10:00〜21:00",https://map.tullys.co.jp/tullys/detailMap?account=tullys&accmd=0&bid=809,TRUE,FALSE,FALSE,FALSE,35.8334268,140.013182
131,ネクスト船橋店 | タリーズコーヒー,千葉県,船橋市,本町1-5-1ネクスト船橋1階,京成船橋駅徒歩3分以内,047-495-5160,"平日：7:00〜22:00
土：7:00〜22:00
日祝：7:00〜22:00",https://map.tullys.co.jp/tullys/detailMap?account=tullys&accmd=0&bid=941,FALSE,FALSE,FALSE,FALSE,35.7002023,139.9856788
132,ペリエ稲毛コムスクエア店 | タリーズコーヒー,千葉県,千葉市,稲毛区稲毛東3丁目19番11号,稲毛駅徒歩3分以内,043-301-5722,"平日：7:00〜22:00
土：7:00〜22:00
日祝：7:00〜22:00",https://map.tullys.co.jp/tullys/detailMap?account=tullys&accmd=0&bid=720,TRUE,TRUE,TRUE,FALSE,35.637136,140.0922822
133,ペリエ千葉ストリート2 | タリーズコーヒー,千葉県,千葉市,中央区新千葉1-1-1,京成千葉駅徒歩1分以上,043-308-0231,"平日：7：00〜22：00
土：7：00〜22：00
日祝：7：00〜22：00",https://map.tullys.co.jp/tullys/detailMap?account=tullys&accmd=0&bid=488,TRUE,FALSE,TRUE,FALSE,35.6123889,140.1146008
134,ペリエ千葉店 | タリーズコーヒー,千葉県,千葉市,中央区新千葉1丁目1番1号ペリエ千葉6F,京成千葉駅徒歩1分以上,043-307-3901,"平日：10:00〜21:00
土：10:00〜21:00
日祝：10:00〜21:00",https://map.tullys.co.jp/tullys/detailMap?account=tullys&accmd=0&bid=904,TRUE,FALSE,FALSE,FALSE,35.6127769,140.1138688
135,モリシア津田沼店 | タリーズコーヒー,千葉県,習志野市,谷津1丁目16-1モリシア津田沼1F,津田沼駅徒歩3分以上,047-470-0122,"平日：8:00〜22:00
土：8:00〜22:00
日祝：8:00〜22:00",https://map.tullys.co.jp/tullys/detailMap?account=tullys&accmd=0&bid=354,TRUE,FALSE,TRUE,TRUE,35.689473,140.018723
136,ライフガーデン茂原店 | タリーズコーヒー,千葉県,茂原市,六ツ野八貫野2785-1,茂原駅徒歩9分以上,0475-27-8820,"平日：9:00〜22:00
土：9:00〜22:00
日祝：9:00〜22:00",https://map.tullys.co.jp/tullys/detailMap?account=tullys&accmd=0&bid=755,TRUE,TRUE,FALSE,FALSE,35.4300826,140.3100846
137,ららぽーとTOKYO-BAY店 | タリーズコーヒー,千葉県,船橋市,浜町2-1-1ららぽーとTOKYO-BAY西館1F,大神宮下駅徒歩11分以上,047-421-7820,"月〜木：10:00〜20:00金：10：00〜21：00
土：10:00〜21:00
日祝：10：00〜21：00",https://map.tullys.co.jp/tullys/detailMap?account=tullys&accmd=0&bid=682,TRUE,TRUE,TRUE,TRUE,35.6872736,139.9880677
138,ららぽーと柏の葉店 | タリーズコーヒー,千葉県,柏市,若柴1753F,初石駅徒歩45分以上,04-7135-7213,"平日：10:00〜21:00
土：10:00〜21:00
日祝：10:00〜21:00",https://map.tullys.co.jp/tullys/detailMap?account=tullys&accmd=0&bid=319,TRUE,FALSE,FALSE,FALSE,35.8936688,139.9510486
139,ららぽーと柏の葉北館店 | タリーズコーヒー,千葉県,柏市,若柴178-4柏の葉キャンパス148街区2ショップ&オフィスららぽーと柏の葉北館1F,初石駅徒歩47分以上,04-7170-1825,"平日：8:00〜21:00
土：8:00〜21:00
日祝：8:00〜21:00",https://map.tullys.co.jp/tullys/detailMap?account=tullys&accmd=0&bid=707,TRUE,TRUE,TRUE,FALSE,35.8950501,139.9518369
140,海浜幕張店 | タリーズコーヒー,千葉県,千葉市,美浜区ひび野1-8メッセアミューズモール1F,海浜幕張駅徒歩2分以上,043-213-3131,"平日：7:00〜23:00
土：7:00〜23:00
日祝：7:00〜23:00",https://map.tullys.co.jp/tullys/detailMap?account=tullys&accmd=0&bid=63,FALSE,TRUE,TRUE,TRUE,35.6497534,140.0423506
141,亀田メディカルセンター店 | タリーズコーヒー,千葉県,鴨川市,東町929K-Tower1F,安房鴨川駅徒歩35分以上,04-7098-2052,"平日：7:30〜18:00
土：7:30〜18:00
日祝：9:00〜18:00",https://map.tullys.co.jp/tullys/detailMap?account=tullys&accmd=0&bid=241,FALSE,FALSE,FALSE,FALSE,35.1204576,140.1265038
142,君津駅前店 | タリーズコーヒー,千葉県,君津市,東坂田2-3-1,君津駅徒歩3分以上,0439-52-5550,"平日：7:30〜21:30
土：8:00〜21:00
日祝：8:00〜21:00",https://map.tullys.co.jp/tullys/detailMap?account=tullys&accmd=0&bid=722,TRUE,FALSE,TRUE,TRUE,35.3359103,139.8948968
143,三井アウトレットパーク幕張店 | タリーズコーヒー,千葉県,千葉市,美浜区ひび野2-6-1三井アウトレットパーク1F,海浜幕張駅徒歩2分以上,043-310-8760,"平日：10:00〜20:00
土：10:00〜20:00
日祝：10:00〜20:00",https://map.tullys.co.jp/tullys/detailMap?account=tullys&accmd=0&bid=256,TRUE,TRUE,TRUE,FALSE,35.6466345,140.0420091
144,三井アウトレットパーク木更津店 | タリーズコーヒー,千葉県,木更津市,金田東3丁目1番1三井アウトレットパーク木更津内区画番号1300,袖ヶ浦駅徒歩28分以上,0438-40-1533,"平日：9:30〜21:00
土：9:30〜21:00
日祝：9:30〜21:00",https://map.tullys.co.jp/tullys/detailMap?account=tullys&accmd=0&bid=558,TRUE,FALSE,TRUE,FALSE,35.43482,139.9352502
145,新松戸店 | タリーズコーヒー,千葉県,松戸市,新松戸3-2-2ダイエー新松戸店1F,幸谷駅徒歩5分以上,047-309-5599,"平日：9:00〜21:00
土：9:00〜21:00
日祝：9:00〜21:00",https://map.tullys.co.jp/tullys/detailMap?account=tullys&accmd=0&bid=78,TRUE,FALSE,TRUE,FALSE,35.8251874,139.9157082
146,成田空港第１ターミナル南ウイング店 | タリーズコーヒー,千葉県,成田市,三里塚字御料牧場1-1成田国際空港第一旅客ターミナル南ウイング4Ｆ,成田空港駅徒歩4分以上,0476-33-2914,"平日：7:00〜20:30（L.O.20:00）
土：7:00〜20:30（L.O.20:00）
日祝：7:00〜20:30（L.O.20:00）",https://map.tullys.co.jp/tullys/detailMap?account=tullys&accmd=0&bid=676,FALSE,FALSE,FALSE,FALSE,35.7631713,140.3852457
147,成田空港第1ターミナル北ウイング店 | タリーズコーヒー,千葉県,成田市,成田国際空港内第1旅客ターミナルビル北ウイング5F,成田空港駅徒歩1分以上,0476-33-5777,"平日：7:00〜19:30（L.O.19:00）
土：7:00〜19:30（L.O.19:00）
日祝：7:00〜19:30（L.O.19:00）",https://map.tullys.co.jp/tullys/detailMap?account=tullys&accmd=0&bid=224,TRUE,TRUE,FALSE,FALSE,35.7657198,140.3849749
148,成田空港第2ターミナル店 | タリーズコーヒー,千葉県,成田市,古込字古込1番1成田国際空港内第2旅客ターミナル本館3階制限区域,空港第２ビル駅徒歩3分以内,0476-34-6659,"平日：7：30〜21：30
土：7：30〜21：30
日祝：7：30〜21：30",https://map.tullys.co.jp/tullys/detailMap?account=tullys&accmd=0&bid=498,FALSE,FALSE,FALSE,FALSE,35.773833,140.387326
149,千葉みなと店 | タリーズコーヒー,千葉県,千葉市,中央区中央港1-16-3,千葉みなと駅徒歩4分以上,043-238-2155,"平日：7:30〜19:30
土：7:30〜19:30
日祝：7:30〜19:30",https://map.tullys.co.jp/tullys/detailMap?account=tullys&accmd=0&bid=280,TRUE,FALSE,TRUE,TRUE,35.6042976,140.1031049
150,千葉西総合病院店 | タリーズコーヒー,千葉県,松戸市,金ヶ作字佐野107番1,常盤平駅徒歩6分以上,047-311-5355,"平日：7:30〜19:00
土：7:30〜19:00
日祝：9:30〜17:00",https://map.tullys.co.jp/tullys/detailMap?account=tullys&accmd=0&bid=650,FALSE,FALSE,FALSE,TRUE,35.804001,139.944711
151,南柏店 | タリーズコーヒー,千葉県,柏市,南柏中央6-7フィールズ南柏MALL-1,南柏駅徒歩1分以上,04-7160-0021,"平日：9:00〜21:00
土：9:00〜21:00
日祝：9:00〜21:00",https://map.tullys.co.jp/tullys/detailMap?account=tullys&accmd=0&bid=282,FALSE,FALSE,TRUE,FALSE,35.844249,139.955353
152,柏モディ店 | タリーズコーヒー,千葉県,柏市,柏1-2-26柏モディ2F,柏駅徒歩3分以上,04-7113-5140,"平日：8:00〜22:00
土：8:00〜22:00
日祝：8:00〜22:00",https://map.tullys.co.jp/tullys/detailMap?account=tullys&accmd=0&bid=853,TRUE,FALSE,FALSE,FALSE,35.8608412,139.9709788
153,八千代村上店 | タリーズコーヒー,千葉県,八千代市,村上南1丁目3番地1イトーヨーカドー八千代店2F,東葉勝田台駅徒歩14分以上,047-405-3775,"平日：10:00〜21:00
土：10:00〜21:00
日祝：10:00〜21:00",https://map.tullys.co.jp/tullys/detailMap?account=tullys&accmd=0&bid=87,TRUE,FALSE,TRUE,FALSE,35.722247,140.1168852
154,＆TEA六本木一丁目店 | タリーズコーヒー,東京都,港区,六本木1-6-1泉ガーデンタワー1Ｆ,六本木一丁目駅徒歩1分以上,03-5797-7809,"平日：7:30〜21:00
土：8:00〜18:00
日祝：8:00〜18:00",https://map.tullys.co.jp/tullys/detailMap?account=tullys&accmd=0&bid=938,FALSE,FALSE,FALSE,FALSE,35.6645512,139.7394972
155,Emio Style BIGBOX 高田馬場店 | タリーズコーヒー,東京都,新宿区,高田馬場1-35-3BIGBOX高田馬場2F,高田馬場駅徒歩2分以上,03-6380-2650,"平日：8:00〜22:00
土：8:00〜22:00
日祝：8:00〜22:00",https://map.tullys.co.jp/tullys/detailMap?account=tullys&accmd=0&bid=902,FALSE,TRUE,FALSE,FALSE,35.7126599,139.7044286
156,Ｅｍｉｏ東久留米店 | タリーズコーヒー,東京都,東久留米市,東本町1-8,東久留米駅徒歩3分以内,042-479-2655,"平日：7:30〜21:30
土：8:00〜21:00
日祝：8:00〜21:00",https://map.tullys.co.jp/tullys/detailMap?account=tullys&accmd=0&bid=456,TRUE,TRUE,TRUE,FALSE,35.7607724,139.5338137
157,Emio練馬高野台店 | タリーズコーヒー,東京都,練馬区,高野台1-7-27Emio練馬高野台2F,練馬高野台駅徒歩3分以内,03-5923-6681,"平日：7:30〜21:30
土：8:00〜21:00
日祝：8:00〜21:00",https://map.tullys.co.jp/tullys/detailMap?account=tullys&accmd=0&bid=582,TRUE,TRUE,TRUE,FALSE,35.7403114,139.6175778
158,ＩＢＭ箱崎店 | タリーズコーヒー,東京都,中央区,日本橋箱崎町19-21IBM箱崎ビル1F,水天宮前駅徒歩7分以上,03-5643-0127,"平日：7:30〜21:00
土：休業日
日祝：休業日",https://map.tullys.co.jp/tullys/detailMap?account=tullys&accmd=0&bid=238,TRUE,TRUE,FALSE,TRUE,35.6784761,139.7870956
159,ＭＩＮＡＮＯ分倍河原店 | タリーズコーヒー,東京都,府中市,片町3-22-26,分倍河原駅徒歩2分以上,042-352-8455,"平日：8:00〜21:00
土：10:00〜21:00
日祝：10:00〜21:00",https://map.tullys.co.jp/tullys/detailMap?account=tullys&accmd=0&bid=417,TRUE,TRUE,TRUE,FALSE,35.6670374,139.4695373
160,ＮＢＦ豊洲店 | タリーズコーヒー,東京都,江東区,豊洲5-6-52,豊洲駅徒歩8分以上,03-6221-0211,"平日：7:30〜19:30
土：10:00〜19:30
日祝：10:00〜19:30",https://map.tullys.co.jp/tullys/detailMap?account=tullys&accmd=0&bid=223,TRUE,FALSE,TRUE,TRUE,35.6505891,139.7992764
161,nonowa武蔵境店 | タリーズコーヒー,東京都,武蔵野市,境南町2丁目1番35号,武蔵境駅徒歩2分以上,0422-38-5510,"平日：7:00〜22:00
土：7:00〜22:00
日祝：7:00〜22:00",https://map.tullys.co.jp/tullys/detailMap?account=tullys&accmd=0&bid=840,TRUE,TRUE,TRUE,FALSE,35.702152,139.5447433
162,OEDO日本橋店 | タリーズコーヒー,東京都,中央区,日本橋二丁目7-1東京日本橋タワーB1F,茅場町駅徒歩8分以上,03-6262-1350,"平日：7:00〜21:00
土：8:00〜20:00
日祝：8:00〜20:00",https://map.tullys.co.jp/tullys/detailMap?account=tullys&accmd=0&bid=763,TRUE,TRUE,TRUE,TRUE,35.6818052,139.7741444
163,ＰＣＰ丸の内店 | タリーズコーヒー,東京都,千代田区,丸の内1-11-1パシフィックセンチュリープレイス丸の内B1,京橋駅徒歩4分以上,03-5208-8423,"平日：7:30〜22:00
土：9:00〜19:00
日祝：9:00〜18:00",https://map.tullys.co.jp/tullys/detailMap?account=tullys&accmd=0&bid=40,FALSE,TRUE,FALSE,FALSE,35.6780553,139.7668852
164,with U ルミネ池袋店 | タリーズコーヒー,東京都,豊島区,西池袋1-11-1ルミネ池袋6F,池袋駅徒歩3分以上,03-5927-8201,"平日：11:00〜21:30
土：11:00〜21:00
日祝：11:00〜21:00",https://map.tullys.co.jp/tullys/detailMap?account=tullys&accmd=0&bid=775,TRUE,FALSE,FALSE,FALSE,35.728886,139.709615
165,アトレヴィ巣鴨店 | タリーズコーヒー,東京都,豊島区,巣鴨1丁目16番8号アトレヴィ巣鴨4F,巣鴨駅徒歩2分以上,03-5961-5531,"平日：10:00〜22:00
土：10:00〜21:00
日祝：10:00〜21:00",https://map.tullys.co.jp/tullys/detailMap?account=tullys&accmd=0&bid=450,TRUE,TRUE,TRUE,FALSE,35.7335708,139.7393103
166,アトレ吉祥寺店 | タリーズコーヒー,東京都,武蔵野市,吉祥寺南町1丁目1番24号アトレ吉祥寺東館2F,吉祥寺駅徒歩1分以上,0422-22-2247,"平日：7:30〜22:00
土：7:30〜22:00
日祝：7:30〜22:00",https://map.tullys.co.jp/tullys/detailMap?account=tullys&accmd=0&bid=472,FALSE,FALSE,TRUE,FALSE,35.7032047,139.5813448
167,アトレ秋葉原店 | タリーズコーヒー,東京都,千代田区,神田花岡町1-9アトレ秋葉原22F,秋葉原駅徒歩1分以上,03-5296-7711,"平日：7:00〜22:00
土：8:00〜22:00
日祝：8:00〜22:00",https://map.tullys.co.jp/tullys/detailMap?account=tullys&accmd=0&bid=262,FALSE,FALSE,FALSE,FALSE,35.6983332,139.7746724
168,アトレ大森店 | タリーズコーヒー,東京都,大田区,大森北1-6-16アトレ大森１Ｆ,大森駅徒歩3分以内,03-5767-5371,"平日：7:00〜22:00
土：7:00〜22:00
日祝：7:00〜22:00",https://map.tullys.co.jp/tullys/detailMap?account=tullys&accmd=0&bid=588,TRUE,FALSE,FALSE,FALSE,35.5883957,139.7282752
169,アトレ目黒店 | タリーズコーヒー,東京都,品川区,上大崎3-1-1アトレ目黒2・2F,目黒駅徒歩1分以上,03-5719-2117,"平日：7:30〜22:30
土：8:00〜22:30
日祝：9:00〜22:30",https://map.tullys.co.jp/tullys/detailMap?account=tullys&accmd=0&bid=51,TRUE,FALSE,FALSE,FALSE,35.633358,139.71573
170,イーホテル東新宿店 | タリーズコーヒー,東京都,新宿区,歌舞伎町2-3-15イーホテル東新宿1階,東新宿駅徒歩3分以内,03-5292-3858,"平日：7:00〜22:00
土：7:00〜22:00
日祝：7:00〜22:00",https://map.tullys.co.jp/tullys/detailMap?account=tullys&accmd=0&bid=389,TRUE,TRUE,FALSE,FALSE,35.6977155,139.707133
171,イオンスタイル板橋前野町店 | タリーズコーヒー,東京都,板橋区,前野町4丁目21番22号イオンスタイル板橋前野町店1F,志村坂上駅徒歩9分以上,03-5939-8955,"平日：9:00〜22:00
土：9:00〜22:00
日祝：9:00〜22:00",https://map.tullys.co.jp/tullys/detailMap?account=tullys&accmd=0&bid=796,TRUE,TRUE,FALSE,FALSE,35.7710915,139.6921415
172,エキュート立川店 | タリーズコーヒー,東京都,立川市,柴崎町3-1-1エキュート立川3F,立川駅徒歩3分以内,042-527-8338,"平日：10:00〜21:30
土：10:00〜21:30
日祝：10:00〜21:00",https://map.tullys.co.jp/tullys/detailMap?account=tullys&accmd=0&bid=860,FALSE,FALSE,FALSE,FALSE,35.697987,139.413478
173,エビススバルビル店 | タリーズコーヒー,東京都,渋谷区,恵比寿1-20-8エビススバルビル1F,恵比寿駅徒歩6分以上,03-5422-9121,"平日：7:30〜20:00
土：8：00〜20：00
日祝：8:00〜20:00",https://map.tullys.co.jp/tullys/detailMap?account=tullys&accmd=0&bid=727,FALSE,TRUE,FALSE,TRUE,35.6470057,139.7134304
174,エミオ田無店 | タリーズコーヒー,東京都,西東京市,田無町4丁目1-1エミオ田無2F,田無駅徒歩3分以内,042-452-9311,"平日：7:30〜21:30
土：7:30〜21:30
日祝：7:30〜21:30",https://map.tullys.co.jp/tullys/detailMap?account=tullys&accmd=0&bid=916,FALSE,TRUE,FALSE,FALSE,35.7274947,139.5399214
175,お台場デックス店 | タリーズコーヒー,東京都,港区,台場1-6-1デックス東京ビーチ1F,お台場海浜公園駅徒歩2分以上,03-3599-1461,"月〜木：8:00〜21:00
金・土：8:00〜22:00
日祝：8:00〜20:00",https://map.tullys.co.jp/tullys/detailMap?account=tullys&accmd=0&bid=317,TRUE,FALSE,FALSE,FALSE,35.6292221,139.7769546
176,がん研有明病院店 | タリーズコーヒー,東京都,江東区,有明3-8-31がん研有明病院内,有明駅徒歩1分以上,03-6380-7313,"平日：7:00〜19:00
土：9:00〜17:00
日祝：9:00〜17:00",https://map.tullys.co.jp/tullys/detailMap?account=tullys&accmd=0&bid=380,TRUE,FALSE,FALSE,TRUE,35.6340048,139.7945687
177,グランエミオ大泉学園店 | タリーズコーヒー,東京都,練馬区,東大泉一丁目28-1グランエミオ大泉学園2F,大泉学園駅徒歩3分以内,03-6904-6035,"平日：7:00〜22:00
土：7:00〜22:00
日祝：7:00〜22:00",https://map.tullys.co.jp/tullys/detailMap?account=tullys&accmd=0&bid=759,TRUE,TRUE,TRUE,TRUE,35.749628,139.587385
178,グランデュオ立川店 | タリーズコーヒー,東京都,立川市,柴崎町3-2-16F,立川駅徒歩1分以上,042-540-2280,"平日：10：00〜21：00
土：10：00〜21：00
日祝：10：00〜21：00",https://map.tullys.co.jp/tullys/detailMap?account=tullys&accmd=0&bid=524,TRUE,FALSE,TRUE,FALSE,35.6973884,139.414818
179,グリナード永山店 | タリーズコーヒー,東京都,多摩市,永山1-4グリナード永山1号館4F,小田急永山駅徒歩3分以内,042-311-7200,"平日：8:00〜21:30(L.O.21:00)
土：8:00〜21:30(L.O.21:00)
日祝：8:00〜21:30(L.O.21:00)",https://map.tullys.co.jp/tullys/detailMap?account=tullys&accmd=0&bid=160,TRUE,FALSE,TRUE,FALSE,35.6292187,139.4483931
180,シャポーロコ平井店 | タリーズコーヒー,東京都,江戸川区,平井3-30-1シャポーロコ平井1F・2F,平井駅徒歩3分以内,03-5875-5332,"平日：7:00〜21:00
土：8:00〜21:00
日祝：8:00〜21:00",https://map.tullys.co.jp/tullys/detailMap?account=tullys&accmd=0&bid=925,FALSE,FALSE,TRUE,FALSE,35.7063427,139.84261
181,セレオ国分寺店 | タリーズコーヒー,東京都,国分寺市,南町3-20-3セレオ国分寺2F,国分寺駅徒歩2分以上,042-300-2230,"平日：7:00〜22:00
土：7:00〜22:00
日祝：7:00〜22:00",https://map.tullys.co.jp/tullys/detailMap?account=tullys&accmd=0&bid=656,TRUE,TRUE,TRUE,FALSE,35.69982,139.4805606
182,セレスティン芝三井ビルディング店 | タリーズコーヒー,東京都,港区,芝3-23-1セレスティン芝三井ビルディング1F,芝公園駅徒歩4分以上,03-5419-3588,"平日：7:00〜20:30
土：8:00〜18:00
日祝：休業日",https://map.tullys.co.jp/tullys/detailMap?account=tullys&accmd=0&bid=56,TRUE,FALSE,FALSE,TRUE,35.6510572,139.7487576
183,ソニーシティ内店 | タリーズコーヒー,東京都,港区,港南1−7−1ソニーシティ1F,品川駅徒歩10分以上,03-5781-2260,"平日：8:00〜20:00
土：休業日
日祝：休業日",https://map.tullys.co.jp/tullys/detailMap?account=tullys&accmd=0&bid=482,TRUE,FALSE,FALSE,TRUE,35.6314113,139.7432875
184,ダイバーシティ東京プラザ店 | タリーズコーヒー,東京都,江東区,青海1丁目1番地1号ダイバーシティ東京プラザ3F,台場駅徒歩5分以上,03-3527-6112,"平日：8:00〜22:00
土：8:00〜22:00
日祝：8:00〜22:00",https://map.tullys.co.jp/tullys/detailMap?account=tullys&accmd=0&bid=561,TRUE,TRUE,TRUE,FALSE,35.6250462,139.7754533
185,タリーズコーヒープライムファイブ 東急プラザ銀座店 | タリーズコーヒー,東京都,中央区,銀座5丁目2番1号東急プラザ銀座B1FA区画,銀座駅徒歩2分以上,03-6264-5480,"平日：7:30〜22:00（L.O.21:30）
土：7:30〜22:00（L.O.21:30）
日祝：7:30〜22:00（L.O.21:30）",https://map.tullys.co.jp/tullys/detailMap?account=tullys&accmd=0&bid=811,TRUE,FALSE,FALSE,TRUE,35.6721757,139.7624406
186,デンマーク・ザ・ロイヤルカフェテラス 東京スクエアガーデン店 | タリーズコーヒー,東京都,中央区,京橋3丁目1-1東京スクエアガーデンB1F,京橋駅徒歩2分以上,03-6214-1185,"平日：7:00〜22:00
土：11：00〜22：00
日祝：休業日",https://map.tullys.co.jp/tullys/detailMap?account=tullys&accmd=0&bid=633,TRUE,FALSE,TRUE,TRUE,35.676097,139.768709
187,ニューオータニガーデンコート店 | タリーズコーヒー,東京都,千代田区,紀尾井町4-1ガーデンコート2F,赤坂見附駅徒歩2分以上,03-3221-0531,"平日：7:30〜20:00
土：9:00〜18:00
日祝：9:00〜18:00",https://map.tullys.co.jp/tullys/detailMap?account=tullys&accmd=0&bid=197,TRUE,TRUE,FALSE,TRUE,35.6793784,139.7356644
188,ビーンズ阿佐ヶ谷店 | タリーズコーヒー,東京都,杉並区,阿佐ヶ谷南3-55-1ビーンズ阿佐ヶ谷2F,阿佐ヶ谷駅徒歩3分以内,03-5327-5307,"平日：10:00〜22:00
土：10:00〜22:00
日祝：10:00〜22:00",https://map.tullys.co.jp/tullys/detailMap?account=tullys&accmd=0&bid=576,TRUE,TRUE,TRUE,FALSE,35.7047964,139.6356254
189,ビリーヴ大森店 | タリーズコーヒー,東京都,品川区,南大井6丁目25-3ビリーヴ大森1F,大森駅徒歩4分以上,03-5753-0350,"平日：7:30〜22:00
土：8:00〜20:00
日祝：9：00〜19:00",https://map.tullys.co.jp/tullys/detailMap?account=tullys&accmd=0&bid=353,TRUE,FALSE,TRUE,TRUE,35.5889603,139.7310502
190,フジテレビ店 | タリーズコーヒー,東京都,港区,台場二丁目4番8号,台場駅徒歩3分以上,03-6426-0500,"平日：9:00〜20:00
土：9:00〜20:00
日祝：9:00〜20:00",https://map.tullys.co.jp/tullys/detailMap?account=tullys&accmd=0&bid=924,FALSE,FALSE,FALSE,FALSE,35.6268527,139.7741405
191,ブルースカイタリーズコーヒー羽田空港第一ターミナル店 | タリーズコーヒー,東京都,大田区,羽田空港3-3-2第一旅客ターミナルビルP.O.BOX26,羽田空港第１ビル駅徒歩3分以内,03-5757-9478,"平日：6:00〜20:00
土：6:00〜20:00
日祝：6:00〜20:00",https://map.tullys.co.jp/tullys/detailMap?account=tullys&accmd=0&bid=478,FALSE,FALSE,FALSE,FALSE,35.5491495,139.7847011
192,フレスポ府中店 | タリーズコーヒー,東京都,府中市,西原町1-6-2蔦屋書店フレスポ府中店内,北府中駅徒歩14分以上,042-358-6176,"平日：10：00〜22：00
土：9：00〜22：00
日祝：9：00〜22：00",https://map.tullys.co.jp/tullys/detailMap?account=tullys&accmd=0&bid=513,TRUE,TRUE,TRUE,FALSE,35.6823235,139.4606338
193,マロニエゲート銀座2店 | タリーズコーヒー,東京都,中央区,銀座3-2-1マロニエゲート銀座2B2F,銀座一丁目駅徒歩2分以上,03-6228-7218,"月〜木：11:00〜21:00
金・土：11:00〜21:00
日祝：11:00〜20:00",https://map.tullys.co.jp/tullys/detailMap?account=tullys&accmd=0&bid=717,TRUE,FALSE,FALSE,FALSE,35.6737384,139.7651841
194,みなみ野店 | タリーズコーヒー,東京都,八王子市,みなみ野1-7-7,八王子みなみ野駅徒歩5分以上,042-632-7776,"平日：9:00〜21:00（L,O.20:30)
土：9:00〜21:00（L,O.20:30)
日祝：9:00〜21:00（L,O.20:30)",https://map.tullys.co.jp/tullys/detailMap?account=tullys&accmd=0&bid=785,FALSE,FALSE,FALSE,FALSE,35.632494,139.3273252
195,ルミネ池袋店 | タリーズコーヒー,東京都,豊島区,西池袋1-11-1ルミネ池袋1F,池袋駅徒歩4分以上,03-5954-8251,"平日：8:00〜21:30
土：9:00〜21:00
日祝：9:00〜21:00",https://map.tullys.co.jp/tullys/detailMap?account=tullys&accmd=0&bid=886,FALSE,FALSE,FALSE,FALSE,35.728845,139.709308
196,ルミネ北千住店 | タリーズコーヒー,東京都,足立区,千住旭町42-2ルミネ北千住6F,北千住駅徒歩1分以上,03-6806-2252,"平日：10:00〜20:30
土：10:00〜20:30
日祝：10:00〜20:30",https://map.tullys.co.jp/tullys/detailMap?account=tullys&accmd=0&bid=875,FALSE,FALSE,FALSE,FALSE,35.749493,139.804875
197,綾瀬駅前店 | タリーズコーヒー,東京都,足立区,綾瀬3-1-2東急ストア内,綾瀬駅徒歩3分以内,03-5849-5550,"平日：8:00〜22:00（L.O21:45）
土：8:00〜22:00（L.O21:45）
日祝：8:00〜22:00（L.O21:45）",https://map.tullys.co.jp/tullys/detailMap?account=tullys&accmd=0&bid=801,TRUE,TRUE,FALSE,TRUE,35.7622747,139.8251382
198,羽田空港国際線店 | タリーズコーヒー,東京都,大田区,羽田空港2-6-5羽田空港国際線旅客ターミナルビル2F,天空橋駅徒歩19分以上,03-6428-0319,"平日：00:00〜24:00
土：00:00〜24:00
日祝：00:00〜24:00",https://map.tullys.co.jp/tullys/detailMap?account=tullys&accmd=0&bid=889,FALSE,FALSE,FALSE,FALSE,35.5449595,139.76862
199,歌舞伎座店 | タリーズコーヒー,東京都,中央区,銀座4-12-15GINZAKABUKIZAB2F,東銀座駅徒歩3分以内,03-3547-3370,"平日：7:30〜22:00
土：8：00〜22：00
日祝：8：00〜22：00",https://map.tullys.co.jp/tullys/detailMap?account=tullys&accmd=0&bid=628,TRUE,TRUE,TRUE,TRUE,35.6696727,139.7679144
200,霞が関中央合同庁舎第5号館 | タリーズコーヒー,東京都,千代田区,霞が関1-2-2中央合同庁舎第５号館1階,霞ヶ関駅徒歩2分以上,03-6206-1177,"平日：8:30〜19:00
土：休業日
日祝：休業日",https://map.tullys.co.jp/tullys/detailMap?account=tullys&accmd=0&bid=942,FALSE,FALSE,FALSE,FALSE,35.6732657,139.7531492
201,海岸竹芝通り店 | タリーズコーヒー,東京都,港区,海岸1-4-8キヤノン電子ビル,モノレール浜松町駅徒歩3分以上,03-5408-1137,"平日：7:30〜20:00
土：休業日
日祝：休業日",https://map.tullys.co.jp/tullys/detailMap?account=tullys&accmd=0&bid=11,TRUE,FALSE,TRUE,TRUE,35.6559744,139.7592781
202,蒲田アロマスクエア店 | タリーズコーヒー,東京都,大田区,蒲田5-37-1ニッセイアロマスクエア1F,蒲田駅徒歩5分以上,03-5714-0630,"平日：7:30〜20:00
土：8:00〜19:00
日祝：9:00〜18:00",https://map.tullys.co.jp/tullys/detailMap?account=tullys&accmd=0&bid=136,FALSE,FALSE,TRUE,FALSE,35.5609811,139.7183444
203,丸の内CAFE 会店 | タリーズコーヒー,東京都,千代田区,丸の内2丁目7番2号,東京駅徒歩2分以上,03-3217-2022,"平日：7:00〜23:00
土：8：00〜23：00
日祝：9：00〜22：00",https://map.tullys.co.jp/tullys/detailMap?account=tullys&accmd=0&bid=629,TRUE,FALSE,TRUE,FALSE,35.6798409,139.7650921
204,丸の内パレスビル店 | タリーズコーヒー,東京都,千代田区,丸の内1-1-1パレスビル地下1F,大手町駅徒歩2分以上,03-5220-4818,"平日：7:30〜20:00
土：9:00〜19:00
日祝：9:00〜19:00",https://map.tullys.co.jp/tullys/detailMap?account=tullys&accmd=0&bid=574,TRUE,FALSE,FALSE,FALSE,35.685381,139.761559
205,丸の内永楽ビルディング店 | タリーズコーヒー,東京都,千代田区,丸の内1-4-1丸の内永楽ビルディングB1F,大手町駅徒歩2分以上,03-5220-5525,"平日：7:30〜20：00
土：8:00〜20:00
日祝：休業日",https://map.tullys.co.jp/tullys/detailMap?account=tullys&accmd=0&bid=562,FALSE,FALSE,TRUE,FALSE,35.6843447,139.7648754
206,丸の内東京海上日動ビル店 | タリーズコーヒー,東京都,千代田区,丸の内1-2-1東京海上ビルディング新館1F,大手町駅徒歩2分以上,03-5220-7003,"平日：8:00〜19:00
土：休業日
日祝：休業日",https://map.tullys.co.jp/tullys/detailMap?account=tullys&accmd=0&bid=103,TRUE,FALSE,FALSE,TRUE,35.6826241,139.7628919
207,砧世田谷通り店 | タリーズコーヒー,東京都,世田谷区,砧1-15-3GU世田谷砧店1F,祖師ヶ谷大蔵駅徒歩16分以上,03-5727-3063,"平日：8:30〜20:00
土：8:30〜20:00
日祝：8:30〜20:00",https://map.tullys.co.jp/tullys/detailMap?account=tullys&accmd=0&bid=204,TRUE,FALSE,TRUE,TRUE,35.636462,139.619053
208,京王高幡SC店 | タリーズコーヒー,東京都,日野市,高幡116-10,高幡不動駅徒歩3分以内,042-506-6466,"平日：7:00〜22:00
土：8:00〜22:00
日祝：8:00〜22:00",https://map.tullys.co.jp/tullys/detailMap?account=tullys&accmd=0&bid=234,FALSE,FALSE,TRUE,TRUE,35.6620418,139.4133917
209,京王多摩センター駅店 | タリーズコーヒー,東京都,多摩市,落合1-10-1,京王多摩センター駅徒歩3分以内,042-357-3035,"平日：7:30〜21:30（L.O.21:00)
土：8:00〜21:00（L.O.20:30)
日祝：8:00〜21:00（L.O.20:30)",https://map.tullys.co.jp/tullys/detailMap?account=tullys&accmd=0&bid=490,FALSE,TRUE,FALSE,TRUE,35.6253076,139.4241064
210,京急蒲田駅店 | タリーズコーヒー,東京都,大田区,蒲田4-50-11ウィングキッチン京急蒲田１Ｆ,京急蒲田駅徒歩3分以内,03-6715-7320,"平日：7:00〜22:00（L.O.21:30）
土：7:00〜22:00（L.O.21:30）
日祝：7:00〜22:00（L.O.21:30）",https://map.tullys.co.jp/tullys/detailMap?account=tullys&accmd=0&bid=804,TRUE,FALSE,FALSE,FALSE,35.5611774,139.7240354
211,錦糸町アルカウエスト店 | タリーズコーヒー,東京都,墨田区,錦糸1-2-4アルカウエスト2F,錦糸町駅徒歩6分以上,03-5637-5056,"平日：7:30〜19:00
土：11:00〜18:00
日祝：11:00〜18:00",https://map.tullys.co.jp/tullys/detailMap?account=tullys&accmd=0&bid=206,TRUE,FALSE,FALSE,TRUE,35.6971549,139.8095509
212,錦糸町オリナスタワー店 | タリーズコーヒー,東京都,墨田区,太平4-1-3オリナスタワー1F,錦糸町駅徒歩6分以上,03-5819-5586,"平日：8:00〜20:00
土：休業日
日祝：休業日",https://map.tullys.co.jp/tullys/detailMap?account=tullys&accmd=0&bid=306,TRUE,FALSE,FALSE,TRUE,35.7007502,139.8153059
213,錦糸町オリナスモール店 | タリーズコーヒー,東京都,墨田区,太平4-1-2錦糸町オリナスモール1階,錦糸町駅徒歩6分以上,03-5819-8286,"平日：9:00〜21:00
土：9:00〜21:00
日祝：9:00〜21:00",https://map.tullys.co.jp/tullys/detailMap?account=tullys&accmd=0&bid=302,TRUE,TRUE,TRUE,TRUE,35.700722,139.81581
214,錦糸町テルミナ店 | タリーズコーヒー,東京都,墨田区,江東橋3丁目14番5号テルミナ4F,錦糸町駅徒歩3分以内,03-5669-7281,"平日：10:00〜21:00
土：10:00〜21:00
日祝：10:00〜21:00",https://map.tullys.co.jp/tullys/detailMap?account=tullys&accmd=0&bid=792,TRUE,TRUE,FALSE,FALSE,35.696405,139.814334
215,金町駅南口店 | タリーズコーヒー,東京都,葛飾区,金町6-2-1,京成金町駅徒歩1分以上,03-5648-3206,"平日：8:00〜21:30
土：8:00〜21:30
日祝：8:00〜21:30",https://map.tullys.co.jp/tullys/detailMap?account=tullys&accmd=0&bid=426,TRUE,TRUE,TRUE,TRUE,35.7678131,139.8712874
216,銀座三越コミュ店 | タリーズコーヒー,東京都,中央区,銀座4-6-16銀座三越ル・プレイス内3階,銀座駅徒歩1分以上,03-5159-0655,"平日：10:30〜20:00
土：10:30〜20:00
日祝：10:30〜20:00",https://map.tullys.co.jp/tullys/detailMap?account=tullys&accmd=0&bid=465,TRUE,FALSE,FALSE,FALSE,35.6713225,139.7658367
217,銀座六丁目昭和通り店 | タリーズコーヒー,東京都,中央区,銀座6-14-5銀座ホウライビル1F,東銀座駅徒歩3分以上,03-5148-8660,"平日：7:30〜20:00（L.O.19:45）
土：8:30〜19:00（L.O.18:45）
日祝：9:00〜19:00（L.O.18:45）",https://map.tullys.co.jp/tullys/detailMap?account=tullys&accmd=0&bid=182,TRUE,FALSE,FALSE,TRUE,35.6688236,139.7654675
218,隅田公園店 | タリーズコーヒー,東京都,台東区,花川戸1-1-31隅田公園内,浅草駅徒歩4分以上,03-5246-4320,"平日：9:00〜21:00
土：9:00〜21:00
日祝：9:00〜21:00",https://map.tullys.co.jp/tullys/detailMap?account=tullys&accmd=0&bid=670,TRUE,TRUE,FALSE,TRUE,35.7134182,139.8012615
219,恵比寿東口店 | タリーズコーヒー,東京都,渋谷区,恵比寿1-11-1大慧ビル1F,恵比寿駅徒歩3分以上,03-6408-1614,"平日：7:00〜22:30
土：8:00〜22:00
日祝：9:00〜21:00",https://map.tullys.co.jp/tullys/detailMap?account=tullys&accmd=0&bid=38,TRUE,FALSE,TRUE,TRUE,35.6467173,139.7112988
220,慶大東門前店 | タリーズコーヒー,東京都,港区,芝5-1-13三ツ輪三田ビル1F,三田駅徒歩5分以上,03-5765-4853,"平日：7:00〜20:30
土：8:00〜19:00
日祝：8:00〜19:00",https://map.tullys.co.jp/tullys/detailMap?account=tullys&accmd=0&bid=14,TRUE,FALSE,TRUE,TRUE,35.649997,139.745081
221,経堂コルティ店 | タリーズコーヒー,東京都,世田谷区,経堂2-1-33経堂コルティ2F,経堂駅徒歩3分以内,03-5426-3445,"平日：7：30〜22：00
土：7：30〜22：00
日祝：7：30〜22：00",https://map.tullys.co.jp/tullys/detailMap?account=tullys&accmd=0&bid=489,TRUE,TRUE,TRUE,FALSE,35.6514711,139.635725
222,月島駅前店 | タリーズコーヒー,東京都,中央区,月島1-5-1,月島駅徒歩1分以上,03-3533-2910,"平日：7:30〜21:00
土：7:30〜20:00
日祝：7:30〜20:00",https://map.tullys.co.jp/tullys/detailMap?account=tullys&accmd=0&bid=780,TRUE,FALSE,TRUE,TRUE,35.6642654,139.7836803
223,虎ノ門ＪＴビル店 | タリーズコーヒー,東京都,港区,虎ノ門2-2-1虎ノ門JTビル1F,虎ノ門駅徒歩5分以上,03-3560-1221,"平日：7:30〜20:00
土：休業日
日祝：休業日",https://map.tullys.co.jp/tullys/detailMap?account=tullys&accmd=0&bid=31,TRUE,FALSE,TRUE,TRUE,35.6694554,139.7456716
224,虎ノ門桜田通り店 | タリーズコーヒー,東京都,港区,虎ノ門1-16-17虎ノ門センタービル1F,虎ノ門駅徒歩2分以上,03-6205-7580,"平日：7:00〜20:00
土：9:00〜18:00
日祝：9:00〜18:00",https://map.tullys.co.jp/tullys/detailMap?account=tullys&accmd=0&bid=885,FALSE,FALSE,FALSE,FALSE,35.6687089,139.7485563
225,五反田西店 | タリーズコーヒー,東京都,品川区,西五反田7-9-4ウスイビル1F,大崎広小路駅徒歩2分以上,03-5745-5077,"平日：7:00〜21:00
土：8:30〜19:00
日祝：8:30〜19:00",https://map.tullys.co.jp/tullys/detailMap?account=tullys&accmd=0&bid=183,TRUE,FALSE,TRUE,TRUE,35.623546,139.720584
226,五反田東店 | タリーズコーヒー,東京都,品川区,東五反田2-3-2タイセイビル1階,五反田駅徒歩2分以上,03-5792-4922,"平日：7:00〜22:00
土：8:30〜20:00
日祝：8:30〜20:00",https://map.tullys.co.jp/tullys/detailMap?account=tullys&accmd=0&bid=169,TRUE,FALSE,TRUE,TRUE,35.6255201,139.7259662
227,好仁会東大病院店 | タリーズコーヒー,東京都,文京区,本郷7-3-1東大病院内,湯島駅徒歩7分以上,03-5842-2166,"平日：8:00〜20:00
土：9:00〜19:00
日祝：9:00〜19:00",https://map.tullys.co.jp/tullys/detailMap?account=tullys&accmd=0&bid=190,FALSE,FALSE,FALSE,FALSE,35.710959,139.765652
228,江古田店 | タリーズコーヒー,東京都,練馬区,旭丘1丁目78番3号,江古田駅徒歩3分以内,03-5988-7588,"平日：7:30〜21:30
土：8:00〜21:00
日祝：8:00〜21:00",https://map.tullys.co.jp/tullys/detailMap?account=tullys&accmd=0&bid=593,TRUE,TRUE,TRUE,FALSE,35.7372484,139.6734001
229,麹町店 | タリーズコーヒー,東京都,千代田区,麹町3-3丸増ビル1F,麹町駅徒歩2分以上,03-3515-7077,"平日：7:30〜21:00
土：8:00〜19:00
日祝：8:00〜19:00",https://map.tullys.co.jp/tullys/detailMap?account=tullys&accmd=0&bid=35,TRUE,TRUE,TRUE,TRUE,35.6836794,139.738302
230,国立国際医療研究センター店 | タリーズコーヒー,東京都,新宿区,戸山1-21-1国立国際医療研究センター内1F,若松河田駅徒歩4分以上,03-6457-3357,"平日：7:30〜20:00
土：9:00〜20:00
日祝：9:00〜20:00",https://map.tullys.co.jp/tullys/detailMap?account=tullys&accmd=0&bid=770,TRUE,FALSE,FALSE,FALSE,35.701576,139.7162597
231,国立精神・神経医療研究センター店 | タリーズコーヒー,東京都,小平市,小川東町4-1-11Ｆ,萩山駅徒歩5分以上,042-348-3123,"平日：7:30〜19:00
土：9:00〜16:00
日祝：休業日",https://map.tullys.co.jp/tullys/detailMap?account=tullys&accmd=0&bid=473,FALSE,FALSE,FALSE,TRUE,35.7373263,139.475253
232,国立店 | タリーズコーヒー,東京都,国立市,中1-10-1,国立駅徒歩2分以上,042-501-0336,"平日：8:00〜22:00
土：8:00〜22:00
日祝：8:00〜20:00",https://map.tullys.co.jp/tullys/detailMap?account=tullys&accmd=0&bid=251,TRUE,FALSE,TRUE,TRUE,35.6980998,139.4454042
233,済生会中央病院店 | タリーズコーヒー,東京都,港区,三田1-4-17新棟1階,赤羽橋駅徒歩1分以上,03-5419-3665,"平日：7：30〜18：00
土：7：30〜18：00
日祝：9：00〜17：00",https://map.tullys.co.jp/tullys/detailMap?account=tullys&accmd=0&bid=499,FALSE,FALSE,FALSE,TRUE,35.6539628,139.7442
234,桜新町店 | タリーズコーヒー,東京都,世田谷区,桜新町2-8-2,桜新町駅徒歩3分以上,03-5426-0133,"平日：7:30〜22:00
土：7:30〜22:00
日祝：7:30〜22:00",https://map.tullys.co.jp/tullys/detailMap?account=tullys&accmd=0&bid=442,TRUE,TRUE,TRUE,TRUE,35.63191,139.6449319
235,三井アウトレットパーク多摩南大沢店 | タリーズコーヒー,東京都,八王子市,南大沢1-600三井アウトレットパーク1F,南大沢駅徒歩2分以上,042-670-2213,"平日：10:00〜20:00
土：10:00〜20:00
日祝：10:00〜20:00",https://map.tullys.co.jp/tullys/detailMap?account=tullys&accmd=0&bid=346,TRUE,FALSE,TRUE,FALSE,35.6150439,139.3781863
236,三井住友海上駿河台ビル店 | タリーズコーヒー,東京都,千代田区,神田駿河台3丁目9番地,新御茶ノ水駅徒歩2分以上,03-6273-7055,"平日：7:30〜20:00
土：休業日
日祝：休業日",https://map.tullys.co.jp/tullys/detailMap?account=tullys&accmd=0&bid=671,TRUE,TRUE,TRUE,TRUE,35.696625,139.7643277
237,三鷹駅南口店 | タリーズコーヒー,東京都,三鷹市,下連雀3-46-6,三鷹駅徒歩3分以内,0422-40-5483,"平日：7：00〜21：00
土曜：7：00〜21：00
日祝：7：00〜21：00",https://map.tullys.co.jp/tullys/detailMap?account=tullys&accmd=0&bid=537,FALSE,TRUE,TRUE,FALSE,35.7024525,139.5604696
238,三田国際ビル店 | タリーズコーヒー,東京都,港区,三田1-4-28三田国際ビルB1F,赤羽橋駅徒歩3分以上,03-5444-6333,"平日：8:00〜19:00
土：休業日
日祝：休業日",https://map.tullys.co.jp/tullys/detailMap?account=tullys&accmd=0&bid=158,FALSE,FALSE,FALSE,TRUE,35.6526565,139.7444276
239,四ツ谷東口店 | タリーズコーヒー,東京都,千代田区,麹町5-3第7秋山ビルディング,四ツ谷駅徒歩4分以上,03-3264-3755,"平日：7:30〜20:00
土：9:00〜18:00
日祝：休業日",https://map.tullys.co.jp/tullys/detailMap?account=tullys&accmd=0&bid=167,TRUE,FALSE,FALSE,FALSE,35.6845032,139.733222
240,市ヶ谷店 | タリーズコーヒー,東京都,千代田区,九段南4-6-10近清堂ビル1F,市ヶ谷駅徒歩4分以上,03-5213-3830,"平日：7:30〜21:00
土：8:00〜20:00
日祝：9:00〜19:00",https://map.tullys.co.jp/tullys/detailMap?account=tullys&accmd=0&bid=57,TRUE,FALSE,TRUE,TRUE,35.6918309,139.7393965
241,汐留シティセンター店 | タリーズコーヒー,東京都,港区,東新橋一丁目5番2号汐留シティセンターB2F,新橋駅徒歩2分以上,03-6280-6534,"平日：7:00〜22:00
土：10:00〜19:00
日祝：10:00〜18:00",https://map.tullys.co.jp/tullys/detailMap?account=tullys&accmd=0&bid=764,TRUE,FALSE,FALSE,TRUE,35.6656575,139.7610263
242,汐留住友ビル店 | タリーズコーヒー,東京都,港区,東新橋一丁目9番2号汐留住友ビル2F,汐留駅徒歩1分以上,03-6228-5884,"平日：7:00〜22:00
土：8:00〜20:00
日祝：8:00〜20:00",https://map.tullys.co.jp/tullys/detailMap?account=tullys&accmd=0&bid=715,TRUE,FALSE,TRUE,TRUE,35.6621646,139.7601766
243,芝ＮＢＦタワー店 | タリーズコーヒー,東京都,港区,芝大門1-1-30芝NBFタワー1F,御成門駅徒歩3分以上,03-5405-6060,"平日：8:00〜19:00
土：休業日
日祝：休業日",https://map.tullys.co.jp/tullys/detailMap?account=tullys&accmd=0&bid=154,TRUE,FALSE,FALSE,FALSE,35.6594114,139.7533089
244,芝浦海岸通り店 | タリーズコーヒー,東京都,港区,芝浦4-13-23MS芝浦ビル1F,田町駅徒歩8分以上,03-5419-1333,"平日：7:00〜19:30（L.O.19:15）
土：8:30〜18:30（L.O.18:15）
日祝：8:30〜18:30（L.O.18:15）",https://map.tullys.co.jp/tullys/detailMap?account=tullys&accmd=0&bid=299,TRUE,FALSE,TRUE,TRUE,35.6402396,139.7480612
245,芝公園店 | タリーズコーヒー,東京都,港区,芝公園2-4-1芝パークビル１Ｆ,芝公園駅徒歩4分以上,03-5408-7500,"平日：7:30〜20:00
土：9:00〜18:00
日祝：休業日",https://map.tullys.co.jp/tullys/detailMap?account=tullys&accmd=0&bid=222,TRUE,FALSE,TRUE,TRUE,35.6556229,139.7522709
246,芝二丁目店 | タリーズコーヒー,東京都,港区,芝2-3-3芝二丁目大門ビルディング1F,芝公園駅徒歩5分以上,03-5419-3597,"平日：7:30〜20:00
土：8:00〜17:00
日祝：休業日",https://map.tullys.co.jp/tullys/detailMap?account=tullys&accmd=0&bid=184,TRUE,FALSE,TRUE,TRUE,35.6523642,139.7536284
247,秋葉原ＵＤＸ店 | タリーズコーヒー,東京都,千代田区,外神田4-14-1秋葉原UDX1,末広町駅徒歩3分以上,03-3526-3363,"平日：7:30〜23:00
土：8:00〜23:00
日祝：8:00〜22:00",https://map.tullys.co.jp/tullys/detailMap?account=tullys&accmd=0&bid=289,TRUE,TRUE,TRUE,TRUE,35.7006629,139.7725155
248,渋谷ファイヤー通り店 | タリーズコーヒー,東京都,渋谷区,神南1-12-14,渋谷駅徒歩8分以上,03-6455-1035,"平日：7:30〜22:00
土：7:30〜22:00
日祝：8:00〜22:00",https://map.tullys.co.jp/tullys/detailMap?account=tullys&accmd=0&bid=771,TRUE,FALSE,TRUE,TRUE,35.6628326,139.7005648
249,渋谷東急本店前店 | タリーズコーヒー,東京都,渋谷区,道玄坂2-23-12フォンティスビル1F,神泉駅徒歩5分以上,03-5457-2866,"平日：7:30〜23:00
土：7:30〜23:00
日祝：7:30〜23:00",https://map.tullys.co.jp/tullys/detailMap?account=tullys&accmd=0&bid=33,TRUE,FALSE,FALSE,TRUE,35.6599597,139.6959636
250,順天堂大学練馬病院店 | タリーズコーヒー,東京都,練馬区,高野台3-1-10順天堂大学医学部附属練馬病院内1F,練馬高野台駅徒歩3分以上,03-6913-1612,"平日：7:00〜18:00
土：7:30〜17:00
日祝：9:00〜17:00",https://map.tullys.co.jp/tullys/detailMap?account=tullys&accmd=0&bid=773,FALSE,FALSE,FALSE,TRUE,35.74223,139.614963
251,小田急マルシェ町田店 | タリーズコーヒー,東京都,町田市,田市原町田6-1-1小田急マルシェ町田2F,町田駅徒歩1分以上,042-710-8002,"平日：7：00〜22：30
土：7:00〜22:30
日祝：7:00〜22:30",https://map.tullys.co.jp/tullys/detailMap?account=tullys&accmd=0&bid=563,TRUE,FALSE,TRUE,FALSE,35.5429208,139.4444359
252,昭和大学江東豊洲病院店 | タリーズコーヒー,東京都,江東区,豊洲5-1,豊洲駅徒歩8分以上,03-6204-9552,"平日：8:00〜18:00
土：8:00〜18:00
日祝：8:00〜18:00",https://map.tullys.co.jp/tullys/detailMap?account=tullys&accmd=0&bid=703,TRUE,FALSE,FALSE,FALSE,35.6498919,139.7957018
253,昭和大学病院店 | タリーズコーヒー,東京都,品川区,旗の台1-5-8中央棟１F,旗の台駅徒歩5分以上,03-3784-8394,"平日：7:00〜18：00
土：7:30〜14:00
日祝：休業日",https://map.tullys.co.jp/tullys/detailMap?account=tullys&accmd=0&bid=550,FALSE,FALSE,FALSE,FALSE,35.6085965,139.7036887
254,上野の森さくらテラス店 | タリーズコーヒー,東京都,台東区,上野公園1-54,京成上野駅徒歩1分以上,03-5826-4880,"平日：7:00〜23:00（L.O.22：30）
土：7:00〜23:00（L.O.22：30）
日祝：7:00〜22:00",https://map.tullys.co.jp/tullys/detailMap?account=tullys&accmd=0&bid=706,TRUE,TRUE,TRUE,TRUE,35.7121291,139.7744987
255,上野御徒町店 | タリーズコーヒー,東京都,台東区,上野5-25-11,仲御徒町駅徒歩3分以内,03-6240-1681,"平日：7:00〜21:00
土：7:00〜21:00
日祝：7:00〜21:00",https://map.tullys.co.jp/tullys/detailMap?account=tullys&accmd=0&bid=794,TRUE,FALSE,FALSE,TRUE,35.7075213,139.775585
256,上野広小路店 | タリーズコーヒー,東京都,台東区,上野1-20-11上野鈴乃屋本店ビル1F,上野御徒町駅徒歩3分以内,03-6803-0840,"平日：7:30〜22:00
土：7:30〜22:00
日祝：7:30〜22:00",https://map.tullys.co.jp/tullys/detailMap?account=tullys&accmd=0&bid=692,TRUE,TRUE,TRUE,TRUE,35.7074757,139.7726361
257,上野店 | タリーズコーヒー,東京都,台東区,上野2丁目7-7,上野広小路駅徒歩1分以上,03-5846-2105,"平日：7:00〜23:00
土：8:00〜23:00
日祝：８:00〜23:00",https://map.tullys.co.jp/tullys/detailMap?account=tullys&accmd=0&bid=896,TRUE,FALSE,FALSE,TRUE,35.7093682,139.7728879
258,新宿ＮＳビルアネックス店 | タリーズコーヒー,東京都,新宿区,西新宿2-4-1新宿ＮＳビル1F,都庁前駅徒歩4分以上,03-5321-6780,"平日：7：30〜22:00
土：8:00〜20:00
日祝：8:00〜20:00",https://map.tullys.co.jp/tullys/detailMap?account=tullys&accmd=0&bid=612,TRUE,TRUE,TRUE,TRUE,35.6879841,139.6935305
259,新宿ＮＳビル店 | タリーズコーヒー,東京都,新宿区,西新宿2-4-1新宿NSビル1F,都庁前駅徒歩4分以上,03-5322-6045,"平日：7:30〜22:00
土：8:00〜20:00
日祝：8:00〜20:00",https://map.tullys.co.jp/tullys/detailMap?account=tullys&accmd=0&bid=104,TRUE,TRUE,TRUE,TRUE,35.6879841,139.6935305
260,新宿イーストサイドスクエアアトリウム店 | タリーズコーヒー,東京都,新宿区,新宿6丁目27番30号新宿イーストサイドスクエア1Ｆ,東新宿駅徒歩2分以上,03-5291-1228,"平日：8:00〜19:00
土：休業日
日祝：休業日",https://map.tullys.co.jp/tullys/detailMap?account=tullys&accmd=0&bid=600,TRUE,FALSE,TRUE,TRUE,35.6966715,139.7086755
261,新宿イーストサイドスクエア店 | タリーズコーヒー,東京都,新宿区,新宿6丁目27番30号新宿イーストサイドスクエアＢ１Ｆ,東新宿駅徒歩2分以上,03-5291-1669,"平日：7:30〜22:00
土：9:00〜20:00
日祝：9:00〜20:00",https://map.tullys.co.jp/tullys/detailMap?account=tullys&accmd=0&bid=596,TRUE,TRUE,TRUE,TRUE,35.6966715,139.7086755
262,新宿エルタワー店 | タリーズコーヒー,東京都,新宿区,西新宿1丁目6番1号新宿エルタワーB2F,新宿西口駅徒歩3分以上,03-6911-2652,"平日：7:30〜21:00
土：9:00〜21:00
日祝：9:00〜21:00",https://map.tullys.co.jp/tullys/detailMap?account=tullys&accmd=0&bid=624,TRUE,TRUE,TRUE,FALSE,35.6921374,139.6972612
263,新宿オークタワー店 | タリーズコーヒー,東京都,新宿区,西新宿6-8-1住友不動産新宿オークタワー内,西新宿駅徒歩3分以上,03-5325-5177,"平日：7:00〜21:00
土：8:00〜19:00
日祝：11:30〜18:00",https://map.tullys.co.jp/tullys/detailMap?account=tullys&accmd=0&bid=138,TRUE,FALSE,TRUE,TRUE,35.6941253,139.6904861
264,新宿コクーンタワー店 | タリーズコーヒー,東京都,新宿区,西新宿１−７−３コクーンタワー1F,新宿西口駅徒歩4分以上,03-5909-8233,"平日：8:00〜21:00
土：8:00〜21:00
日祝：8:00〜21:00",https://map.tullys.co.jp/tullys/detailMap?account=tullys&accmd=0&bid=495,TRUE,TRUE,TRUE,TRUE,35.6915291,139.6968724
265,新宿スクエアタワー店 | タリーズコーヒー,東京都,新宿区,西新宿6-22-1新宿スクエアタワー1F,西新宿駅徒歩6分以上,03-5909-0626,"平日：7:45〜18:00
土：休業日
日祝：休業日",https://map.tullys.co.jp/tullys/detailMap?account=tullys&accmd=0&bid=97,FALSE,FALSE,TRUE,TRUE,35.6941735,139.6877075
266,新宿センタービル店 | タリーズコーヒー,東京都,新宿区,西新宿1-25-1新宿センタービル,都庁前駅徒歩3分以上,03-5339-1244,"平日：7:30〜20:00
土：10:00〜18:00
日祝：休業日",https://map.tullys.co.jp/tullys/detailMap?account=tullys&accmd=0&bid=24,TRUE,FALSE,TRUE,FALSE,35.6917502,139.6955153
267,新宿御苑駅前店 | タリーズコーヒー,東京都,新宿区,新宿1-6-5ソノリティ新宿御苑1F,新宿御苑前駅徒歩6分以上,03-5366-7071,"平日：7:00〜21:00
土：7:30〜21:00
日祝：7:30〜21:00",https://map.tullys.co.jp/tullys/detailMap?account=tullys&accmd=0&bid=236,TRUE,TRUE,TRUE,FALSE,35.6885062,139.7100852
268,新宿若松河田店 | タリーズコーヒー,東京都,新宿区,若松町28-7ダイヤピア212,若松河田駅徒歩3分以内,03-5155-2668,"平日：7:30〜21:00
土：8:00〜20:00
日祝：8:00〜19:00",https://map.tullys.co.jp/tullys/detailMap?account=tullys&accmd=0&bid=72,TRUE,TRUE,TRUE,TRUE,35.699517,139.7184442
269,新宿小滝橋通り店 | タリーズコーヒー,東京都,新宿区,西新宿7-8-13栗原ビル1F,新宿西口駅徒歩2分以上,03-5348-0733,"平日：7:30〜22:00
土：8:00〜22:00
日祝：8:00〜20:00",https://map.tullys.co.jp/tullys/detailMap?account=tullys&accmd=0&bid=39,TRUE,FALSE,TRUE,TRUE,35.695412,139.6982554
270,新宿二丁目店 | タリーズコーヒー,東京都,新宿区,新宿2-5-9,新宿三丁目駅徒歩2分以上,03-5369-2129,"平日：7:30〜22:00
土：8:00〜22:00
日祝：8:00〜22:00",https://map.tullys.co.jp/tullys/detailMap?account=tullys&accmd=0&bid=329,FALSE,TRUE,TRUE,TRUE,35.6896685,139.7069186
271,神楽坂店 | タリーズコーヒー,東京都,新宿区,箪笥町22番地,牛込神楽坂駅徒歩1分以上,03-5206-1225,"平日：7:30〜20:00
土：8:00〜18:00
日祝：8:00〜18:00",https://map.tullys.co.jp/tullys/detailMap?account=tullys&accmd=0&bid=347,TRUE,TRUE,TRUE,TRUE,35.7003152,139.7335073
272,神谷町プライムプレイス店 | タリーズコーヒー,東京都,港区,虎ノ門4丁目1-17,神谷町駅徒歩3分以上,03-5408-8180,"平日：7:00〜19:00
土：休業日祝：休業",https://map.tullys.co.jp/tullys/detailMap?account=tullys&accmd=0&bid=364,TRUE,FALSE,FALSE,FALSE,35.6651253,139.7440747
273,神田橋本郷通り店 | タリーズコーヒー,東京都,千代田区,内神田1-2-8,竹橋駅徒歩6分以上,03-5283-8585,"平日：7:00〜21:00
土：休業日
日祝：休業日",https://map.tullys.co.jp/tullys/detailMap?account=tullys&accmd=0&bid=784,TRUE,FALSE,TRUE,TRUE,35.6907229,139.7648473
274,神保町三井ビルディング店 | タリーズコーヒー,東京都,千代田区,神保町1-105,神保町駅徒歩4分以上,03-3518-6160,"平日：7:30〜21:00
土：8:00〜19:00
日祝：8:00〜19:00",https://map.tullys.co.jp/tullys/detailMap?account=tullys&accmd=0&bid=111,TRUE,TRUE,TRUE,TRUE,35.6942168,139.7602586
275,神保町店 | タリーズコーヒー,東京都,千代田区,神田神保町2-7神保町NKビル,神保町駅徒歩2分以上,03-5215-2025,"平日：7:00〜21:00
土：8:00〜20:00
日祝：9:00〜19:00",https://map.tullys.co.jp/tullys/detailMap?account=tullys&accmd=0&bid=6,FALSE,TRUE,FALSE,FALSE,35.6955408,139.7558842
276,成瀬駅前店 | タリーズコーヒー,東京都,町田市,田市南成瀬1-1-1りそな銀行成瀬支店内,成瀬駅徒歩3分以内,042-739-5531,"平日：7:30〜21:00
土：8:00〜21:00
日祝：8:00〜21:00",https://map.tullys.co.jp/tullys/detailMap?account=tullys&accmd=0&bid=177,TRUE,FALSE,TRUE,TRUE,35.535383,139.473414
277,成増ダイエー店 | タリーズコーヒー,東京都,板橋区,成増2-21-2ダイエー成増１Ｆ,地下鉄成増駅徒歩2分以上,03-5904-5230,"平日：8:00〜21:00
土：8:00〜21:00
日祝：8:00〜21:00",https://map.tullys.co.jp/tullys/detailMap?account=tullys&accmd=0&bid=378,TRUE,TRUE,TRUE,TRUE,35.778166,139.630354
278,西新宿駅前店 | タリーズコーヒー,東京都,新宿区,西新宿8-5-1,西新宿駅徒歩3分以内,03-5338-3310,"平日：7:00〜21:30（L.O.21:00）
土：8:00〜20:00（L.O.19:30）
日祝：8:30〜19:00（L.O.18:30）",https://map.tullys.co.jp/tullys/detailMap?account=tullys&accmd=0&bid=476,TRUE,TRUE,TRUE,FALSE,35.6946842,139.6930227
279,西武しんきん荻窪店 | タリーズコーヒー,東京都,杉並区,荻窪5-28-16西武信用金庫荻窪支店内,荻窪駅徒歩3分以内,03-5335-3214,"平日：7:30〜21:30
土：8:00〜21:00
日祝：8:00〜21:00",https://map.tullys.co.jp/tullys/detailMap?account=tullys&accmd=0&bid=940,FALSE,FALSE,FALSE,FALSE,35.703676,139.620839
280,青山一丁目店 | タリーズコーヒー,東京都,港区,南青山一丁目2番6号,青山一丁目駅徒歩1分以上,03-6438-9503,"平日：7:30〜21:00
土：8:00〜19:00
日祝：8:00〜19:00",https://map.tullys.co.jp/tullys/detailMap?account=tullys&accmd=0&bid=862,FALSE,FALSE,FALSE,FALSE,35.672185,139.7254261
281,石神井公園店 | タリーズコーヒー,東京都,練馬区,石神井町2-14-31ビオラ1F,石神井公園駅徒歩1分以上,03-6913-2890,"平日：7:30〜22:00
土：8:00〜22:00
日祝：8:00〜20:00",https://map.tullys.co.jp/tullys/detailMap?account=tullys&accmd=0&bid=813,TRUE,FALSE,TRUE,TRUE,35.7436886,139.6075034
282,赤坂ガーデンシティ店 | タリーズコーヒー,東京都,港区,赤坂4-15-1赤坂ガーデンシティ１F,赤坂駅徒歩6分以上,03-5114-0133,"平日：8:00〜19:00
土：休業日
日祝：休業日",https://map.tullys.co.jp/tullys/detailMap?account=tullys&accmd=0&bid=383,TRUE,FALSE,FALSE,TRUE,35.6741663,139.7314337
283,赤坂店 | タリーズコーヒー,東京都,港区,赤坂3-13-10,赤坂駅徒歩2分以上,03-5545-3466,"平日：7:00〜22:30
土：8:00〜22:00
日祝：8:00〜22:00",https://map.tullys.co.jp/tullys/detailMap?account=tullys&accmd=0&bid=20,TRUE,TRUE,TRUE,TRUE,35.6730353,139.7373
284,泉岳寺駅前店 | タリーズコーヒー,東京都,港区,三田3-10-1アーバンネット三田1F,泉岳寺駅徒歩3分以上,03-5439-6635,"平日：7:30〜20:00
土：休業日
日祝：休業日",https://map.tullys.co.jp/tullys/detailMap?account=tullys&accmd=0&bid=208,FALSE,TRUE,TRUE,TRUE,35.6405123,139.7405341
285,浅草新仲見世店 | タリーズコーヒー,東京都,台東区,浅草1丁目19-8,浅草駅徒歩1分以上,03-6231-6237,"平日：8:00〜21:00
土：8:00〜21:00
日祝：8:00〜21:00",https://map.tullys.co.jp/tullys/detailMap?account=tullys&accmd=0&bid=849,FALSE,FALSE,TRUE,TRUE,35.7117075,139.7969721
286,早大理工店 | タリーズコーヒー,東京都,新宿区,大久保3-4-1,高田馬場駅徒歩10分以上,03-5292-9505,"平日：8:00〜20:00
土：9：00〜18：00
日祝：休業日",https://map.tullys.co.jp/tullys/detailMap?account=tullys&accmd=0&bid=441,FALSE,FALSE,FALSE,TRUE,35.7060694,139.7068095
287,巣鴨地蔵通り店 | タリーズコーヒー,東京都,豊島区,巣鴨3丁目18-18,巣鴨駅徒歩3分以上,03-5980-8437,"平日：7:00〜22:00
土：7:00〜22:00
日祝：7:00〜22:00",https://map.tullys.co.jp/tullys/detailMap?account=tullys&accmd=0&bid=851,FALSE,TRUE,FALSE,TRUE,35.7352561,139.7354005
288,代々木駅北口店 | タリーズコーヒー,東京都,渋谷区,代々木1-36-1オダカビル1F,代々木駅徒歩1分以上,03-5304-7305,"平日：7:00〜21:00（L.O.20:30)
土：8:00〜20:00（L.O.19:30)
日祝：9:00〜20:00（L.O.19:30)",https://map.tullys.co.jp/tullys/detailMap?account=tullys&accmd=0&bid=246,TRUE,TRUE,TRUE,TRUE,35.6840879,139.7012289
289,大丸東京店 | タリーズコーヒー,東京都,千代田区,丸の内1-9-1大丸東京店４F,東京駅徒歩5分以上,03-5221-8074,"平日：10:00〜20:00（木/金のみ：〜21：00迄）
土：10:00〜20:00
日祝：10:00〜20:00",https://map.tullys.co.jp/tullys/detailMap?account=tullys&accmd=0&bid=597,TRUE,FALSE,FALSE,FALSE,35.6815101,139.768882
290,大崎オーバルコート店 | タリーズコーヒー,東京都,品川区,東五反田2-17-1オーバルコート大崎マークウエスト1F,大崎駅徒歩5分以上,03-5447-5666,"平日：7:00〜19:00
土10:00〜18:00
日祝：休業日",https://map.tullys.co.jp/tullys/detailMap?account=tullys&accmd=0&bid=225,TRUE,FALSE,TRUE,TRUE,35.6233364,139.7291988
291,大崎ガーデンタワー店 | タリーズコーヒー,東京都,品川区,西品川一丁目1番1号住友不動産大崎ガーデンタワー1F,大崎駅徒歩8分以上,03-6417-3621,"平日：7:00〜20:00
土：休業日
日祝：休業日",https://map.tullys.co.jp/tullys/detailMap?account=tullys&accmd=0&bid=939,FALSE,FALSE,FALSE,FALSE,35.6149289,139.7310492
292,大崎センタービル店 | タリーズコーヒー,東京都,品川区,大崎1丁目5番1号,大崎駅徒歩2分以上,03-5436-7033,"平日：7:30〜19:30
土：休業日
日祝：休業日",https://map.tullys.co.jp/tullys/detailMap?account=tullys&accmd=0&bid=427,TRUE,FALSE,FALSE,TRUE,35.6212996,139.7283747
293,大手町パークビルディング店 | タリーズコーヒー,東京都,千代田区,大手町一丁目1番1号大手町パークビルディングB1F,大手町駅徒歩3分以上,03-6206-3095,"平日：7:00〜21:00
土：9:00〜19:00
日祝：10:00〜18:00",https://map.tullys.co.jp/tullys/detailMap?account=tullys&accmd=0&bid=865,FALSE,FALSE,FALSE,FALSE,35.686819,139.7627493
294,大泉学園店 | タリーズコーヒー,東京都,練馬区,東大泉2-34-1オズスタジオシティ1F,大泉学園駅徒歩11分以上,03-5933-2390,"平日：9:30〜21:00
土：9:00〜22:00
日祝：9:00〜22:00",https://map.tullys.co.jp/tullys/detailMap?account=tullys&accmd=0&bid=164,TRUE,FALSE,TRUE,TRUE,35.7529981,139.5947772
295,大塚店 | タリーズコーヒー,東京都,豊島区,南大塚3-53-11今井三菱ビル1F,大塚駅徒歩2分以上,03-5911-4787,"平日：7:30〜21:00
土：8:00〜21:00
日祝：8:00〜20:00",https://map.tullys.co.jp/tullys/detailMap?account=tullys&accmd=0&bid=113,TRUE,TRUE,TRUE,TRUE,35.7305198,139.7288396
296,淡路町店 | タリーズコーヒー,東京都,千代田区,神田淡路町1-1-1,小川町駅徒歩3分以内,03-5298-7010,"平日：7:00〜22:00
土：9:00〜20:00
日祝：9:00〜20:00",https://map.tullys.co.jp/tullys/detailMap?account=tullys&accmd=0&bid=172,FALSE,FALSE,TRUE,TRUE,35.6955363,139.7670109
297,池尻大橋店 | タリーズコーヒー,東京都,世田谷区,池尻3-2-3ハピネス5ビル,池尻大橋駅徒歩3分以内,03-5787-3360,"平日：7:00〜22:00
土：8:00〜22:00
日祝：8:00〜21:00",https://map.tullys.co.jp/tullys/detailMap?account=tullys&accmd=0&bid=156,TRUE,FALSE,FALSE,FALSE,35.6506121,139.683899
298,池袋サンシャインシティアルパ店 | タリーズコーヒー,東京都,豊島区,東池袋3-1-2サンシャインアルパ内1階,東池袋駅徒歩3分以上,03-5957-3550,"平日：7:30〜22:00
土：7:30〜22:00
日祝：7:30〜22:00",https://map.tullys.co.jp/tullys/detailMap?account=tullys&accmd=0&bid=480,TRUE,TRUE,FALSE,FALSE,35.729099,139.718705
299,築地一丁目店 | タリーズコーヒー,東京都,中央区,築地1-9-2伊勢常ビル1F,新富町駅徒歩2分以上,03-5148-2991,"平日：7:30〜21:00（L.O.20:30）
土：8:00〜19:00（L.O.18:30）
日祝：8:00〜19:00（L.O.18:30）",https://map.tullys.co.jp/tullys/detailMap?account=tullys&accmd=0&bid=32,TRUE,FALSE,TRUE,TRUE,35.669417,139.771773
300,築地聖ルカ通り店 | タリーズコーヒー,東京都,中央区,築地3丁目6番,築地駅徒歩4分以上,03-6278-8007,"平日：7:00〜21:00（L.O.20:30）
土：8:00〜19:00（L.O.18:30）
日祝：9:00〜18:00（L.O.17:30）",https://map.tullys.co.jp/tullys/detailMap?account=tullys&accmd=0&bid=816,TRUE,FALSE,FALSE,TRUE,35.6673593,139.7739725
301,竹橋店 | タリーズコーヒー,東京都,千代田区,神田錦町3-19ヒロセ第2ビル,竹橋駅徒歩2分以上,03-3518-0080,"平日：7:00〜20:00
土：9:00〜18:00
日祝：10:00〜17:00",https://map.tullys.co.jp/tullys/detailMap?account=tullys&accmd=0&bid=10,TRUE,TRUE,TRUE,TRUE,35.6914688,139.7603962
302,朝日新聞東京本社ビル店 | タリーズコーヒー,東京都,中央区,築地5-3-2朝日新聞東京本社ビル2Fコンコース内,築地市場駅徒歩3分以内,03-3524-1155,"平日：8:00〜20:00
土：9:00〜18:00
日祝：休業日",https://map.tullys.co.jp/tullys/detailMap?account=tullys&accmd=0&bid=157,TRUE,FALSE,FALSE,FALSE,35.6642233,139.7666175
303,鉄鋼ビル店 | タリーズコーヒー,東京都,千代田区,丸の内1丁目8番2号鉄鋼ビルB1F-1F,東京駅徒歩6分以上,03-6268-0580,"平日：8:00〜21:00
土：8:00〜21:00
日祝：8:00〜21:00",https://map.tullys.co.jp/tullys/detailMap?account=tullys&accmd=0&bid=799,TRUE,FALSE,FALSE,TRUE,35.6821538,139.7697831
304,田町グランパーク店 | タリーズコーヒー,東京都,港区,芝浦3-4-1グランパークタワー1F,田町駅徒歩4分以上,03-5765-1789,"平日：8:00〜19:30
土：休業日
日祝：休業日",https://map.tullys.co.jp/tullys/detailMap?account=tullys&accmd=0&bid=12,TRUE,FALSE,FALSE,TRUE,35.6436454,139.745484
305,田町駅前店 | タリーズコーヒー,東京都,港区,芝五丁目32番12号,三田駅徒歩3分以内,03-5765-5568,"平日：7:00〜21:00
土：8:00〜20:00
日祝：9:00〜20:00",https://map.tullys.co.jp/tullys/detailMap?account=tullys&accmd=0&bid=595,TRUE,TRUE,TRUE,TRUE,35.647172,139.7472749
306,田町森永プラザビル店 | タリーズコーヒー,東京都,港区,芝五丁目33番1号森永プラザビル別館2F,田町駅徒歩3分以内,03-6809-4059,"平日：7:00〜22:00
土：8:00〜22:00
日祝：8:00〜22:00",https://map.tullys.co.jp/tullys/detailMap?account=tullys&accmd=0&bid=783,TRUE,FALSE,FALSE,TRUE,35.646212,139.7476797
307,都庁店 | タリーズコーヒー,東京都,新宿区,西新宿2-8-1東京都庁第二本庁舎2F,都庁前駅徒歩4分以上,03-6279-0251,"平日：8:00〜18:00
土：休業日
日祝：休業日",https://map.tullys.co.jp/tullys/detailMap?account=tullys&accmd=0&bid=830,TRUE,FALSE,FALSE,TRUE,35.6880099,139.6920703
308,東急プラザ蒲田店 | タリーズコーヒー,東京都,大田区,西蒲田7-69-1東急プラザ蒲田3F,蒲田駅徒歩3分以内,03-5480-5567,"平日：7:00〜22:00
土：7:00〜22:00
日祝：7:00〜22:00",https://map.tullys.co.jp/tullys/detailMap?account=tullys&accmd=0&bid=736,TRUE,FALSE,TRUE,FALSE,35.5615912,139.7151931
309,東急プラザ赤坂店 | タリーズコーヒー,東京都,千代田区,永田町2-14-3,赤坂見附駅徒歩3分以内,03-3539-3365,"平日：7:00〜22:00
土：8:00〜20:00
日祝：8:00〜19:00",https://map.tullys.co.jp/tullys/detailMap?account=tullys&accmd=0&bid=423,TRUE,TRUE,FALSE,TRUE,35.6773487,139.7374637
310,東京スカイツリータウン・ソラマチ店 | タリーズコーヒー,東京都,墨田区,押上1-1-2東京スカイツリータウン・ソラマチ３Ｆ,押上駅徒歩2分以上,03-5610-2603,"平日：10:00〜21：00
土：10:00〜21:00
日祝：10:00〜21:00",https://map.tullys.co.jp/tullys/detailMap?account=tullys&accmd=0&bid=560,TRUE,FALSE,TRUE,FALSE,35.710343,139.811603
311,東京ダイヤビルディング店 | タリーズコーヒー,東京都,中央区,新川1-28-38東京ダイヤビルディング1号館1F,八丁堀駅徒歩8分以上,03-3537-7766,"平日：7:30〜21:00
土：休業日
日祝：休業日",https://map.tullys.co.jp/tullys/detailMap?account=tullys&accmd=0&bid=194,TRUE,FALSE,FALSE,TRUE,35.6752905,139.7839798
312,東京ドームシティ ラクーア店 | タリーズコーヒー,東京都,文京区,春日1丁目1-1ラクーア3F,春日駅徒歩2分以上,03-5615-8026,"平日：8:00〜21:00
土：8:00〜21:00
日祝：8:00〜21:00",https://map.tullys.co.jp/tullys/detailMap?account=tullys&accmd=0&bid=936,FALSE,FALSE,FALSE,FALSE,35.7071295,139.7535347
313,東京ドームシティ店 | タリーズコーヒー,東京都,文京区,後楽1丁目3番61号東京ドームシティクリスタルアベニュー,水道橋駅徒歩3分以上,03-5840-8865,"平日：9:00〜21:00
土：9:00〜21:00
日祝：9:00〜21:00",https://map.tullys.co.jp/tullys/detailMap?account=tullys&accmd=0&bid=828,TRUE,TRUE,FALSE,TRUE,35.7043695,139.7535094
314,東京ビッグサイト店 | タリーズコーヒー,東京都,江東区,有明3-11-1,国際展示場正門駅徒歩2分以上,03-3527-5086,"平日：8：00〜19：00
土：8：00〜19：00
日祝：8：00〜19：00",https://map.tullys.co.jp/tullys/detailMap?account=tullys&accmd=0&bid=523,TRUE,TRUE,TRUE,TRUE,35.6300469,139.7937527
315,東京駅八重洲地下街店 | タリーズコーヒー,東京都,中央区,八重洲2丁目1番,京橋駅徒歩5分以上,03-6202-1250,"平日：7：00〜22：00
土：7：00〜22：00
日祝：7：00〜22：00",https://map.tullys.co.jp/tullys/detailMap?account=tullys&accmd=0&bid=543,TRUE,TRUE,TRUE,FALSE,35.6798688,139.7696085
316,東京女子医科大学病院店 | タリーズコーヒー,東京都,新宿区,河田町8-1総合外来センター南エントランス,若松河田駅徒歩2分以上,03-5919-4770,"平日：7:30〜20:00
土：7:30〜20:00
日祝：8:30〜19:00",https://map.tullys.co.jp/tullys/detailMap?account=tullys&accmd=0&bid=434,FALSE,FALSE,FALSE,TRUE,35.6984306,139.7200589
317,東京日本橋タワー7階店 | タリーズコーヒー,東京都,中央区,日本橋二丁目7番1号東京日本橋タワー7階,茅場町駅徒歩8分以上,03-6262-0882,"平日：7:00〜20:00
土：休業日
日祝：休業日",https://map.tullys.co.jp/tullys/detailMap?account=tullys&accmd=0&bid=878,FALSE,FALSE,FALSE,FALSE,35.6818613,139.7742337
318,東銀座店 | タリーズコーヒー,東京都,中央区,築地1-13-14NBF銀座スクエア1F,築地駅徒歩2分以上,03-5550-8017,"平日：7:00〜20:30（L.O.20：00)
土：7:30〜19:30（L.O.19：00)
日祝：8:30〜19:00（L.O.18：30)",https://map.tullys.co.jp/tullys/detailMap?account=tullys&accmd=0&bid=265,TRUE,TRUE,TRUE,TRUE,35.6678174,139.7696894
319,東武曳舟駅店 | タリーズコーヒー,東京都,墨田区,東向島二丁目27番1号,曳舟駅徒歩3分以内,03-6657-1073,"平日：7:30〜22:00(L.O.21:30)
土：8:30〜22:00(L.O.21:30)
日祝：8:30〜22:00(L.O.21:30)",https://map.tullys.co.jp/tullys/detailMap?account=tullys&accmd=0&bid=871,TRUE,FALSE,FALSE,FALSE,35.7177517,139.816848
320,東武浅草駅店 | タリーズコーヒー,東京都,台東区,花川戸1-4-1東武鉄道浅草駅構内2Fコンコース内,浅草駅徒歩3分以内,03-5806-0668,"平日：7:00〜21:00
土：7:00〜21:00
日祝：7:00〜21:00",https://map.tullys.co.jp/tullys/detailMap?account=tullys&accmd=0&bid=570,TRUE,FALSE,FALSE,FALSE,35.7114819,139.7980247
321,東邦大森病院店 | タリーズコーヒー,東京都,大田区,大森西6-11-1東邦大学医療センター大森病院1階,梅屋敷駅徒歩6分以上,03-5767-6577,"平日：8:00〜19:00
土：9:00〜17:00
日祝：9:00〜17:00",https://map.tullys.co.jp/tullys/detailMap?account=tullys&accmd=0&bid=396,TRUE,TRUE,FALSE,TRUE,35.5694447,139.7244098
322,東陽町イースト２１店 | タリーズコーヒー,東京都,江東区,東陽町6-3-2イースト21モール1F,東陽町駅徒歩8分以上,03-5653-7580,"平日：8:00〜21:00
土：9:00〜21:00
日祝：9:00〜21:00",https://map.tullys.co.jp/tullys/detailMap?account=tullys&accmd=0&bid=77,TRUE,TRUE,FALSE,TRUE,35.6746231,139.8157455
323,南砂二丁目永代通り店 | タリーズコーヒー,東京都,江東区,南砂2-1-9ジェイスクエア東陽町１F,東陽町駅徒歩4分以上,03-5633-6187,"平日：7:00〜21:00
土：8:00〜20:00
日祝：8:00〜20:00",https://map.tullys.co.jp/tullys/detailMap?account=tullys&accmd=0&bid=376,TRUE,FALSE,TRUE,TRUE,35.6694597,139.8207816
324,日テレプラザ店 | タリーズコーヒー,東京都,港区,東新橋1-6-1日本テレビタワーB2F,汐留駅徒歩2分以上,03-5537-6053,"平日：7:30〜22:00
土：7:30〜22:00
日祝：7:30〜22:00",https://map.tullys.co.jp/tullys/detailMap?account=tullys&accmd=0&bid=120,TRUE,FALSE,TRUE,TRUE,35.6647125,139.7602521
325,日比谷セントラルビル店 | タリーズコーヒー,東京都,港区,西新橋1-2-9日比谷セントラルビル内,内幸町駅徒歩3分以内,03-5251-4811,"平日：8:00〜19:30
土：休業日
日祝：休業日",https://map.tullys.co.jp/tullys/detailMap?account=tullys&accmd=0&bid=333,FALSE,FALSE,FALSE,TRUE,35.6696135,139.7546427
326,日暮里店 | タリーズコーヒー,東京都,荒川区,西日暮里2-25-1-110,日暮里駅徒歩3分以内,03-5604-3052,"平日：8:00〜22:00
土：8:00〜22:00
日祝：8:00〜22:00",https://map.tullys.co.jp/tullys/detailMap?account=tullys&accmd=0&bid=369,TRUE,TRUE,FALSE,TRUE,35.7295938,139.771487
327,日本橋YUITOアネックス店 | タリーズコーヒー,東京都,中央区,日本橋室町2丁目4番1号浮世小路千疋屋ビルB1F,三越前駅徒歩3分以内,03-6214-3550,"平日：7:00〜22:00
土：8:00〜20:00
日祝：9:00〜20:00",https://map.tullys.co.jp/tullys/detailMap?account=tullys&accmd=0&bid=649,FALSE,TRUE,TRUE,TRUE,35.6870445,139.7739622
328,日本橋茅場町店 | タリーズコーヒー,東京都,中央区,日本橋茅場町1-6-17,茅場町駅徒歩2分以上,03-3663-1180,"平日：7:00〜20:00
土：休業日
日祝：休業日",https://map.tullys.co.jp/tullys/detailMap?account=tullys&accmd=0&bid=686,TRUE,FALSE,FALSE,FALSE,35.6813717,139.7789218
329,日本橋三丁目店 | タリーズコーヒー,東京都,中央区,日本橋3-5-12日本橋MMビル,京橋駅徒歩5分以上,03-5204-0303,"平日：7:00〜20:00
土：休業日
日祝：休業日",https://map.tullys.co.jp/tullys/detailMap?account=tullys&accmd=0&bid=19,TRUE,FALSE,TRUE,TRUE,35.6790991,139.7729356
330,日本経済新聞社太陽樹店 | タリーズコーヒー,東京都,千代田区,大手町1−3−7日本経済新聞社東京本社ビル2Ｆ,竹橋駅徒歩3分以上,03-5220-3832,"平日：8:00〜20:00
土：休業日
日祝：休業日",https://map.tullys.co.jp/tullys/detailMap?account=tullys&accmd=0&bid=422,FALSE,FALSE,FALSE,TRUE,35.688701,139.7622578
331,日本赤十字社医療センター店 | タリーズコーヒー,東京都,渋谷区,広尾4-1-22,広尾駅徒歩8分以上,03-5778-7023,"平日：8:00〜20:00
土：9:00〜19:00
日祝：9:00〜19:00",https://map.tullys.co.jp/tullys/detailMap?account=tullys&accmd=0&bid=444,TRUE,FALSE,FALSE,TRUE,35.6544397,139.717944
332,八王子アイロード店 | タリーズコーヒー,東京都,八王子市,旭町13-21F,京王八王子駅徒歩2分以上,042-631-8335,"平日：7:30〜21:00
土：8:00〜21:00
日祝：8:00〜21:00",https://map.tullys.co.jp/tullys/detailMap?account=tullys&accmd=0&bid=239,TRUE,FALSE,TRUE,TRUE,35.6570607,139.341237
333,飯田橋ガーデンエアタワー店 | タリーズコーヒー,東京都,千代田区,飯田橋3-10-10飯田橋ガーデンエアタワー1F,九段下駅徒歩6分以上,03-3512-9722,"平日：7:00〜20:00
土：休業日
日祝：休業日",https://map.tullys.co.jp/tullys/detailMap?account=tullys&accmd=0&bid=112,TRUE,FALSE,TRUE,TRUE,35.700455,139.750528
334,飯田橋東口店 | タリーズコーヒー,東京都,新宿区,揚場町1番14号,飯田橋駅徒歩3分以内,03-5206-5445,"平日：7:00〜22:00
土：8:00〜21:00
日祝：9:00〜19:00",https://map.tullys.co.jp/tullys/detailMap?account=tullys&accmd=0&bid=750,TRUE,FALSE,TRUE,TRUE,35.7025153,139.7439344
335,表参道ヒルズ店 | タリーズコーヒー,東京都,渋谷区,神宮前4-12-10表参道ヒルズ西館Ｂ１Ｆ,明治神宮前駅徒歩6分以上,03-6804-6310,"平日：8:00〜22:00
土：8:00〜22:00
日祝：8:00〜22:00",https://map.tullys.co.jp/tullys/detailMap?account=tullys&accmd=0&bid=701,TRUE,TRUE,TRUE,TRUE,35.6677427,139.7076069
336,品川インターシティ店 | タリーズコーヒー,東京都,港区,港南2丁目15番2号品川インターシティＡ棟2F201,品川駅徒歩7分以上,03-6433-2580,"平日：7:00〜21:00
土：8:00〜19:00
日祝：9:00〜19:00",https://map.tullys.co.jp/tullys/detailMap?account=tullys&accmd=0&bid=782,TRUE,TRUE,FALSE,TRUE,35.627518,139.7420043
337,浜松町駅北口店 | タリーズコーヒー,東京都,港区,浜松町1-30浜松町スクエア1F,大門駅徒歩1分以上,03-5733-3237,"平日：7：30〜22：00
土：9:00〜20:00
日祝：9:00〜20:00",https://map.tullys.co.jp/tullys/detailMap?account=tullys&accmd=0&bid=229,TRUE,FALSE,FALSE,TRUE,35.6568814,139.7566628
338,浜離宮パークサイドプレイス店 | タリーズコーヒー,東京都,中央区,築地5-6-10浜離宮パークサイドプレイス1F,築地市場駅徒歩4分以上,03-5148-3255,"平日：7:30〜18:00
土：休業日
日祝：休業日",https://map.tullys.co.jp/tullys/detailMap?account=tullys&accmd=0&bid=193,TRUE,FALSE,FALSE,TRUE,35.6623322,139.7656073
339,府中駅南口店 | タリーズコーヒー,東京都,府中市,宮町一丁目100番地ル・シーニュ1F,府中競馬正門前駅徒歩8分以上,042-306-7880,"平日：8:00〜22:00
土：8:00〜22:00
日祝：8:00〜2200",https://map.tullys.co.jp/tullys/detailMap?account=tullys&accmd=0&bid=884,FALSE,FALSE,TRUE,FALSE,35.671979,139.479497
340,武蔵小山駅店 | タリーズコーヒー,東京都,品川区,小山3丁目4-8駅ビル1F,武蔵小山駅徒歩3分以内,03-3787-8122,"平日：7:30〜22:00
土：7:30〜22:00
日祝：7:30〜22:00",https://map.tullys.co.jp/tullys/detailMap?account=tullys&accmd=0&bid=466,TRUE,TRUE,FALSE,TRUE,35.6203438,139.704121
341,武蔵野赤十字病院店 | タリーズコーヒー,東京都,武蔵野市,境南町1-26-1,武蔵境駅徒歩9分以上,0422-30-3019,"平日：7:30〜20:00
土：8:30〜20:00
日祝：8:30〜20:00",https://map.tullys.co.jp/tullys/detailMap?account=tullys&accmd=0&bid=293,FALSE,TRUE,FALSE,TRUE,35.6968861,139.5485709
342,平河町森タワー店 | タリーズコーヒー,東京都,千代田区,平河町2-16-1,永田町駅徒歩5分以上,03-3288-3168,"平日：7:30〜20:00（L.O.19：30)土：休業日
日祝：休業日",https://map.tullys.co.jp/tullys/detailMap?account=tullys&accmd=0&bid=475,FALSE,FALSE,FALSE,TRUE,35.6797791,139.7417827
343,平和島東京流通センター店 | タリーズコーヒー,東京都,大田区,平和島6-1-1東京流通センターセンタービル1F,流通センター駅徒歩1分以上,03-5753-6363,"平日：7:30〜19:00
土：8:00〜19:00
日祝：8:00〜19:00",https://map.tullys.co.jp/tullys/detailMap?account=tullys&accmd=0&bid=130,TRUE,FALSE,TRUE,TRUE,35.5811329,139.7481987
344,豊洲フロント店 | タリーズコーヒー,東京都,江東区,豊洲3丁目2番20号1F,豊洲駅徒歩2分以上,03-6219-5658,"平日：7:30〜20:00
土：9:00〜18:00
日祝：9:00〜18:00",https://map.tullys.co.jp/tullys/detailMap?account=tullys&accmd=0&bid=460,TRUE,FALSE,TRUE,FALSE,35.6568301,139.795535
345,麻布十番駅前店 | タリーズコーヒー,東京都,港区,麻布十番1-11-8,麻布十番駅徒歩1分以上,03-5545-1567,"平日：7:30〜21:30
土：7:30〜21:30
日祝：7:30〜21:00",https://map.tullys.co.jp/tullys/detailMap?account=tullys&accmd=0&bid=309,TRUE,FALSE,FALSE,TRUE,35.655679,139.7367895
346,目黒東口店 | タリーズコーヒー,東京都,品川区,上大崎2-13-30oakmeguro1F,目黒駅徒歩5分以上,03-6450-2501,"平日：7:30〜21:00
土：8:00〜20:00
日祝：8:00〜20:00",https://map.tullys.co.jp/tullys/detailMap?account=tullys&accmd=0&bid=879,FALSE,TRUE,TRUE,FALSE,35.6343394,139.7181196
347,立教大学店 | タリーズコーヒー,東京都,豊島区,西池袋3-34-1立教大学池袋キャンパス内12号館1F,要町駅徒歩6分以上,03-5956-1894,"平日：8:30〜20:00
土：8:30〜18:00
日祝：休業日",https://map.tullys.co.jp/tullys/detailMap?account=tullys&accmd=0&bid=594,FALSE,FALSE,FALSE,TRUE,35.7303887,139.7022765
348,六本木ヒルズ店 | タリーズコーヒー,東京都,港区,六本木6-2-31六本木ヒルズノースタワー1F,六本木駅徒歩2分以上,03-5772-2334,"平日：7:00〜23:00（LO：22:30）
土：8:00〜23:00（LO：22:30）
日祝：8:00〜22:00",https://map.tullys.co.jp/tullys/detailMap?account=tullys&accmd=0&bid=4,FALSE,FALSE,FALSE,FALSE,35.6618385,139.7301167
349,六本木一丁目店 | タリーズコーヒー,東京都,港区,六本木1-6-1泉ガーデンタワー1F,六本木一丁目駅徒歩1分以上,03-3589-3102,"平日：7:00〜22:00
土：8:00〜20:00
日祝：8:00〜20:00",https://map.tullys.co.jp/tullys/detailMap?account=tullys&accmd=0&bid=69,TRUE,TRUE,TRUE,TRUE,35.6645512,139.7394972
350,六本木三丁目 ナナナリア店 | タリーズコーヒー,東京都,港区,六本木三丁目2番1号住友不動産六本木グランドタワー1F,六本木一丁目駅徒歩1分以上,03-6277-7880,"平日：7:00〜22:00
土：8:00〜20:00
日祝：8:00〜20:00",https://map.tullys.co.jp/tullys/detailMap?account=tullys&accmd=0&bid=857,TRUE,FALSE,TRUE,TRUE,35.6646695,139.7378019
351,六本木店 | タリーズコーヒー,東京都,港区,六本木5-1-3ゴトウビルディング１ｓｔ１F,六本木駅徒歩1分以上,03-5785-1510,"月〜木：7:00〜22:30
金：7:00〜23:00（L.O.22:30）
土：8:00〜23:00（L.O.22:30）
日祝：8:00〜22:00",https://map.tullys.co.jp/tullys/detailMap?account=tullys&accmd=0&bid=575,TRUE,FALSE,TRUE,TRUE,35.6626803,139.7327508
352,&TEA横浜元町店 | タリーズコーヒー,神奈川県,横浜市,中区元町5-201,石川町駅徒歩4分以上,045-319-6120,"平日：8:00〜20:00
土：8:00〜20:00
日祝：8:00〜20:00",https://map.tullys.co.jp/tullys/detailMap?account=tullys&accmd=0&bid=901,FALSE,FALSE,FALSE,FALSE,35.4391667,139.6461336
353,ｂｏｎｏ相模大野店 | タリーズコーヒー,神奈川県,相模原市,南区相模大野3-3SouthMall2F,相模大野駅徒歩2分以上,042-701-4452,"平日：8:00〜22:00
土：9:00〜22:00
日祝：9:00〜22:00",https://map.tullys.co.jp/tullys/detailMap?account=tullys&accmd=0&bid=640,TRUE,TRUE,TRUE,TRUE,35.530656,139.435628
354,あざみ野店 | タリーズコーヒー,神奈川県,横浜市,青葉区あざみ野1-25,あざみ野駅徒歩9分以上,045-905-5759,"平日：8:00〜21:00
土：8:00〜21:00
日祝：8:00〜21:00",https://map.tullys.co.jp/tullys/detailMap?account=tullys&accmd=0&bid=163,TRUE,FALSE,TRUE,TRUE,35.5692054,139.5470675
355,アトレ川崎店 | タリーズコーヒー,神奈川県,川崎市,川崎区駅前本町26-1アトレ川崎１Ｆ,川崎駅徒歩1分以上,044-200-0657,"平日：7:00〜22:30
土：7:00〜22:30
日祝：7:00〜22:30",https://map.tullys.co.jp/tullys/detailMap?account=tullys&accmd=0&bid=401,TRUE,FALSE,FALSE,FALSE,35.5307969,139.6975629
356,アリオ橋本店 | タリーズコーヒー,神奈川県,相模原市,緑区大山町1-22,橋本駅徒歩8分以上,042-774-5883,"平日：10:00〜21:00
土：10:00〜21:00
日祝：10:00〜21:00",https://map.tullys.co.jp/tullys/detailMap?account=tullys&accmd=0&bid=464,TRUE,FALSE,TRUE,FALSE,35.5910509,139.3497503
357,イトーヨーカドー瀬谷駅前店 | タリーズコーヒー,神奈川県,横浜市,瀬谷区中央6-15イトーヨーカドー食品館瀬谷店2Ｆ,瀬谷駅徒歩3分以内,045-300-5230,"平日：10:00〜21:00
土：10:00〜21:00
日祝：10:00〜21:00",https://map.tullys.co.jp/tullys/detailMap?account=tullys&accmd=0&bid=932,FALSE,FALSE,FALSE,FALSE,35.47077,139.4823706
358,ウィズイト−ヤ京急横浜駅店 | タリーズコーヒー,神奈川県,横浜市,西区高島2丁目16番1号京急横浜駅下りホーム,横浜駅徒歩3分以上,045-444-1881,"平日：7：00〜22:00
土：7:00〜22:00
日祝：7:00〜22:00",https://map.tullys.co.jp/tullys/detailMap?account=tullys&accmd=0&bid=587,FALSE,TRUE,FALSE,FALSE,35.4659995,139.6232705
359,ウィズマーロウ ラスカ茅ヶ崎店 | タリーズコーヒー,神奈川県,茅ケ崎市,元町1-1ラスカ茅ケ崎5F,茅ヶ崎駅徒歩1分以上,0467-40-5803,"平日：10:00〜21:00
土：10:00〜21:00
日祝：10:00〜21:00",https://map.tullys.co.jp/tullys/detailMap?account=tullys&accmd=0&bid=795,TRUE,FALSE,FALSE,FALSE,35.3303329,139.4061816
360,ウィング川崎店 | タリーズコーヒー,神奈川県,川崎市,川崎区砂子1-3-1ウィング川崎4F,京急川崎駅徒歩1分以上,044-221-6234,"平日：10:00〜21:00
土：10:00〜21:00
日祝：10:00〜21:00",https://map.tullys.co.jp/tullys/detailMap?account=tullys&accmd=0&bid=829,TRUE,FALSE,FALSE,FALSE,35.5323159,139.7008189
361,キッズコミュ グランツリー武蔵小杉店 | タリーズコーヒー,神奈川県,川崎市,中原区新丸子東3丁目1135番地1号グランツリー武蔵小杉4F,武蔵小杉駅徒歩2分以上,044-948-5707,"平日：10:00〜21:00（LO20:45）
土：10:00〜21:00（LO20:45）
日祝：10:00〜21:00（LO20:45）",https://map.tullys.co.jp/tullys/detailMap?account=tullys&accmd=0&bid=733,TRUE,FALSE,FALSE,FALSE,35.5737042,139.6597304
362,コトニアガーデン新川崎店 | タリーズコーヒー,神奈川県,川崎市,幸区北加瀬2丁目-11-1,新川崎駅徒歩10分以上,044-280-8007,"平日：8:00〜21:00
土：8:00〜21:00
日祝：8:00〜21:00",https://map.tullys.co.jp/tullys/detailMap?account=tullys&accmd=0&bid=933,FALSE,FALSE,FALSE,FALSE,35.5514809,139.6626291
363,さいか屋藤沢店 | タリーズコーヒー,神奈川県,藤沢市,藤沢555さいか屋藤沢2F,藤沢駅徒歩4分以上,0466-52-6820,"平日：7:30〜21:00
土：8:00〜21:00
日祝：9:00〜20:00",https://map.tullys.co.jp/tullys/detailMap?account=tullys&accmd=0&bid=893,FALSE,FALSE,FALSE,FALSE,35.339755,139.4873188
364,ショッパーズプラザ横須賀店 | タリーズコーヒー,神奈川県,横須賀市,本町2-1-12ダイエーショッパーズプラザ横須賀店2F,汐入駅徒歩3分以上,046-821-3696,"平日：8:00〜21:00
土：8:00〜21:00
日祝：8:00〜21:00",https://map.tullys.co.jp/tullys/detailMap?account=tullys&accmd=0&bid=146,TRUE,TRUE,TRUE,FALSE,35.2823382,139.6627454
365,センター南店 | タリーズコーヒー,神奈川県,横浜市,都筑区茅ヶ崎中央6-30ヴェルヴ1F･2F,センター南駅徒歩2分以上,045-943-5441,"平日：7:30〜22:00
土：8:00〜22:00
日祝：8:00〜22:00",https://map.tullys.co.jp/tullys/detailMap?account=tullys&accmd=0&bid=219,TRUE,TRUE,TRUE,TRUE,35.5434525,139.5737853
366,センター北YOTSUBAKO店 | タリーズコーヒー,神奈川県,横浜市,都筑区中川中央1-1-5,センター北駅徒歩3分以内,045-914-7365,"平日：8：00〜21:00
土：8：00〜21:00
日祝：8：00〜21:00",https://map.tullys.co.jp/tullys/detailMap?account=tullys&accmd=0&bid=555,TRUE,TRUE,TRUE,FALSE,35.5536856,139.5790875
367,たまプラーザテラスリンクプラザ店 | タリーズコーヒー,神奈川県,横浜市,青葉区新石川町2-1-15,たまプラーザ駅徒歩1分以上,045-910-1017,"平日：7:30〜22:30
土：8：00〜22：00
日祝：8：00〜21：00",https://map.tullys.co.jp/tullys/detailMap?account=tullys&accmd=0&bid=625,TRUE,TRUE,TRUE,FALSE,35.5766295,139.5575802
368,トレアージュ白旗店 | タリーズコーヒー,神奈川県,藤沢市,藤沢2-3-13,藤沢本町駅徒歩4分以上,0466-55-2522,"平日：8:00〜22:00
土：8:00〜22:00
日祝：8:00〜22:00",https://map.tullys.co.jp/tullys/detailMap?account=tullys&accmd=0&bid=115,TRUE,FALSE,TRUE,FALSE,35.3494105,139.479198
369,トレッサ横浜店 | タリーズコーヒー,神奈川県,横浜市,港北区師岡町700番地-1トレッサ横浜南棟,大倉山駅徒歩20分以上,045-533-5310,"平日：10:00〜21:00
土：10:00〜21:00
日祝：10:00〜21:00",https://map.tullys.co.jp/tullys/detailMap?account=tullys&accmd=0&bid=362,FALSE,TRUE,FALSE,FALSE,35.5241344,139.6457812
370,ビアレ横浜店 | タリーズコーヒー,神奈川県,横浜市,金沢区並木2-13-2ビアレ横浜新館1F,並木中央駅徒歩6分以上,045-784-7394,"平日：9:00〜20:00
土：9:00〜20:00
日祝：9:00〜20:00",https://map.tullys.co.jp/tullys/detailMap?account=tullys&accmd=0&bid=261,TRUE,FALSE,TRUE,TRUE,35.3621501,139.6395125
371,マークイズみなとみらい店 | タリーズコーヒー,神奈川県,横浜市,西区みなとみらい3丁目5番1号マークイズみなとみらい4F405区,みなとみらい駅徒歩1分以上,045-228-2050,"平日：10:00〜22:00
土：10:00〜22:00
日祝：10:00〜22:00",https://map.tullys.co.jp/tullys/detailMap?account=tullys&accmd=0&bid=639,TRUE,TRUE,FALSE,FALSE,35.4576978,139.631756
372,みなとみらい東急スクエア㈰店 | タリーズコーヒー,神奈川県,横浜市,西区みなとみらい2-3-2みなとみらい東急スクエア㈰3F,みなとみらい駅徒歩2分以上,045-225-8670,"平日：11:00〜20:00
土：11:00〜20:00
日祝：11:00〜20:00",https://map.tullys.co.jp/tullys/detailMap?account=tullys&accmd=0&bid=920,FALSE,FALSE,FALSE,FALSE,35.4560791,139.6338668
373,ヨドバシ横浜店 | タリーズコーヒー,神奈川県,横浜市,西区北幸1-2-7ヨドバシ横浜B2F,横浜駅徒歩2分以上,045-594-6056,"平日：9:30〜23:00
土：9:30〜23:00
日祝：9:30〜23:00",https://map.tullys.co.jp/tullys/detailMap?account=tullys&accmd=0&bid=814,TRUE,FALSE,FALSE,FALSE,35.467446,139.620612
374,ラゾーナ川崎店 | タリーズコーヒー,神奈川県,川崎市,幸区堀川町72番地1LAZONA川崎plaza1F,川崎駅徒歩2分以上,044-874-8510,"平日：7:30〜22:00
土：7：30〜22：00
日祝：7：30〜22：00",https://map.tullys.co.jp/tullys/detailMap?account=tullys&accmd=0&bid=617,TRUE,FALSE,TRUE,FALSE,35.5330472,139.6959016
375,ららぽーと横浜店 | タリーズコーヒー,神奈川県,横浜市,都筑区池辺町4035-1,鴨居駅徒歩11分以上,045-929-1080,"平日：10:00〜21:00
土：10：00-21：00
日祝：10:00〜21:00",https://map.tullys.co.jp/tullys/detailMap?account=tullys&accmd=0&bid=655,TRUE,FALSE,TRUE,FALSE,35.5179093,139.5663144
376,ららぽーと湘南平塚店 | タリーズコーヒー,神奈川県,平塚市,天沼10-13F34070,平塚駅徒歩16分以上,0463-20-5505,"平日：10:00〜21:00
土：10:00〜21:00
日祝：10:00〜21:00",https://map.tullys.co.jp/tullys/detailMap?account=tullys&accmd=0&bid=852,FALSE,FALSE,FALSE,FALSE,35.3365348,139.3551113
377,ロースターラボ青葉台店 | タリーズコーヒー,神奈川県,横浜市,青葉区たちばな台1-2-2,青葉台駅徒歩17分以上,045-960-6008,"平日：8:30〜21:00
土：8:30〜21:00
日祝：8:30〜21:00",https://map.tullys.co.jp/tullys/detailMap?account=tullys&accmd=0&bid=168,TRUE,TRUE,FALSE,TRUE,35.5536893,139.5141924
378,綾瀬タウンヒルズ店 | タリーズコーヒー,神奈川県,綾瀬市,深谷3734-1綾瀬タウンヒルズSC1F,高座渋谷駅徒歩46分以上,0467-79-5261,"平日：9:00〜20:00
土：9:00〜20:00
日祝：9:00〜20:00",https://map.tullys.co.jp/tullys/detailMap?account=tullys&accmd=0&bid=250,FALSE,FALSE,TRUE,TRUE,35.436785,139.428937
379,横須賀中央店 | タリーズコーヒー,神奈川県,横須賀市,若松町2-1-3,横須賀中央駅徒歩2分以上,046-828-5510,"平日：7:00〜21:00 ※金曜日：〜22：00
土：7:00〜22:00
日祝：8:00〜21:00",https://map.tullys.co.jp/tullys/detailMap?account=tullys&accmd=0&bid=557,TRUE,TRUE,TRUE,TRUE,35.2798997,139.6697062
380,横浜ジョイナス店 | タリーズコーヒー,神奈川県,横浜市,西区南幸一丁目5番1号相鉄ジョイナス3F,横浜駅徒歩4分以上,045-548-3350,"平日：10:00〜21:00
土：10:00〜21:00
日祝：10:00〜21:00",https://map.tullys.co.jp/tullys/detailMap?account=tullys&accmd=0&bid=890,FALSE,FALSE,FALSE,FALSE,35.4655954,139.6207708
381,横浜ポルタ店 | タリーズコーヒー,神奈川県,横浜市,西区高島2-16-B1,平沼橋駅徒歩7分以上,045-444-2460,"平日：8：00〜23：00
土：8：00〜23：00
日祝：8：00〜23：00",https://map.tullys.co.jp/tullys/detailMap?account=tullys&accmd=0&bid=542,TRUE,TRUE,FALSE,FALSE,35.4633749,139.6199096
382,横浜みなとみらいビジネススクエア店 | タリーズコーヒー,神奈川県,横浜市,西区みなとみらい3-6ミナトミライビジネススクエア1F,みなとみらい駅徒歩2分以上,045-640-5255,"平日：7:30〜19:30
土：8:30〜19:30
日祝：8:30〜19:30",https://map.tullys.co.jp/tullys/detailMap?account=tullys&accmd=0&bid=240,TRUE,FALSE,TRUE,FALSE,35.459025,139.632263
383,横浜ランドマークタワー店 | タリーズコーヒー,神奈川県,横浜市,西区みなとみらい2-2-1横浜ランドマークタワー3F,みなとみらい駅徒歩4分以上,045-226-1181,"平日：8:00〜21:00
土：8:00〜21:00
日祝：8:00〜21:00",https://map.tullys.co.jp/tullys/detailMap?account=tullys&accmd=0&bid=41,TRUE,FALSE,TRUE,FALSE,35.4545635,139.6314218
384,横浜ワールドポーターズ店 | タリーズコーヒー,神奈川県,横浜市,中区新港2-2-1ワールドポーターズ2F,馬車道駅徒歩6分以上,045-226-1088,"平日：10:30〜21:00
土：10:30〜21:30
日祝：10:30〜21:00",https://map.tullys.co.jp/tullys/detailMap?account=tullys&accmd=0&bid=48,TRUE,FALSE,FALSE,FALSE,35.454242,139.638124
385,横浜市大附属病院店 | タリーズコーヒー,神奈川県,横浜市,金沢区福浦3丁目9番,市大医学部駅徒歩1分以上,045-789-0225,"平日：7:00〜20:00
土：8:00〜19:00
日祝：9:00〜18:00",https://map.tullys.co.jp/tullys/detailMap?account=tullys&accmd=0&bid=651,TRUE,TRUE,FALSE,TRUE,35.3434301,139.6514946
386,横浜市立みなと赤十字病院店 | タリーズコーヒー,神奈川県,横浜市,中区新山下3-12-1横浜市立みなと赤十字病院内1F,元町・中華街駅徒歩19分以上,045-628-2317,"平日：8:00〜18:00
土：10:00〜17:00
日祝：10:00〜17:00",https://map.tullys.co.jp/tullys/detailMap?account=tullys&accmd=0&bid=766,TRUE,FALSE,FALSE,TRUE,35.4365909,139.6641799
387,横浜馬車道店 | タリーズコーヒー,神奈川県,横浜市,中区住吉町5-59リッチモンドホテル横浜馬車道1F,関内駅徒歩2分以上,045-222-3521,"平日：7:00〜21:00
土：8:00〜21:00
日祝：8:00〜20:00",https://map.tullys.co.jp/tullys/detailMap?account=tullys&accmd=0&bid=122,TRUE,TRUE,TRUE,FALSE,35.4473155,139.6352867
388,横浜野村ビル店 | タリーズコーヒー,神奈川県,横浜市,西区みなとみらい四丁目4番1号横浜野村ビル1F,新高島駅徒歩4分以上,045-263-9701,"平日：8:00〜20:00
土：10:00〜20:00
日祝：10:00〜20:00",https://map.tullys.co.jp/tullys/detailMap?account=tullys&accmd=0&bid=882,TRUE,FALSE,TRUE,FALSE,35.4594278,139.6274376
389,梶ヶ谷店 | タリーズコーヒー,神奈川県,川崎市,高津区末永1-49-1田園ステーションテラス,梶が谷駅徒歩1分以上,044-870-5275,"平日：8:00〜21:00
土：8:00〜21:00
日祝：8:00〜21:00",https://map.tullys.co.jp/tullys/detailMap?account=tullys&accmd=0&bid=296,TRUE,FALSE,FALSE,FALSE,35.5943859,139.6048006
390,鎌倉鶴岡八幡宮前店 | タリーズコーヒー,神奈川県,鎌倉市,雪ノ下1丁目8番,鎌倉駅徒歩10分以上,0467-73-7358,"平日：9:00〜20:00
土：9:00〜20:00
日祝：9:00〜20:00",https://map.tullys.co.jp/tullys/detailMap?account=tullys&accmd=0&bid=897,FALSE,FALSE,FALSE,FALSE,35.3235694,139.5540002
391,丸の内 CAFE 会 ららぽーと海老名店 | タリーズコーヒー,神奈川県,海老名市,扇町13番1号1階10400,海老名駅徒歩6分以上,046-206-6182,"平日：10:00〜21:00
土：10:00〜21:00
日祝：10:00〜21:00",https://map.tullys.co.jp/tullys/detailMap?account=tullys&accmd=0&bid=791,TRUE,FALSE,FALSE,FALSE,35.4560135,139.3891894
392,宮崎台店 | タリーズコーヒー,神奈川県,川崎市,宮前区宮崎2-10-12,宮崎台駅徒歩3分以内,044-871-6610,"平日：7:30〜22:00
土：7:30〜22:00
日祝：7:30〜22:00",https://map.tullys.co.jp/tullys/detailMap?account=tullys&accmd=0&bid=716,TRUE,FALSE,TRUE,FALSE,35.5875362,139.5916764
393,京急川崎駅店 | タリーズコーヒー,神奈川県,川崎市,川崎区砂子1-3-1,京急川崎駅徒歩3分以内,044-233-2020,"平日：7:00〜22:30（L.O22:00）
土：7:00〜22:30（L.O22:00）
日祝：7:00〜22:30（L.O22:00）",https://map.tullys.co.jp/tullys/detailMap?account=tullys&accmd=0&bid=744,FALSE,FALSE,TRUE,FALSE,35.5324667,139.7007096
394,慶應日吉店 | タリーズコーヒー,神奈川県,横浜市,港北区日吉4−1−1協生館１Ｆ,日吉駅徒歩1分以上,045-560-5135,"平日：7:30〜20:00
土：7:30〜20:00
日祝：7:30〜20:00",https://map.tullys.co.jp/tullys/detailMap?account=tullys&accmd=0&bid=391,TRUE,FALSE,FALSE,TRUE,35.5520781,139.6472383
395,元住吉駅店 | タリーズコーヒー,神奈川県,川崎市,中原区木月1-36-12元住吉駅ビル1F,元住吉駅徒歩2分以上,044-431-3358,"平日：7:30〜22:00
土：7:30〜22:00
日祝：7:30〜22:00",https://map.tullys.co.jp/tullys/detailMap?account=tullys&accmd=0&bid=564,TRUE,TRUE,TRUE,TRUE,35.5646009,139.6537128
396,古淵店 | タリーズコーヒー,神奈川県,相模原市,南区古淵3-13-33イトーヨーカドー古淵店1F,古淵駅徒歩5分以上,042-768-9820,"平日：9:00〜21:00
土：9:00〜21:00
日祝：9:00〜21:00",https://map.tullys.co.jp/tullys/detailMap?account=tullys&accmd=0&bid=66,TRUE,FALSE,TRUE,FALSE,35.5528454,139.4183568
397,江ノ電江ノ島駅店 | タリーズコーヒー,神奈川県,藤沢市,片瀬海岸1丁目8番41号,江ノ島駅徒歩1分以上,046-690-4711,"平日：9:00〜20:00
土：9:00〜20:00
日祝：9:00〜20:00",https://map.tullys.co.jp/tullys/detailMap?account=tullys&accmd=0&bid=921,TRUE,FALSE,FALSE,TRUE,35.3102397,139.4874751
398,溝の口店 | タリーズコーヒー,神奈川県,川崎市,高津区溝口2-8-1,溝の口駅徒歩1分以上,044-814-1666,"平日：7:30〜22:00
土：7:30〜22:00
日祝：7:30〜22:00",https://map.tullys.co.jp/tullys/detailMap?account=tullys&accmd=0&bid=572,TRUE,TRUE,TRUE,FALSE,35.6003093,139.6111733
399,済生会東部病院店 | タリーズコーヒー,神奈川県,横浜市,鶴見区下末吉3-6-1済生会東部病院内1階,尻手駅徒歩16分以上,045-580-0805,"平日：7:30〜18:30
土：7:30〜15:00
日祝：休業日",https://map.tullys.co.jp/tullys/detailMap?account=tullys&accmd=0&bid=327,FALSE,FALSE,FALSE,FALSE,35.52394,139.675079
400,小田急マルシェ新百合ヶ丘店 | タリーズコーヒー,神奈川県,川崎市,麻生区万福寺1丁目18-1小田急マルシェ新百合丘店2F,新百合ヶ丘駅駅徒歩3分以内,044-969-7478,"平日：7:00〜22:00
土：7:00〜22:00
日祝：7:00〜22:00",https://map.tullys.co.jp/tullys/detailMap?account=tullys&accmd=0&bid=352,TRUE,TRUE,FALSE,FALSE,35.6039934,139.5078826
401,小田原ダイナシティ店 | タリーズコーヒー,神奈川県,小田原市,中里313-12ダイナシティウォーク,鴨宮駅徒歩15分以上,0465-45-0730,"平日：10:00〜21:00
土：10:00〜21:00
日祝：10:00〜21:00",https://map.tullys.co.jp/tullys/detailMap?account=tullys&accmd=0&bid=101,TRUE,FALSE,TRUE,TRUE,35.2835923,139.1874906
402,小田原トザンイースト店 | タリーズコーヒー,神奈川県,小田原市,栄町2-1-2トザンイースト1F,小田原駅徒歩2分以上,0465-46-7351,"平日：7:00〜21:00
土：8:00〜21:00
日祝：8:00〜21:00",https://map.tullys.co.jp/tullys/detailMap?account=tullys&accmd=0&bid=798,TRUE,TRUE,FALSE,TRUE,35.2557745,139.1569671
403,昭和大学横浜市北部病院店 | タリーズコーヒー,神奈川県,横浜市,都筑区茅ヶ崎中央35−11F,センター南駅徒歩6分以上,045-948-3503,"平日：7:30〜19:00
土：7:30〜18:00
日祝：10:00〜18:00",https://map.tullys.co.jp/tullys/detailMap?account=tullys&accmd=0&bid=496,TRUE,FALSE,FALSE,FALSE,35.5465226,139.569883
404,昭和大学藤が丘病院店 | タリーズコーヒー,神奈川県,横浜市,青葉区藤が丘1-30昭和大学藤が丘病院1階,藤が丘駅徒歩3分以上,045-979-2570,"平日：7:30〜19:00
土：7:30〜18:00
日祝：10:00〜18:00",https://map.tullys.co.jp/tullys/detailMap?account=tullys&accmd=0&bid=608,TRUE,FALSE,FALSE,TRUE,35.5447557,139.5294314
405,湘南モールＦＩＬＬ店 | タリーズコーヒー,神奈川県,藤沢市,辻堂新町4-1-1,本鵠沼駅徒歩18分以上,0466-30-4672,"平日：10:00〜22:00
土：10:00〜22:00
日祝：10:00〜22:00",https://map.tullys.co.jp/tullys/detailMap?account=tullys&accmd=0&bid=109,TRUE,FALSE,TRUE,TRUE,35.3391335,139.464391
406,湘南藤沢徳洲会病院店 | タリーズコーヒー,神奈川県,藤沢市,辻堂神台1丁目5番1号,辻堂駅徒歩6分以上,0466-30-0545,"平日：7：30〜19:00
土：7:30〜19:00
日祝：9:00〜17:00",https://map.tullys.co.jp/tullys/detailMap?account=tullys&accmd=0&bid=607,FALSE,FALSE,FALSE,FALSE,35.3410577,139.4448589
407,新横浜プリンスペペ店 | タリーズコーヒー,神奈川県,横浜市,港北区新横浜3-4新横浜プリンスペペ2F,新横浜駅徒歩2分以上,045-620-0713,"平日：10:00〜21:00
土：10:00〜21:00
日祝：10:00〜21:00",https://map.tullys.co.jp/tullys/detailMap?account=tullys&accmd=0&bid=681,TRUE,FALSE,TRUE,TRUE,35.5094578,139.6188883
408,新横浜店 | タリーズコーヒー,神奈川県,横浜市,港北区新横浜2-6-12,新横浜駅徒歩3分以上,045-478-3343,"平日：7:00〜21:00
土：8:00〜21:00
日祝：8:00〜20:00",https://map.tullys.co.jp/tullys/detailMap?account=tullys&accmd=0&bid=45,TRUE,TRUE,TRUE,TRUE,35.5088168,139.6145655
409,新丸子店 | タリーズコーヒー,神奈川県,川崎市,中原区新丸子町766番地,新丸子駅徒歩3分以内,044-739-2770,"平日：7:30〜22:00
土：7:30〜22:00
日祝：7:30〜22:00",https://map.tullys.co.jp/tullys/detailMap?account=tullys&accmd=0&bid=900,FALSE,FALSE,FALSE,FALSE,35.5802954,139.6619415
410,新川崎三井ビル店 | タリーズコーヒー,神奈川県,川崎市,幸区鹿島田1-1-2新川崎三井ビルWEST棟1F,鹿島田駅徒歩2分以上,044-520-1078,"平日：7:30〜21:00
土：9:00〜19:00
日祝：9:00〜19:00",https://map.tullys.co.jp/tullys/detailMap?account=tullys&accmd=0&bid=310,TRUE,FALSE,TRUE,FALSE,35.5498817,139.6737489
411,神奈川県立こども医療センター店 | タリーズコーヒー,神奈川県,横浜市,南区六ツ川2-138-41F,弘明寺駅徒歩22分以上,045-315-2732,"平日：7:30〜19:00
土：10:00〜17:00
日祝：10:00〜17:00",https://map.tullys.co.jp/tullys/detailMap?account=tullys&accmd=0&bid=667,TRUE,FALSE,FALSE,TRUE,35.4212242,139.5794454
412,青葉台駅店 | タリーズコーヒー,神奈川県,横浜市,青葉区青葉台1-7-3,青葉台駅徒歩3分以内,045-988-1021,"平日：7:30〜22:00
土：7:30〜22:00
日祝：7:30〜22:00",https://map.tullys.co.jp/tullys/detailMap?account=tullys&accmd=0&bid=848,FALSE,FALSE,FALSE,FALSE,35.5429107,139.5173485
413,川崎ソリッドスクエア店 | タリーズコーヒー,神奈川県,川崎市,幸区堀川町580川崎ソリッドスクエア東館2F,京急川崎駅徒歩2分以上,044-543-0385,"平日：7:30〜20:00
土：休業日
日祝：10:00〜18:00",https://map.tullys.co.jp/tullys/detailMap?account=tullys&accmd=0&bid=42,TRUE,FALSE,TRUE,TRUE,35.5350145,139.7001518
414,中央林間東急スクエア店 | タリーズコーヒー,神奈川県,大和市,中央林間4-12-1中央林間東急スクエア1F,中央林間駅徒歩1分以上,046-240-8555,"平日：7:30〜21:30
土：8:30〜21:30
日祝：8:30〜21:30",https://map.tullys.co.jp/tullys/detailMap?account=tullys&accmd=0&bid=930,FALSE,TRUE,FALSE,FALSE,35.5072802,139.4457025
415,東急あざみ野駅店 | タリーズコーヒー,神奈川県,横浜市,青葉区あざみ野2-1-1東急あざみ野ビル1F,あざみ野駅徒歩1分以上,045-905-2206,"平日：7:00〜23:00
土：7:00〜23:00
日祝：7:00〜23:00",https://map.tullys.co.jp/tullys/detailMap?account=tullys&accmd=0&bid=210,TRUE,TRUE,TRUE,TRUE,35.5683686,139.5537117
416,東急百貨店たまプラーザ店 | タリーズコーヒー,神奈川県,横浜市,青葉区美しが丘1-7B1F,たまプラーザ駅徒歩1分以上,045-903-2164,"平日：10:00〜22:30
土：10:00〜22:30
日祝：10:00〜22:30",https://map.tullys.co.jp/tullys/detailMap?account=tullys&accmd=0&bid=326,TRUE,FALSE,FALSE,FALSE,35.5783704,139.557956
417,東戸塚駅東口店 | タリーズコーヒー,神奈川県,横浜市,戸塚区品濃町516-8東戸塚駅東口プラザ1F,東戸塚駅徒歩3分以内,045-828-7008,"平日：7:00〜22:00
土：8:00〜22:00
日祝：8:00〜21:00",https://map.tullys.co.jp/tullys/detailMap?account=tullys&accmd=0&bid=328,TRUE,TRUE,TRUE,TRUE,35.429723,139.557455
418,藤沢オーパ店 | タリーズコーヒー,神奈川県,藤沢市,南藤沢22-3藤沢オーパ2F,藤沢駅徒歩3分以内,0466-53-1663,"平日：8:00〜21:30
土：8:00〜21:30
日祝：9:00〜21:30",https://map.tullys.co.jp/tullys/detailMap?account=tullys&accmd=0&bid=47,TRUE,TRUE,FALSE,FALSE,35.337637,139.486797
419,武蔵小杉店 | タリーズコーヒー,神奈川県,川崎市,中原区小杉町3-472,武蔵小杉駅徒歩3分以内,044-738-2133,"平日：7：00〜22:00
土：7:00〜22:00
日祝：7:00〜22:00",https://map.tullys.co.jp/tullys/detailMap?account=tullys&accmd=0&bid=623,TRUE,TRUE,TRUE,FALSE,35.5756767,139.6595783
420,本厚木ミロードイースト店 | タリーズコーヒー,神奈川県,厚木市,泉町1-1小田急本厚木ミロード1（イースト）,本厚木駅徒歩2分以上,046-230-7409,"平日：6:30〜22:00
土：6:30〜22:00
日祝：6:30〜22:00",https://map.tullys.co.jp/tullys/detailMap?account=tullys&accmd=0&bid=713,FALSE,FALSE,TRUE,FALSE,35.4401134,139.3654896
421,アクロスプラザ長岡美沢店 | タリーズコーヒー,新潟県,長岡市,沖田1丁目6番地,長岡駅徒歩15分以上,0258-31-5517,"平日：9:00〜22:00
土：9:00〜22:00
日祝：9:00〜22:00",https://map.tullys.co.jp/tullys/detailMap?account=tullys&accmd=0&bid=748,TRUE,FALSE,FALSE,FALSE,37.4448044,138.8651923
422,横越バイパス店 | タリーズコーヒー,新潟県,新潟市,江南区横越上町5-1-6蔦屋書店横越バイパス店内,荻川駅徒歩50分以上,025-383-4011,"平日:9:00〜21:30
土:9:00〜21:30
日祝:9:00〜21:30",https://map.tullys.co.jp/tullys/detailMap?account=tullys&accmd=0&bid=567,TRUE,FALSE,TRUE,FALSE,37.849576,139.1441525
423,高田西店 | タリーズコーヒー,新潟県,上越市,大貫4-4-22,高田駅徒歩10分以上,025-527-3170,"平日：9:00〜22:00
土：9:00〜22:00
日祝：9:00〜22:00",https://map.tullys.co.jp/tullys/detailMap?account=tullys&accmd=0&bid=888,FALSE,FALSE,FALSE,FALSE,37.113477,138.2339515
424,佐渡佐和田店 | タリーズコーヒー,新潟県,佐渡市,市野沢82蔦屋書店佐渡佐和田店内,errererror,0259-51-5010,"平日：9:00〜21:00
土：9:00〜21:00
日祝：9:00〜21:00",https://map.tullys.co.jp/tullys/detailMap?account=tullys&accmd=0&bid=787,TRUE,FALSE,FALSE,FALSE,38.0081549,138.3403024
425,新潟駅南ＬＥＸＮ店 | タリーズコーヒー,新潟県,新潟市,中央区天神1-12-7,新潟駅徒歩3分以上,025-250-6117,"平日：8:00〜21:00
土：8:00〜21:00
日祝：9:00〜20:00",https://map.tullys.co.jp/tullys/detailMap?account=tullys&accmd=0&bid=447,TRUE,FALSE,FALSE,TRUE,37.9098409,139.0605974
426,新潟新通店 | タリーズコーヒー,新潟県,新潟市,西区新通1272蔦屋書店新通店内1F,新潟大学前駅徒歩13分以上,025-264-1107,"平日：10：00〜22：00
土：8：00〜22：00
日祝：8：00〜22：00",https://map.tullys.co.jp/tullys/detailMap?account=tullys&accmd=0&bid=501,TRUE,FALSE,TRUE,FALSE,37.8608898,138.9506632
427,新潟大学病院店 | タリーズコーヒー,新潟県,新潟市,中央区旭町通一番町754番地,白山駅徒歩13分以上,025-378-2300,"平日：7:30〜19:00
土：休業日
日祝：休業日",https://map.tullys.co.jp/tullys/detailMap?account=tullys&accmd=0&bid=712,TRUE,FALSE,FALSE,FALSE,37.9192837,139.0351682
428,新潟万代店 | タリーズコーヒー,新潟県,新潟市,中央区幸西3-1-6蔦屋書店新潟万代内,新潟駅徒歩19分以上,025-255-5252,"平日：9:00〜23:00
土：8:00〜23:00
日祝：8:00〜23:00",https://map.tullys.co.jp/tullys/detailMap?account=tullys&accmd=0&bid=253,TRUE,FALSE,TRUE,FALSE,37.9114083,139.0472834
429,新発田店 | タリーズコーヒー,新潟県,新発田市,新栄町3-1-31,西新発田駅徒歩18分以上,0254-20-2050,"平日：9:00〜22:00
土：9:00〜22:00
日祝：9:00〜22:00",https://map.tullys.co.jp/tullys/detailMap?account=tullys&accmd=0&bid=856,FALSE,FALSE,TRUE,FALSE,37.9529338,139.2973518
430,長岡花園店 | タリーズコーヒー,新潟県,長岡市,花園南1丁目36番地,長岡駅徒歩29分以上,0258-38-7137,"平日：9:00〜22:00
土：9:00〜22:00
日祝：9:00〜22:00",https://map.tullys.co.jp/tullys/detailMap?account=tullys&accmd=0&bid=855,FALSE,FALSE,TRUE,FALSE,37.4299731,138.8624095
431,長岡古正寺店 | タリーズコーヒー,新潟県,長岡市,古正寺町350番地,長岡駅徒歩52分以上,0258-28-3055,"平日：10：00〜22：00
土：8：00〜22：00
日祝：8：00〜22：00",https://map.tullys.co.jp/tullys/detailMap?account=tullys&accmd=0&bid=469,FALSE,FALSE,TRUE,FALSE,37.4579935,138.8159109
432,長岡新保店 | タリーズコーヒー,新潟県,長岡市,新保6丁目222番地,北長岡駅徒歩8分以上,0258-22-7727,"平日：9:00〜22:00
土：9:00〜22:00
日祝：9:00〜22：00",https://map.tullys.co.jp/tullys/detailMap?account=tullys&accmd=0&bid=737,TRUE,FALSE,FALSE,FALSE,37.4691237,138.8686661
433,滑川店 | タリーズコーヒー,富山県,滑川市,上小泉2829,中滑川駅徒歩13分以上,076-476-2003,"平日：8:00〜23:00(L.O.22:30)
土：8:00〜23:00(L.O.22:30)
日祝：8:00〜23:00(L.O.22:30)",https://map.tullys.co.jp/tullys/detailMap?account=tullys&accmd=0&bid=620,FALSE,FALSE,TRUE,FALSE,36.7546596,137.3465185
434,高岡射水店 | タリーズコーヒー,富山県,射水市,坂東127-1,能町口駅徒歩27分以上,076-682-1845,"平日：9:00〜23:30(L.O.23:00)
土：9:00〜23:30(L.O.23:00)
日祝：9:00〜23:30(L.O.23:00)",https://map.tullys.co.jp/tullys/detailMap?account=tullys&accmd=0&bid=339,FALSE,TRUE,TRUE,FALSE,36.7589655,137.0611892
435,富山県立中央病院店 | タリーズコーヒー,富山県,富山市,西長江2丁目2番78号,稲荷町駅徒歩10分以上,076-424-2005,"平日：7:00〜19:30
土：8:30〜18:00
日祝：8:30〜18:00",https://map.tullys.co.jp/tullys/detailMap?account=tullys&accmd=0&bid=457,FALSE,FALSE,FALSE,FALSE,36.6928695,137.2374275
436,富山新庄経堂店 | タリーズコーヒー,富山県,富山市,経堂123-4明文堂書店富山新庄経堂店内,東新庄駅徒歩12分以上,076-493-9103,"平日：7：00〜22:00
土：7:00〜22:00
日祝：7:00〜22:00",https://map.tullys.co.jp/tullys/detailMap?account=tullys&accmd=0&bid=621,FALSE,FALSE,TRUE,FALSE,36.690695,137.251724
437,富山有沢橋店 | タリーズコーヒー,富山県,富山市,高田48-1明文堂書店富山有沢橋店内,新富山駅徒歩23分以上,076-491-7336,"平日：9:00〜23:30(L.O.23:00)
土：9:00〜23:30(L.O.23:00)
日祝：9:00〜23:30(L.O.23:00)",https://map.tullys.co.jp/tullys/detailMap?account=tullys&accmd=0&bid=622,FALSE,FALSE,TRUE,FALSE,36.6821142,137.1869811
438,KOMATSU店 | タリーズコーヒー,石川県,小松市,沖周辺土地区画整理事業施工地区内4街区,小松駅徒歩15分以上,0761-23-4285,"平日：7:00〜24:00
土：7:00〜24:00
日祝：7:00〜24:00",https://map.tullys.co.jp/tullys/detailMap?account=tullys&accmd=0&bid=677,FALSE,FALSE,TRUE,FALSE,36.3964267,136.4617557
439,Rinto100bangai店 | タリーズコーヒー,石川県,金沢市,木ノ新保町1−1（Rinto100bangai内）1F,北鉄金沢駅徒歩2分以上,076-260-1252,"平日：10:00〜20:00
土：10:00〜20:00
日祝：10:00〜20:00",https://map.tullys.co.jp/tullys/detailMap?account=tullys&accmd=0&bid=491,FALSE,FALSE,FALSE,FALSE,36.5794046,136.6485836
440,金沢ビーンズ店 | タリーズコーヒー,石川県,金沢市,鞍月5-158,磯部駅徒歩32分以上,076-239-4405,"平日：7:00〜24:00(L.O.23:30)
土：7:00〜24:00(L.O.23:30)
日祝：7:00〜24:00(L.O.23:30)",https://map.tullys.co.jp/tullys/detailMap?account=tullys&accmd=0&bid=335,FALSE,FALSE,TRUE,FALSE,36.5989866,136.623617
441,金沢大学病院店 | タリーズコーヒー,石川県,金沢市,宝町13-1,野町駅徒歩38分以上,076-261-0128,"平日：7:30〜20:00
土：8:30〜17:00
日祝：8:30〜17:00",https://map.tullys.co.jp/tullys/detailMap?account=tullys&accmd=0&bid=505,FALSE,FALSE,FALSE,FALSE,36.5570232,136.673382
442,金沢入江店 | タリーズコーヒー,石川県,金沢市,入江2-188,西金沢駅徒歩18分以上,076-292-0022,"平日：9：00〜23：00
土曜：9：00〜23：00
日祝：9：00〜23：00",https://map.tullys.co.jp/tullys/detailMap?account=tullys&accmd=0&bid=538,FALSE,FALSE,TRUE,FALSE,36.5645131,136.6277235
443,金沢野々市店 | タリーズコーヒー,石川県,野々市,市粟田5丁目461,乙丸駅徒歩12分以上,076-294-0934,"平日：7:00〜24:30(L.O.24:00)
土：7:00〜24:30(L.O.24:00)
日祝：7:00〜24:30(L.O.24:00)",https://map.tullys.co.jp/tullys/detailMap?account=tullys&accmd=0&bid=322,FALSE,FALSE,TRUE,FALSE,36.5152744,136.6088517
444,七尾店 | タリーズコーヒー,石川県,七尾市,藤橋町ア部6番地19,七尾駅徒歩22分以上,0767-53-0022,"平日：8:00〜20:00
土：8:00〜20:00
日祝：8:00〜20:00",https://map.tullys.co.jp/tullys/detailMap?account=tullys&accmd=0&bid=934,FALSE,FALSE,FALSE,FALSE,37.0443478,136.9473318
445,福井ベル店 | タリーズコーヒー,福井県,福井市,花堂南2-16-1アルプラザベル1F,ベル前駅徒歩2分以上,0776-33-3285,"平日：10:00〜21:00
土：10:00〜21:00
日祝：10:00〜21:00",https://map.tullys.co.jp/tullys/detailMap?account=tullys&accmd=0&bid=285,TRUE,FALSE,TRUE,FALSE,36.0335472,136.2118536
446,福井赤十字病院店 | タリーズコーヒー,福井県,福井市,月見2丁目4番1号福井赤十字病院1階,福井新駅徒歩5分以上,0776-43-6133,"平日：7:30〜19:30
土：9:00〜17:00
日祝：9:00〜17:00",https://map.tullys.co.jp/tullys/detailMap?account=tullys&accmd=0&bid=752,TRUE,FALSE,FALSE,FALSE,36.0466623,136.2126922
447,福井大学病院店 | タリーズコーヒー,福井県,吉田郡,永平寺町松岡下合月23-3福井大学医学部附属病院1F,松岡駅徒歩25分以上,0776-61-3076,"平日：7:30〜20:00
土：9:00〜18:00
日祝：9:00〜18:00",https://map.tullys.co.jp/tullys/detailMap?account=tullys&accmd=0&bid=898,FALSE,FALSE,FALSE,FALSE,36.1086548,136.293903
448,セレオ甲府ＡＮＮＥＸ店 | タリーズコーヒー,山梨県,甲府市,丸の内1丁目1-8セレオ甲府4F,甲府駅徒歩3分以内,055-236-0020,"平日：10：00〜20：00
土：10：00〜20：00
日祝：10：00〜20：00",https://map.tullys.co.jp/tullys/detailMap?account=tullys&accmd=0&bid=522,TRUE,FALSE,TRUE,FALSE,35.6669003,138.5689947
449,セレオ甲府店 | タリーズコーヒー,山梨県,甲府市,丸の内1-1-8,甲府駅徒歩3分以内,055-230-1055,"平日：7:00〜22:00
土：7:00〜22:00
日祝：7:00〜22:00",https://map.tullys.co.jp/tullys/detailMap?account=tullys&accmd=0&bid=275,TRUE,FALSE,TRUE,FALSE,35.6669016,138.5688817
450,MIDORI長野店 | タリーズコーヒー,長野県,長野市,南千歳1-22-6MIDORI長野2F,長野駅徒歩3分以内,026-269-6850,"平日：10:00〜20:00
土：10:00〜20:00
日祝：10:00〜20:00",https://map.tullys.co.jp/tullys/detailMap?account=tullys&accmd=0&bid=735,TRUE,FALSE,TRUE,FALSE,36.643972,138.188991
451,軽井沢・プリンスショッピングプラザ店 | タリーズコーヒー,長野県,北佐久郡,軽井沢町軽井沢軽井沢・プリンスショッピングプラザ内,軽井沢駅徒歩4分以上,0267-46-8540,"平日：9:30〜19:00
土：9:30〜20:00
日祝：9:30〜20:00",https://map.tullys.co.jp/tullys/detailMap?account=tullys&accmd=0&bid=723,FALSE,FALSE,TRUE,TRUE,36.3414309,138.6380481
452,佐久小諸店 | タリーズコーヒー,長野県,小諸市,御影新田2291-1,平原駅徒歩21分以上,0267-26-2817,"平日：10:00〜22:00
土：10:00〜22:00
日祝：10:00〜22:00",https://map.tullys.co.jp/tullys/detailMap?account=tullys&accmd=0&bid=700,TRUE,FALSE,FALSE,FALSE,36.3010152,138.4674669
453,松本駅前大通り店 | タリーズコーヒー,長野県,松本市,深志1-2-11昭和ビル1F,松本駅徒歩4分以上,0263-31-9898,"平日：7:30〜20:00
土：9:00〜20:00
日祝：9:00〜20:00",https://map.tullys.co.jp/tullys/detailMap?account=tullys&accmd=0&bid=119,FALSE,FALSE,TRUE,TRUE,36.2306767,137.9670566
454,上諏訪店 | タリーズコーヒー,長野県,諏訪市,諏訪1-821JR東日本上諏訪駅構内,上諏訪駅徒歩3分以内,0266-56-1131,"平日：7:30〜20:00
土：9:00〜20:00
日祝：9:00〜20:00",https://map.tullys.co.jp/tullys/detailMap?account=tullys&accmd=0&bid=170,FALSE,FALSE,TRUE,TRUE,36.046793,138.116282
455,上田駅店 | タリーズコーヒー,長野県,上田市,天神1丁目ＪＲ東日本上田駅構内,上田駅徒歩2分以上,0268-28-0660,"平日：7:30〜20:00
土：7：30〜20：00
日祝：7：30〜20：00",https://map.tullys.co.jp/tullys/detailMap?account=tullys&accmd=0&bid=627,TRUE,FALSE,TRUE,FALSE,36.3964872,138.2496376
456,上田大屋店 | タリーズコーヒー,長野県,上田市,大屋219-5,大屋駅徒歩1分以上,0268-35-5627,"平日：9:00〜22:00
土：9：00〜22：00
日祝：9:00〜22:00",https://map.tullys.co.jp/tullys/detailMap?account=tullys&accmd=0&bid=709,TRUE,FALSE,FALSE,FALSE,36.3703325,138.2969918
457,信州大学病院店 | タリーズコーヒー,長野県,松本市,旭3丁目1番1号,北松本駅徒歩31分以上,0263-39-6055,"平日：7:00〜20:00
土：9:00〜18:00
日祝：9:00〜18:00",https://map.tullys.co.jp/tullys/detailMap?account=tullys&accmd=0&bid=431,TRUE,FALSE,FALSE,FALSE,36.2507395,137.9783606
458,長野アイビースクエア店 | タリーズコーヒー,長野県,長野市,南千歳1-3-7アイビースクエアビル1F,長野駅徒歩2分以上,026-267-7444,"平日：7:30〜21:00
土：7:30〜21:00
日祝：8:00〜19:00",https://map.tullys.co.jp/tullys/detailMap?account=tullys&accmd=0&bid=62,TRUE,FALSE,TRUE,TRUE,36.6459612,138.1887235
459,長野赤十字病院店 | タリーズコーヒー,長野県,長野市,若里5-22-1,長野駅徒歩27分以上,026-267-5077,"平日：7:00〜19:00
土：10:00〜18:00
日祝：10:00〜18:00",https://map.tullys.co.jp/tullys/detailMap?account=tullys&accmd=0&bid=751,FALSE,FALSE,FALSE,TRUE,36.6265441,138.1907105
460,長野川中島店 | タリーズコーヒー,長野県,長野市,稲里町中央2-12-1蔦屋書店長野川中島店内1F,川中島駅徒歩33分以上,026-254-7757,"平日：10：00〜22：00
土：8：00〜22：00
日祝：8：00〜22：00",https://map.tullys.co.jp/tullys/detailMap?account=tullys&accmd=0&bid=502,TRUE,FALSE,TRUE,FALSE,36.6020438,138.1716981
461,カラフルタウン岐阜店 | タリーズコーヒー,岐阜県,岐阜市,柳津町丸野3-3-6カラフルタウン岐阜1F,柳津駅徒歩11分以上,058-388-7163,"平日：10:00〜22:00（L.O.21:30）
土：10:00〜22:00（L.O.21:30）
日祝：10:00〜22:00（L.O.21:30）",https://map.tullys.co.jp/tullys/detailMap?account=tullys&accmd=0&bid=226,FALSE,FALSE,TRUE,FALSE,35.362557,136.729057
462,岐阜大学病院店 | タリーズコーヒー,岐阜県,岐阜市,柳戸1-1,errererror,058-230-7388,"平日：7:30〜19:00
土：8:30〜17:00
日祝：8:30〜17:00",https://map.tullys.co.jp/tullys/detailMap?account=tullys&accmd=0&bid=690,TRUE,FALSE,FALSE,FALSE,35.4671887,136.7332194
463,土岐プレミアム・アウトレットサテライト店 | タリーズコーヒー,岐阜県,土岐市,土岐ケ丘1丁目2番地,土岐市駅徒歩36分以上,0572-53-2176,"平日：9:30〜20:00
土：9:30〜20:00
日祝：9:30〜20:00",https://map.tullys.co.jp/tullys/detailMap?account=tullys&accmd=0&bid=708,FALSE,FALSE,FALSE,FALSE,35.3407172,137.1652289
464,土岐プレミアム・アウトレット店 | タリーズコーヒー,岐阜県,土岐市,土岐ヶ丘1-2土岐プレミアム・アウトレット900番,土岐市駅徒歩37分以上,0572-53-3903,"平日：9:30〜20:00
土：9:30〜20:00
日祝：9:30〜20:00",https://map.tullys.co.jp/tullys/detailMap?account=tullys&accmd=0&bid=243,FALSE,FALSE,TRUE,FALSE,35.3402749,137.165591
465,NEOPASA静岡上り店 | タリーズコーヒー,静岡県,静岡市,葵区小瀬戸字谷川地1544-3,errererror,054-297-5907,"月〜金：7:00〜20:00
土：7:00〜20:00
日祝：7:00〜20:00",https://map.tullys.co.jp/tullys/detailMap?account=tullys&accmd=0&bid=808,TRUE,FALSE,FALSE,FALSE,34.9792284,138.2924055
466,イオンモール浜松市野店 | タリーズコーヒー,静岡県,浜松市,東区天王町字諏訪1981-3イオンモール浜松市野店2F,自動車学校前駅徒歩19分以上,053-411-3361,"平日：9:00〜22:00
土：9:00〜22:00
日祝：9:00〜22:00",https://map.tullys.co.jp/tullys/detailMap?account=tullys&accmd=0&bid=395,TRUE,FALSE,TRUE,FALSE,34.740057,137.763258
467,イオンモール浜松志都呂店 | タリーズコーヒー,静岡県,浜松市,西区志都呂町2-37-1イオンモール浜松志都呂1F,舞阪駅徒歩37分以上,053-415-2070,"平日：10:00〜22:00
土：10:00〜22:00
日祝：10:00〜22:00",https://map.tullys.co.jp/tullys/detailMap?account=tullys&accmd=0&bid=207,TRUE,FALSE,TRUE,FALSE,34.6967041,137.6515549
468,ウィズイトーヤASTY静岡店 | タリーズコーヒー,静岡県,静岡市,葵区黒金町47番地アスティ静岡西館内,静岡駅徒歩2分以上,054-266-6953,"平日：7:00〜22:00
土：7:00〜22:00
日祝：7:00〜22:00",https://map.tullys.co.jp/tullys/detailMap?account=tullys&accmd=0&bid=777,TRUE,FALSE,TRUE,FALSE,34.970718,138.388076
469,サンストリート浜北店 | タリーズコーヒー,静岡県,浜松市,浜北区平口2861,遠州小松駅徒歩27分以上,053-584-3022,"平日：10:00〜21:00
土：10:00〜22:00
日祝：10:00〜21:00",https://map.tullys.co.jp/tullys/detailMap?account=tullys&accmd=0&bid=337,FALSE,FALSE,TRUE,TRUE,34.7964317,137.7621246
470,サントムーン柿田川店 | タリーズコーヒー,静岡県,駿東郡,清水町玉川61-2サントムーン柿田川1F,三島広小路駅徒歩17分以上,055-991-1577,"平日：10:00〜20:00
土：10:00〜20:00
日祝：10:00〜20:00",https://map.tullys.co.jp/tullys/detailMap?account=tullys&accmd=0&bid=341,TRUE,FALSE,TRUE,FALSE,35.1100566,138.9040984
471,ベイドリーム清水店 | タリーズコーヒー,静岡県,静岡市,清水区駒越北町8-1ベイドリーム清水1階,入江岡駅徒歩51分以上,054-337-0811,"平日：10：00〜21：00
土：10：00〜21：00
日祝：10：00〜21：00",https://map.tullys.co.jp/tullys/detailMap?account=tullys&accmd=0&bid=500,FALSE,FALSE,TRUE,FALSE,34.984645,138.4997509
472,メイワンエキマチ店 | タリーズコーヒー,静岡県,浜松市,中区砂山町6-1メイワンエキマチイースト,浜松駅徒歩3分以内,053-459-3210,"平日：7:00〜21:00
土：7:00〜21:00
日祝：7:00〜21:00",https://map.tullys.co.jp/tullys/detailMap?account=tullys&accmd=0&bid=121,TRUE,FALSE,TRUE,FALSE,34.7041825,137.7344534
473,ららぽーと磐田店 | タリーズコーヒー,静岡県,磐田市,高見丘1200番地,磐田駅徒歩64分以上,0538-59-0120,"平日：10:00〜21:00
土：10:00〜21:00
日祝：10:00〜21:00",https://map.tullys.co.jp/tullys/detailMap?account=tullys&accmd=0&bid=429,FALSE,TRUE,TRUE,FALSE,34.7503905,137.8422547
474,御殿場プレミアム・アウトレット店 | タリーズコーヒー,静岡県,御殿場市,深沢1312御殿場プレミアム・アウトレット2395区,御殿場駅徒歩38分以上,0550-70-2678,"平日：10:00〜20:00
土：9:00〜20:00
日祝：9:00〜20:00",https://map.tullys.co.jp/tullys/detailMap?account=tullys&accmd=0&bid=128,TRUE,FALSE,TRUE,TRUE,35.3071529,138.9625821
475,三島日清プラザ店 | タリーズコーヒー,静岡県,三島市,中田町9番30号イトーヨーカドー日清プラザ店1F,三島田町駅徒歩4分以上,055-991-6388,"平日：10:00〜21:00
土：10:00〜21:00
日祝：10:00〜21:00",https://map.tullys.co.jp/tullys/detailMap?account=tullys&accmd=0&bid=786,TRUE,FALSE,TRUE,FALSE,35.113275,138.919377
476,沼津イシバシプラザアネックス店 | タリーズコーヒー,静岡県,沼津市,高島本町1-5イシバシプラザ2F,沼津駅徒歩8分以上,055-929-6776,"平日：10:00〜20:00
土：10:00〜20:00
日祝：10:00〜20:00",https://map.tullys.co.jp/tullys/detailMap?account=tullys&accmd=0&bid=320,TRUE,FALSE,FALSE,FALSE,35.107966,138.858192
477,沼津イシバシプラザ店 | タリーズコーヒー,静岡県,沼津市,高島本町1-5イシバシプラザ地下1階,沼津駅徒歩8分以上,055-929-6776,"平日：10:00〜20:00
土：10:00〜20:00
日祝：10:00〜20:00",https://map.tullys.co.jp/tullys/detailMap?account=tullys&accmd=0&bid=129,TRUE,FALSE,TRUE,FALSE,35.107966,138.858192
478,沼津駅南口イーラｄｅ店 | タリーズコーヒー,静岡県,沼津市,大手町1丁目１-６,沼津駅徒歩2分以上,055-964-0383,"平日：8:00〜20:30
土：8:00〜20:30
日祝：8:00〜20:00",https://map.tullys.co.jp/tullys/detailMap?account=tullys&accmd=0&bid=356,TRUE,TRUE,FALSE,TRUE,35.1023225,138.8582815
479,清水駅前店 | タリーズコーヒー,静岡県,静岡市,清水区辻1-2-1マークス・ザ・タワー清水「えじりあ」1F,清水駅徒歩2分以上,054-368-5864,"平日：9：00-21：00
土：9：00-21：00
日祝：9：00-20：00",https://map.tullys.co.jp/tullys/detailMap?account=tullys&accmd=0&bid=642,TRUE,FALSE,TRUE,FALSE,35.0238802,138.4875508
480,聖隷三方原病院店 | タリーズコーヒー,静岡県,浜松市,北区三方原3453聖隷三方原病院プラザ棟１F,金指駅徒歩40分以上,053-430-5088,"平日：7:30〜20:00
土：7:30〜20:00
日祝：7:30〜20:00",https://map.tullys.co.jp/tullys/detailMap?account=tullys&accmd=0&bid=406,FALSE,FALSE,FALSE,TRUE,34.7920853,137.6899765
481,聖隷浜松病院店 | タリーズコーヒー,静岡県,浜松市,中区住吉2-12-12聖隷浜松病院B棟B1,助信駅徒歩21分以上,053-473-7577,"平日：7:30〜20:00
土：7:30〜20:00
日祝：9:00〜17:00",https://map.tullys.co.jp/tullys/detailMap?account=tullys&accmd=0&bid=832,FALSE,FALSE,FALSE,FALSE,34.7310262,137.724982
482,静岡パルシェ 5F店 | タリーズコーヒー,静岡県,静岡市,葵区黒金町49番地パルシェ5F,静岡駅徒歩3分以上,054-205-2467,"平日：10:00〜21:00
土：10:00〜21:00
日祝：10:00〜21:00",https://map.tullys.co.jp/tullys/detailMap?account=tullys&accmd=0&bid=903,FALSE,FALSE,FALSE,FALSE,34.9735012,138.3909435
483,静岡パルシェ B1F店 | タリーズコーヒー,静岡県,静岡市,葵区黒金町49番地パルシェB1F,静岡駅徒歩1分以上,054-653-2320,"平日：7:30〜21:00
土：7:30〜21:00
日祝：7:30〜21:00",https://map.tullys.co.jp/tullys/detailMap?account=tullys&accmd=0&bid=892,FALSE,FALSE,FALSE,FALSE,34.972168,138.3887397
484,静岡ペガサート店 | タリーズコーヒー,静岡県,静岡市,葵区御幸町3-21ぺガサート1F,新静岡駅徒歩2分以上,054-275-0088,"平日：7:30〜22:00
土：8:00〜22:00
日祝：9:00〜21:00",https://map.tullys.co.jp/tullys/detailMap?account=tullys&accmd=0&bid=212,TRUE,TRUE,FALSE,TRUE,34.975043,138.386129
485,静岡紺屋町店 | タリーズコーヒー,静岡県,静岡市,葵区紺屋町3-14,新静岡駅徒歩5分以上,054-205-3201,"月〜木：7:30〜21:00（金：〜23：00）
土：8:30〜23:00
日祝：8:30〜21:00",https://map.tullys.co.jp/tullys/detailMap?account=tullys&accmd=0&bid=314,TRUE,FALSE,TRUE,FALSE,34.9732678,138.3852011
486,長泉桜堤店 | タリーズコーヒー,静岡県,駿東郡,長泉町桜堤1-8-15,長泉なめり駅徒歩8分以上,055-980-5707,"平日：8:30〜23:00
土：8:30〜23:00
日祝：8:30〜21:00",https://map.tullys.co.jp/tullys/detailMap?account=tullys&accmd=0&bid=877,FALSE,FALSE,TRUE,FALSE,35.1447999,138.9049159
487,富士川楽座店 | タリーズコーヒー,静岡県,富士市,岩渕1488-1富士川楽座内3F,富士川駅徒歩32分以上,0545-56-2480,"平日：8:00〜21:00
土：8:00〜21:00
日祝：8:00〜21:00",https://map.tullys.co.jp/tullys/detailMap?account=tullys&accmd=0&bid=698,FALSE,FALSE,FALSE,TRUE,35.1616897,138.6183759
488,OKB田県店 | タリーズコーヒー,愛知県,小牧市,久保一色字佃991-8,田県神社前駅徒歩1分以上,0568-42-1201,"平日：8:00〜20:30
土：8:00〜20:30
日祝：8:00〜20:30",https://map.tullys.co.jp/tullys/detailMap?account=tullys&accmd=0&bid=821,TRUE,FALSE,TRUE,FALSE,35.318427,136.9432578
489,ＳＵＮＳＨＩＮＥ ＳＡＫＡＥ店 | タリーズコーヒー,愛知県,名古屋市,中区錦3-24-4SUNSHINESAKAE1F,栄駅徒歩2分以上,052-955-2110,"平日：8:00〜22:00（金：8:00〜23:00）
土：8:00〜23:00
日祝：8:00〜22:00",https://map.tullys.co.jp/tullys/detailMap?account=tullys&accmd=0&bid=331,TRUE,FALSE,TRUE,TRUE,35.169422,136.9062357
490,イオンスタイル豊田店 | タリーズコーヒー,愛知県,豊田市,広路町1丁目1イオンスタイル豊田1F,上挙母駅徒歩12分以上,0565-85-0003,"平日：9:00〜21:00
土：9:00〜21:00
祝：9:00〜21:00",https://map.tullys.co.jp/tullys/detailMap?account=tullys&accmd=0&bid=894,FALSE,FALSE,FALSE,FALSE,35.0783648,137.1601989
491,イオンモールナゴヤドーム前店 | タリーズコーヒー,愛知県,名古屋市,東区矢田南4-102-3イオンモールナゴヤドーム前2F,矢田駅徒歩5分以上,052-725-3233,"平日：9:00〜22:00
土：9:00〜22:00
日祝：9:00〜22:00",https://map.tullys.co.jp/tullys/detailMap?account=tullys&accmd=0&bid=846,FALSE,FALSE,FALSE,FALSE,35.1870518,136.9449966
492,イオンモール常滑 BOOK & CAFE店 | タリーズコーヒー,愛知県,常滑市,りんくう町2丁目20イオンモール常滑2F2042,りんくう常滑駅徒歩2分以上,0569-89-7153,"平日：10:00〜21:00
土：10:00〜21:00
日祝：10:00〜21:00",https://map.tullys.co.jp/tullys/detailMap?account=tullys&accmd=0&bid=807,TRUE,FALSE,FALSE,FALSE,34.880752,136.826505
493,イオンモール常滑店 | タリーズコーヒー,愛知県,常滑市,りんくう町2丁目20イオンモール常滑,りんくう常滑駅徒歩2分以上,0569-89-7152,"平日：10:00〜21:00
土：10:00〜21:00
日祝：10:00〜21:00",https://map.tullys.co.jp/tullys/detailMap?account=tullys&accmd=0&bid=800,TRUE,FALSE,FALSE,FALSE,34.880752,136.826505
494,エアポートウォーク名古屋店 | タリーズコーヒー,愛知県,西春日井郡,豊山町豊場林先1番8エアポートウォーク名古屋1F,味美駅徒歩27分以上,0568-65-6951,"平日：10:00〜21:30
土：10:00〜21:30
日祝：10:00〜21:30",https://map.tullys.co.jp/tullys/detailMap?account=tullys&accmd=0&bid=776,TRUE,FALSE,TRUE,TRUE,35.246034,136.924866
495,タカシマヤ ゲートタワーモール店 | タリーズコーヒー,愛知県,名古屋市,中村区名駅一丁目1番3号タカシマヤゲートタワーモール5F,名古屋駅徒歩1分以上,052-566-6515,"平日：10:00〜21:00
土：10:00〜21:00
日祝：10：00〜21：00",https://map.tullys.co.jp/tullys/detailMap?account=tullys&accmd=0&bid=870,FALSE,FALSE,FALSE,FALSE,35.1718696,136.8831746
496,テラッセ納屋橋店 | タリーズコーヒー,愛知県,名古屋市,中区栄1丁目2番49号2FA201,伏見駅徒歩6分以上,052-218-5002,"平日：10:00〜21:00
土：10:00〜21:00
日祝：10:00〜21:00",https://map.tullys.co.jp/tullys/detailMap?account=tullys&accmd=0&bid=908,FALSE,FALSE,TRUE,FALSE,35.1671129,136.8928098
497,プライムツリー赤池店 | タリーズコーヒー,愛知県,日進市,赤池町箕ノ手1番,赤池駅徒歩21分以上,052-838-5183,"平日：10:00〜21:00
土：10:00〜21:00
日祝：10:00〜21:00",https://map.tullys.co.jp/tullys/detailMap?account=tullys&accmd=0&bid=899,FALSE,FALSE,FALSE,FALSE,35.108621,137.0243969
498,ユニゾイン名古屋栄店 | タリーズコーヒー,愛知県,名古屋市,中区錦3-16-30ユニゾイン名古屋栄1F,栄駅徒歩1分以上,052-684-7065,"平日：7:00〜22:00
土：7:00〜22:00
日祝：7:00〜22:00",https://map.tullys.co.jp/tullys/detailMap?account=tullys&accmd=0&bid=714,TRUE,FALSE,TRUE,TRUE,35.1705883,136.9070443
499,栄セントラルパーク店 | タリーズコーヒー,愛知県,名古屋市,中区錦3-15-13栄セントラルパーク地下街,栄町駅徒歩1分以上,052-959-3070,"平日：7:30〜21:30
土：8:00〜21:30
日祝：9:00〜21:30",https://map.tullys.co.jp/tullys/detailMap?account=tullys&accmd=0&bid=50,TRUE,FALSE,TRUE,FALSE,35.1718548,136.9083397
500,公立陶生病院店 | タリーズコーヒー,愛知県,瀬戸市,西追分町160番地,瀬戸市役所前駅徒歩3分以上,0561-89-5755,"平日：7：30〜20：00
土：9：00〜17：00
日祝：9：00〜17：00",https://map.tullys.co.jp/tullys/detailMap?account=tullys&accmd=0&bid=545,FALSE,FALSE,FALSE,FALSE,35.2261243,137.0820687
501,春日井市民病院店 | タリーズコーヒー,愛知県,春日井市,鷹来町1丁目1-1春日井市民病院1F,上末駅徒歩43分以上,0568-86-3151,"平日：8:00〜19:00
土：9:00〜17:00
日祝：9:00〜17:00",https://map.tullys.co.jp/tullys/detailMap?account=tullys&accmd=0&bid=841,TRUE,FALSE,FALSE,TRUE,35.2717126,136.9692009
502,上郷ＳＡ下り店 | タリーズコーヒー,愛知県,豊田市,永覚町百間圦1-4,永覚駅徒歩7分以上,0565-25-3130,"平日：7：00〜22：00
土：7：00〜22：00
日祝：7：00〜22：00",https://map.tullys.co.jp/tullys/detailMap?account=tullys&accmd=0&bid=373,TRUE,FALSE,TRUE,TRUE,35.030702,137.1346528
503,上郷ＳＡ上り店 | タリーズコーヒー,愛知県,豊田市,永覚町上長根4-1,永覚駅徒歩10分以上,0565-25-2550,"平日：7：00〜22：00
土：7：00〜22：00
日祝：7：00〜22：00",https://map.tullys.co.jp/tullys/detailMap?account=tullys&accmd=0&bid=372,TRUE,FALSE,TRUE,TRUE,35.0332517,137.1355972
504,大名古屋ビルヂング店 | タリーズコーヒー,愛知県,名古屋市,中村区名駅三丁目28番12号大名古屋ビルヂング5F,名古屋駅徒歩1分以上,052-433-1730,"平日：7:30〜21:00
土：10:30〜21:00
日祝：10:30〜21:00",https://map.tullys.co.jp/tullys/detailMap?account=tullys&accmd=0&bid=793,TRUE,FALSE,FALSE,TRUE,35.1720523,136.8844986
505,電気文化会館店 | タリーズコーヒー,愛知県,名古屋市,中区栄2-2-5電気文化会館1F,伏見駅徒歩2分以上,052-229-4401,"平日：8:00〜20:00
土：9:00〜19:00
日祝：9:00〜19:00",https://map.tullys.co.jp/tullys/detailMap?account=tullys&accmd=0&bid=171,TRUE,FALSE,FALSE,FALSE,35.1678321,136.8992753
506,東海荒尾店 | タリーズコーヒー,愛知県,東海市,荒尾町山王前60アピタ東海荒尾店1F,聚楽園駅徒歩5分以上,052-689-1150,"平日：10:00〜21:00
土：10:00〜21:00
日祝：10:00〜21:00",https://map.tullys.co.jp/tullys/detailMap?account=tullys&accmd=0&bid=85,TRUE,FALSE,TRUE,FALSE,35.0395912,136.9057178
507,豊橋駅前店 | タリーズコーヒー,愛知県,豊橋市,駅前大通1-132,新豊橋駅徒歩1分以上,0532-57-2202,"月-木：7:30〜22:00（L.O.21:45）
金-土：7:30〜22:00
日祝：7:30〜22:00",https://map.tullys.co.jp/tullys/detailMap?account=tullys&accmd=0&bid=745,TRUE,TRUE,TRUE,FALSE,34.7628194,137.3827894
508,豊川市民病院店 | タリーズコーヒー,愛知県,豊川市,八幡町野路23番地豊川市民病院１Ｆ,八幡駅徒歩1分以上,0533-83-8005,"平日：7:30〜19:00
土：8:30〜18:00
日祝：8:30〜18:00",https://map.tullys.co.jp/tullys/detailMap?account=tullys&accmd=0&bid=659,TRUE,FALSE,FALSE,FALSE,34.8283846,137.3515366
509,豊田メグリアセントレ店 | タリーズコーヒー,愛知県,豊田市,喜多町1-140GAZAビル2F,豊田市駅徒歩2分以上,0565-36-5505,"平日：10:00〜21:00
土：10:00〜21:00
日祝：10:00〜21:00",https://map.tullys.co.jp/tullys/detailMap?account=tullys&accmd=0&bid=82,TRUE,FALSE,TRUE,FALSE,35.0879332,137.1573845
510,豊田メグリア店 | タリーズコーヒー,愛知県,豊田市,山之手8-92,三河豊田駅徒歩9分以上,0565-74-0885,"平日：9:30〜21:00
土日：9:00〜21:00祝日：9:30〜21:00",https://map.tullys.co.jp/tullys/detailMap?account=tullys&accmd=0&bid=60,TRUE,FALSE,TRUE,FALSE,35.0519557,137.1447404
511,名古屋駅西店 | タリーズコーヒー,愛知県,名古屋市,中村区椿町7番1号OVA211階,近鉄名古屋駅徒歩4分以上,052-462-1433,"平日：7:30〜22:30
土：7:30〜22:30
日祝：7:30〜22:30",https://map.tullys.co.jp/tullys/detailMap?account=tullys&accmd=0&bid=747,TRUE,TRUE,FALSE,TRUE,35.169885,136.879925
512,名古屋第一赤十字病院店 | タリーズコーヒー,愛知県,名古屋市,中村区道下町3-35名古屋第一赤十字病院2階,中村日赤駅徒歩1分以上,052-486-7621,"平日：8:30〜17:30
土：休業日
日祝：休業日",https://map.tullys.co.jp/tullys/detailMap?account=tullys&accmd=0&bid=411,FALSE,FALSE,FALSE,FALSE,35.1718353,136.8623796
513,名古屋滝ノ水店 | タリーズコーヒー,愛知県,名古屋市,緑区滝ノ水5丁目2113番地,有松駅徒歩27分以上,052-842-9882,"平日：8:00〜22:00
土：8:00〜22:00
日祝：8:00〜22:00",https://map.tullys.co.jp/tullys/detailMap?account=tullys&accmd=0&bid=696,TRUE,FALSE,TRUE,TRUE,35.0848634,136.9718251
514,有松店 | タリーズコーヒー,愛知県,名古屋市,緑区南陵601有松ジャンボリーA4棟,共和駅徒歩21分以上,052-626-2570,"平日：9:00〜21:00
土：9:00〜21:00
日祝：9:00〜21:00",https://map.tullys.co.jp/tullys/detailMap?account=tullys&accmd=0&bid=287,TRUE,FALSE,TRUE,TRUE,35.0456528,136.9665007
515,くわなメディアライヴ店 | タリーズコーヒー,三重県,桑名市,中央町3-79くわなメディアライヴ1F,西桑名駅徒歩5分以上,0594-27-5502,"平日：9:00〜21:00
土：9:00〜21:00
日祝：9:00〜21:00",https://map.tullys.co.jp/tullys/detailMap?account=tullys&accmd=0&bid=215,TRUE,FALSE,TRUE,FALSE,35.0628397,136.6870401
516,近鉄四日市店 | タリーズコーヒー,三重県,四日市,市諏訪栄町7-34近鉄百貨店四日市店2Ｆ,近鉄四日市駅徒歩3分以内,059-354-7493,"平日：8:00〜20:00
土：8:00〜20:00
日祝：8:00〜20:00",https://map.tullys.co.jp/tullys/detailMap?account=tullys&accmd=0&bid=926,FALSE,FALSE,FALSE,FALSE,34.967137,136.618985
517,三井アウトレットパーク滋賀竜王店 | タリーズコーヒー,滋賀県,蒲生郡,竜王町大字薬師字砂山1178-694,篠原駅徒歩71分以上,0748-58-3580,"平日：10:00〜20:00
土：10:00〜20:00
日祝：10:00〜20:00",https://map.tullys.co.jp/tullys/detailMap?account=tullys&accmd=0&bid=468,TRUE,FALSE,TRUE,FALSE,35.06084,136.100301
518,滋賀医大病院 | タリーズコーヒー,滋賀県,大津市,瀬田月輪町滋賀医科大学医学部附属病院外来棟1F,瀬田駅徒歩39分以上,077-547-2377,"平日：7:00〜20:00
土：9:00〜18:00
日祝：9:00〜18:00",https://map.tullys.co.jp/tullys/detailMap?account=tullys&accmd=0&bid=577,FALSE,FALSE,FALSE,FALSE,34.9739158,135.9514479
519,ＭＩＮＡＮＯ分倍河原店 | タリーズコーヒー,東京都,府中市,片町3-22-26,分倍河原駅徒歩2分以上,042-352-8455,"平日：8:00〜21:00
土：10:00〜21:00
日祝：10:00〜21:00",https://map.tullys.co.jp/tullys/detailMap?account=tullys&accmd=0&bid=417,TRUE,TRUE,TRUE,FALSE,35.6670374,139.4695373
520,フレスポ府中店 | タリーズコーヒー,東京都,府中市,西原町1-6-2蔦屋書店フレスポ府中店内,北府中駅徒歩14分以上,042-358-6176,"平日：10：00〜22：00
土：9：00〜22：00
日祝：9：00〜22：00",https://map.tullys.co.jp/tullys/detailMap?account=tullys&accmd=0&bid=513,TRUE,TRUE,TRUE,FALSE,35.6823235,139.4606338
521,ホテルユニゾ京都四条烏丸店 | タリーズコーヒー,京都,府京都市,下京区四条通西洞院東入郭巨山町8番外ホテルユニゾ京都四条烏丸1F,烏丸駅徒歩4分以上,075-741-8076,"平日：7:00〜21:00
土：7:00〜21:00
日祝：7:00〜21:00",https://map.tullys.co.jp/tullys/detailMap?account=tullys&accmd=0&bid=732,FALSE,FALSE,TRUE,TRUE,35.0035285,135.7555555
522,宇治徳洲会病院店 | タリーズコーヒー,京都,府宇治市,槙島町石橋145,小倉駅徒歩17分以上,0774-25-5121,"平日：7:30〜19:00
土：7:30〜19:00
日祝：9:30〜17:00",https://map.tullys.co.jp/tullys/detailMap?account=tullys&accmd=0&bid=772,FALSE,FALSE,FALSE,FALSE,34.9031749,135.7871601
523,河原町オーパ店 | タリーズコーヒー,京都,府京都市,中京区河原町通四条上ル河原町オーパB1F,河原町駅徒歩3分以内,075-744-1565,"平日：11:00〜21:00
土：11:00〜21:00
日祝：11:00〜21:00",https://map.tullys.co.jp/tullys/detailMap?account=tullys&accmd=0&bid=838,FALSE,TRUE,FALSE,FALSE,35.0044062,135.7689671
524,祇園花見小路店 | タリーズコーヒー,京都,府京都市,東山区四条通花見小路東入祇園町北側268番地ヤサカ祇園ビル1F,四条駅徒歩4分以上,075-708-8493,"平日：8:00〜22:00
土：8:00〜22:00
日祝：8:00〜22:00",https://map.tullys.co.jp/tullys/detailMap?account=tullys&accmd=0&bid=694,TRUE,FALSE,TRUE,TRUE,35.0040473,135.7750454
525,京都アバンティ店 | タリーズコーヒー,京都,府京都市,南区東九条西山王町31番地京都アバンティ1F,京都駅徒歩4分以上,075-574-7633,"平日：10:00〜21:00
土：10:00〜21:00
日祝：10:00〜21:00",https://map.tullys.co.jp/tullys/detailMap?account=tullys&accmd=0&bid=850,FALSE,FALSE,TRUE,TRUE,34.9835624,135.7602743
526,京都三条通り店 | タリーズコーヒー,京都,府京都市,中京区三条通麩屋町東入弁慶石町50,京都市役所前駅徒歩5分以上,075-748-1850,"平日：7:30〜22:00
土：8:00〜22:00
日祝：8:00〜22:00",https://map.tullys.co.jp/tullys/detailMap?account=tullys&accmd=0&bid=835,TRUE,FALSE,TRUE,TRUE,35.0085162,135.7663367
527,京都寺町通り店 | タリーズコーヒー,京都,府京都市,中京区寺町通三条下る桜之町425−2,京都市役所前駅徒歩5分以上,075-253-6116,"平日：7:30〜22:00
土：7:30〜22:00
日祝：7:30〜22:00",https://map.tullys.co.jp/tullys/detailMap?account=tullys&accmd=0&bid=492,TRUE,FALSE,TRUE,FALSE,35.007639,135.767016
528,京都大学時計台店 | タリーズコーヒー,京都,府京都市,左京区吉田本町36-1京都大学時計台記念館B1F,出町柳駅徒歩12分以上,075-762-1261,"平日：9:00〜19:00
土：9:00〜18:00
日祝：10:00〜18:00",https://map.tullys.co.jp/tullys/detailMap?account=tullys&accmd=0&bid=443,TRUE,FALSE,FALSE,FALSE,35.0259937,135.7808373
529,四条大宮店 | タリーズコーヒー,京都,府京都市,下京区四条通大宮東入立中町495大宮MOMOビル1F,大宮駅徒歩3分以内,075-803-3101,"平日：7:30〜22:00
土：8:00〜22:00
日祝：9:00〜21:00",https://map.tullys.co.jp/tullys/detailMap?account=tullys&accmd=0&bid=89,TRUE,FALSE,TRUE,TRUE,35.0038814,135.7500506
530,府中駅南口店 | タリーズコーヒー,東京都,府中市,宮町一丁目100番地ル・シーニュ1F,府中競馬正門前駅徒歩8分以上,042-306-7880,"平日：8:00〜22:00
土：8:00〜22:00
日祝：8:00〜2200",https://map.tullys.co.jp/tullys/detailMap?account=tullys&accmd=0&bid=884,FALSE,FALSE,TRUE,FALSE,35.671979,139.479497
531,嵐電嵐山駅店 | タリーズコーヒー,京都,府京都市,右京区嵯峨天龍寺造路町20-2,嵐山駅徒歩3分以内,075-863-0014,"平日：9:00〜20:00
土：9:00〜20:00
日祝：9:00〜20:00",https://map.tullys.co.jp/tullys/detailMap?account=tullys&accmd=0&bid=687,FALSE,FALSE,FALSE,FALSE,35.0153238,135.6777089
532,立命館大学衣笠キャンパス店 | タリーズコーヒー,京都,府京都市,北区等持院北町56-1平井嘉一郎記念図書館1F,等持院駅徒歩9分以上,075-406-5633,"平日：9:00〜19:00
土：10:00〜17:00
日：10:00〜17:00（祝日・休館日：休業日）",https://map.tullys.co.jp/tullys/detailMap?account=tullys&accmd=0&bid=822,TRUE,FALSE,FALSE,TRUE,35.0341684,135.7252304
533,JCHO大阪病院店 | タリーズコーヒー,大阪府,大阪市,福島区福島4-2-78,福島駅徒歩5分以上,06-6147-5587,"平日：7:30〜19:00
土：8:00〜18:00
日祝：8:00〜18:00",https://map.tullys.co.jp/tullys/detailMap?account=tullys&accmd=0&bid=762,TRUE,TRUE,FALSE,TRUE,34.6919847,135.4831529
534,ＫＫＲホテル梅田店 | タリーズコーヒー,大阪府,大阪市,北区堂山町4-1,東梅田駅徒歩4分以上,06-6130-8069,"平日：7:00〜21:00
土：7:00〜21:00
日祝：7:00〜21:00",https://map.tullys.co.jp/tullys/detailMap?account=tullys&accmd=0&bid=463,TRUE,FALSE,TRUE,TRUE,34.7024729,135.5026175
535,KUZUHA MALL店 | タリーズコーヒー,大阪府,枚方市,楠葉花園町15-1,樟葉駅徒歩2分以上,072-807-7523,"平日：10:00〜21:00
土：10:00〜21:00
日祝：10:00〜21:00",https://map.tullys.co.jp/tullys/detailMap?account=tullys&accmd=0&bid=702,TRUE,FALSE,TRUE,FALSE,34.8613441,135.6774993
536,ＯＢＰクリスタルタワー店 | タリーズコーヒー,大阪府,大阪市,中央区城見1-2-27クリスタルタワー1F,大阪ビジネスパーク駅徒歩3分以内,06-4791-7766,"平日：7:30〜19:00
土：10:00〜18:00
日祝：11:00〜18:00",https://map.tullys.co.jp/tullys/detailMap?account=tullys&accmd=0&bid=90,TRUE,FALSE,TRUE,FALSE,34.6921404,135.5286615
537,PAUSE なんばパークス店 | タリーズコーヒー,大阪府,大阪市,浪速区難波中2丁目10番70号PAUSEなんばパークス5F,難波駅徒歩3分以上,06-4395-5061,"平日：11:00〜21:00
土：11:00〜21:00
日祝：11:00〜21:00",https://map.tullys.co.jp/tullys/detailMap?account=tullys&accmd=0&bid=820,TRUE,FALSE,TRUE,FALSE,34.6613774,135.5023591
538,with U 吹田グリーンプレイス店 | タリーズコーヒー,大阪府,吹田市,片山町2丁目3番11号吹田グリーンプレイス内,吹田駅徒歩9分以上,06-6318-7443,"平日：8:00〜21:00
土：8:00〜21:00
日祝：8:00〜21:00",https://map.tullys.co.jp/tullys/detailMap?account=tullys&accmd=0&bid=833,TRUE,FALSE,TRUE,TRUE,34.7654062,135.5194337
539,アル・プラザ高槻店 | タリーズコーヒー,大阪府,高槻市,芥川町1-2C-0201号,高槻駅徒歩1分以上,072-682-5139,"平日：9:00〜22:00
土：9:00〜22:00
日祝：9:00〜22:00",https://map.tullys.co.jp/tullys/detailMap?account=tullys&accmd=0&bid=165,TRUE,FALSE,TRUE,FALSE,34.8521135,135.6161994
540,イオンモール堺鉄砲町店 | タリーズコーヒー,大阪府,堺市,堺区鉄砲町1番地イオンモール堺鉄砲町2F,七道駅徒歩4分以上,072-227-6262,"平日：10:00〜21:00
土：10:00〜21:00
日祝：10:00〜21:00",https://map.tullys.co.jp/tullys/detailMap?account=tullys&accmd=0&bid=826,TRUE,FALSE,FALSE,FALSE,34.5940509,135.4812012
541,イオン箕面店 | タリーズコーヒー,大阪府,箕面市,西宿1-15-30イオン箕面2F,箕面駅徒歩27分以上,072-726-1771,"平日：9:00〜22:00
土：9:00〜22:00
日祝：9:00〜22:00",https://map.tullys.co.jp/tullys/detailMap?account=tullys&accmd=0&bid=141,TRUE,FALSE,TRUE,FALSE,34.833012,135.489385
542,オリックス本町ビル店 | タリーズコーヒー,大阪府,大阪市,西区西本町1丁目4-1地下1階,本町駅徒歩4分以上,06-6535-9000,"平日：8：00〜20：00
土：休業日祝：休業",https://map.tullys.co.jp/tullys/detailMap?account=tullys&accmd=0&bid=515,TRUE,TRUE,TRUE,FALSE,34.682592,135.497341
543,グランフロント大阪北館1F店 | タリーズコーヒー,大阪府,大阪市,北区大深町3番1号グランフロント大阪北館1F,梅田駅徒歩4分以上,06-6359-2280,"平日：7:00〜22:00
土：7:00〜22:00
日祝：7:00〜22:00",https://map.tullys.co.jp/tullys/detailMap?account=tullys&accmd=0&bid=638,TRUE,TRUE,TRUE,FALSE,34.705922,135.4947142
544,グランフロント大阪北館9F店 | タリーズコーヒー,大阪府,大阪市,北区大深町3番1号グランフロント大阪北館9F,梅田駅徒歩4分以上,06-6359-5708,"平日：7:30〜20:00
土：9:00〜20:00
日祝：9:00〜20:00",https://map.tullys.co.jp/tullys/detailMap?account=tullys&accmd=0&bid=658,TRUE,FALSE,TRUE,FALSE,34.705161,135.4948121
545,ザ パーク フロント ホテル店 | タリーズコーヒー,大阪府,大阪市,此花区島屋6-2-52301,ユニバーサルシティ駅徒歩1分以上,06-6131-8802,"平日：7:00〜21:00
土：7:00〜22:00
日祝：7:00〜22:00",https://map.tullys.co.jp/tullys/detailMap?account=tullys&accmd=0&bid=778,TRUE,FALSE,TRUE,TRUE,34.6677335,135.4370912
546,シティプラザ大阪店 | タリーズコーヒー,大阪府,大阪市,中央区本町橋2-31シティプラザ大阪内,堺筋本町駅徒歩6分以上,06-6910-4588,"平日：8:00〜21:00
土：8:00〜21:00
日祝：8:00〜21:00",https://map.tullys.co.jp/tullys/detailMap?account=tullys&accmd=0&bid=749,TRUE,FALSE,FALSE,FALSE,34.68425,135.5106202
547,タリーズコーヒー・ナチュラルステーション りんくうプレミアム・アウトレット店 | タリーズコーヒー,大阪府,泉佐野市,りんくう往来南4-17りんくうプレミアム・アウトレット区画番号6235,りんくうタウン駅徒歩6分以上,072-461-0541,"平日：10:00〜20:00
土：10:00〜20:00
日祝：10:00〜20:00",https://map.tullys.co.jp/tullys/detailMap?account=tullys&accmd=0&bid=589,FALSE,FALSE,FALSE,FALSE,34.4078628,135.2955643
548,タリーズコーヒー・ナチュラルステーション阪急石橋店 | タリーズコーヒー,大阪府,池田市,石橋2-18-1阪急石橋駅梅田行きホーム（改札内）,石橋駅徒歩3分以内,072-760-5135,"平日：7:00〜22:00
土：7:00〜22:00
日祝：7:00〜22:00",https://map.tullys.co.jp/tullys/detailMap?account=tullys&accmd=0&bid=672,TRUE,TRUE,FALSE,FALSE,34.807899,135.445755
549,なんばＥＫＩＫＡＮ店 | タリーズコーヒー,大阪府,大阪市,浪速区敷津東2-1-4,今宮戎駅徒歩2分以上,06-6630-8602,"平日：8:00〜21:00
土：8:00〜21:00
日祝：8:00〜21:00",https://map.tullys.co.jp/tullys/detailMap?account=tullys&accmd=0&bid=753,TRUE,TRUE,TRUE,FALSE,34.6571613,135.5014746
550,パシフィックマークス江坂店 | タリーズコーヒー,大阪府,吹田市,豊津町9-1パシフィックマークス江坂1F,堂法寺駅徒歩6分以上,06-6319-9848,"平日：8:00〜21:00
土：8:00〜21:00
日祝：8:00〜21:00",https://map.tullys.co.jp/tullys/detailMap?account=tullys&accmd=0&bid=684,TRUE,TRUE,TRUE,TRUE,34.7596242,135.496381
551,ホテル阪神店 | タリーズコーヒー,大阪府,大阪市,福島区福島5-6-16,新福島駅徒歩3分以上,06-6454-1784,"平日：7:00〜22:00
土：7:00〜22:00
日祝：7:00〜22:00",https://map.tullys.co.jp/tullys/detailMap?account=tullys&accmd=0&bid=760,FALSE,TRUE,TRUE,FALSE,34.6972009,135.4877663
552,ヤマダ電機なんば店 | タリーズコーヒー,大阪府,大阪市,浪速区難波中2-11-352F,難波駅徒歩6分以上,06-6634-1600,"平日：10:00〜22:00
土：10:00〜22:00
日祝：10:00〜22:00",https://map.tullys.co.jp/tullys/detailMap?account=tullys&accmd=0&bid=290,TRUE,FALSE,FALSE,FALSE,34.6599054,135.5012662
553,ららぽーとEXPOCITY店 | タリーズコーヒー,大阪府,吹田市,千里万博公園2-13F30620,万博記念公園駅徒歩5分以上,06-4864-8104,"平日：10:00〜21:00
土：10:00〜21:00
日祝：10:00〜21:00",https://map.tullys.co.jp/tullys/detailMap?account=tullys&accmd=0&bid=797,TRUE,FALSE,TRUE,FALSE,34.805489,135.5344664
554,ららぽーと和泉店 | タリーズコーヒー,大阪府,和泉市,あゆみ野4-4-72階22200,和泉中央駅徒歩40分以上,072-551-2467,"平日：10:00〜21:00
土：10:00〜21:00
日祝：10:00〜21:00",https://map.tullys.co.jp/tullys/detailMap?account=tullys&accmd=0&bid=728,FALSE,FALSE,TRUE,FALSE,34.4369218,135.4481532
555,りんくうシークル店 | タリーズコーヒー,大阪府,泉佐野市,りんくう往来南3りんくうプレジャータウンシークル1F,りんくうタウン駅徒歩4分以上,072-458-2233,"平日：9:00〜22:00
土：9:00〜22:00
日祝：9:00〜22:00",https://map.tullys.co.jp/tullys/detailMap?account=tullys&accmd=0&bid=345,TRUE,FALSE,TRUE,FALSE,34.4089243,135.2974797
556,花のれんタリーズコーヒー なんばグランド花月店 | タリーズコーヒー,大阪府,大阪市,中央区難波千日前11-6なんばグランド花月1F,難波駅徒歩2分以上,06-6575-9078,"平日：8:00〜22:00
土：8:00〜22:00
日祝：8:00〜22:00",https://map.tullys.co.jp/tullys/detailMap?account=tullys&accmd=0&bid=918,FALSE,FALSE,FALSE,FALSE,34.6649869,135.5036556
557,関西空港南ウイング店 | タリーズコーヒー,大阪府,泉南郡,田尻町泉州空港中1,関西空港駅徒歩8分以上,072-456-6405,"平日：6：30〜24：15
土：6：30〜24：15
日祝：6：30〜24：15",https://map.tullys.co.jp/tullys/detailMap?account=tullys&accmd=0&bid=527,FALSE,FALSE,FALSE,FALSE,34.4335404,135.2378186
558,関西空港北ウィング店 | タリーズコーヒー,大阪府,泉佐野市,泉州空港北1,関西空港駅徒歩16分以上,072-456-6404,"平日：8:00〜21:30
土：8:00〜21:30
日祝：8:00〜21:30",https://map.tullys.co.jp/tullys/detailMap?account=tullys&accmd=0&bid=526,FALSE,FALSE,FALSE,FALSE,34.4438866,135.2520562
559,丸の内 CAFE 会 イオンモール四條畷店 | タリーズコーヒー,大阪府,四條畷市,砂四丁目3番2号イオンモール四條畷2F,忍ヶ丘駅徒歩20分以上,072-800-5254,"平日：9:00〜23:00(L.O.22:00)
土：9:00〜23:00(L.O.22:00)
日祝：9:00〜23:00(L.O.22:00)",https://map.tullys.co.jp/tullys/detailMap?account=tullys&accmd=0&bid=790,FALSE,FALSE,FALSE,FALSE,34.746252,135.629635
560,近鉄あべのハルカス店 | タリーズコーヒー,大阪府,大阪市,阿倍野区阿倍野筋1-1-43あべのハルカス近鉄本店タワー館10F,天王寺駅前駅徒歩3分以内,06-6654-6415,"平日：10:00〜20:00
土：10:00〜20:00
日祝：10:00〜20:00",https://map.tullys.co.jp/tullys/detailMap?account=tullys&accmd=0&bid=660,TRUE,TRUE,FALSE,FALSE,34.6460591,135.513767
561,近鉄難波ビル店 | タリーズコーヒー,大阪府,大阪市,中央区難波4-1-1近鉄難波ビル,なんば駅徒歩3分以内,06-6616-9861,"平日：8:00〜22:00
土：8:00〜22:00
日祝：8:00〜22:00",https://map.tullys.co.jp/tullys/detailMap?account=tullys&accmd=0&bid=869,FALSE,FALSE,FALSE,FALSE,34.6667761,135.4997842
562,御堂筋本町ビル店 | タリーズコーヒー,大阪府,大阪市,中央区本町3丁目5番7号御堂筋本町ビルB1F,本町駅徒歩4分以上,06-6265-2620,"平日：7:30〜21:30
土：7:30〜21:30
日祝：休業日",https://map.tullys.co.jp/tullys/detailMap?account=tullys&accmd=0&bid=803,TRUE,FALSE,TRUE,FALSE,34.6843249,135.5011543
563,光明池店 | タリーズコーヒー,大阪府,和泉市,室堂町824-36COMBOX光明池2F,光明池駅徒歩4分以上,0725-57-4147,"平日：9:00〜22:00（L.O.21:30）
土：9:00〜22:00（L.O.21:30）
日祝：9:00〜22:00（L.O.21:30）",https://map.tullys.co.jp/tullys/detailMap?account=tullys&accmd=0&bid=185,FALSE,FALSE,TRUE,TRUE,34.4718184,135.4759775
564,阪急うめだ本店 8階店 | タリーズコーヒー,大阪府,大阪市,北区角田町8番7号阪急うめだ本店8階,東梅田駅徒歩1分以上,06-6313-1582,"月〜木：10:00〜20:00金・土：10:00〜21:00
日祝：10:00〜20:00",https://map.tullys.co.jp/tullys/detailMap?account=tullys&accmd=0&bid=609,FALSE,FALSE,FALSE,FALSE,34.7028186,135.4985323
565,阪急三番街南館店 | タリーズコーヒー,大阪府,大阪市,北区芝田1-1-3阪急三番街南館１Ｆ,梅田駅徒歩3分以内,06-6377-0777,"平日：7:00〜23:00
土：7:00〜23:00
日祝：7:00〜23:00",https://map.tullys.co.jp/tullys/detailMap?account=tullys&accmd=0&bid=662,TRUE,FALSE,TRUE,FALSE,34.706044,135.498436
566,阪急三番街北館店 | タリーズコーヒー,大阪府,大阪市,北区芝田1-1-3阪急三番街北館1F,梅田駅徒歩3分以内,06-6376-5531,"平日：7：30〜22：00
土：8：00〜22：00
日祝：8：00〜22：00",https://map.tullys.co.jp/tullys/detailMap?account=tullys&accmd=0&bid=540,TRUE,TRUE,FALSE,FALSE,34.706044,135.498436
567,堺筋本町店 | タリーズコーヒー,大阪府,大阪市,中央区南本町1-7-15明治安田生命堺筋本町ビル1F,堺筋本町駅徒歩3分以内,06-6262-4147,"平日：7:30〜21:30
土：8:00〜20:00
日祝：9:30〜20:00",https://map.tullys.co.jp/tullys/detailMap?account=tullys&accmd=0&bid=127,TRUE,FALSE,TRUE,TRUE,34.6823965,135.5068545
568,三井アウトレットパーク大阪鶴見店 | タリーズコーヒー,大阪府,大阪市,鶴見区茨田大宮2-7-70,門真南駅徒歩7分以上,06-6913-1777,"平日：11:00〜21:00
土：10:00〜21:00
日祝：10:00〜21:00",https://map.tullys.co.jp/tullys/detailMap?account=tullys&accmd=0&bid=301,FALSE,FALSE,TRUE,FALSE,34.7121428,135.5929906
569,新大阪阪急ビル店 | タリーズコーヒー,大阪府,大阪市,淀川区宮原1丁目1番1号新大阪阪急ビル3F,新大阪駅徒歩2分以上,06-4807-7718,"平日：7:00〜22:00
土：7:00〜22:00
日祝：7:00〜22:00",https://map.tullys.co.jp/tullys/detailMap?account=tullys&accmd=0&bid=591,TRUE,TRUE,TRUE,TRUE,34.7340232,135.5000788
570,西梅田店 | タリーズコーヒー,大阪府,大阪市,北区梅田3丁目大阪駅前地下街7号,西梅田駅徒歩1分以上,06-6348-8858,"平日：7:00〜22:30
土：7:00〜22:30
日祝：7:00〜22:30",https://map.tullys.co.jp/tullys/detailMap?account=tullys&accmd=0&bid=669,TRUE,TRUE,FALSE,TRUE,34.7007229,135.4959154
571,大丸梅田店 | タリーズコーヒー,大阪府,大阪市,北区梅田3-1-1大丸梅田5F,大阪駅徒歩1分以上,06-6457-4147,"月〜木：10:00〜20:30 金：10:00〜21:00
土：10:00〜21:00
日祝：10:00〜20:30",https://map.tullys.co.jp/tullys/detailMap?account=tullys&accmd=0&bid=740,FALSE,FALSE,FALSE,FALSE,34.7013293,135.4961111
572,大阪ステーションシティ店 | タリーズコーヒー,大阪府,大阪市,北区梅田3丁目1-3ノースゲートビルディング11階,大阪駅徒歩1分以上,06-6341-3139,"平日：7：30〜22：00
土：8：30〜22：00
日祝：8：30〜22：00",https://map.tullys.co.jp/tullys/detailMap?account=tullys&accmd=0&bid=514,FALSE,FALSE,TRUE,FALSE,34.7029792,135.4951339
573,大阪三井物産ビル店 | タリーズコーヒー,大阪府,大阪市,北区中之島2-3-33,肥後橋駅徒歩3分以上,06-6203-0008,"平日：8:00〜19:00
土：休業日
日祝：休業日",https://map.tullys.co.jp/tullys/detailMap?account=tullys&accmd=0&bid=58,TRUE,FALSE,TRUE,TRUE,34.6937127,135.4973849
574,大阪城公園駅前店 | タリーズコーヒー,大阪府,大阪市,中央区大阪城3-1,大阪城公園駅徒歩4分以上,06-6949-2121,"平日：8:00〜20:00
土：8:00〜20:00
日祝：8:00〜20:00",https://map.tullys.co.jp/tullys/detailMap?account=tullys&accmd=0&bid=887,FALSE,FALSE,FALSE,FALSE,34.6893081,135.5317849
575,大阪城天守閣前店 | タリーズコーヒー,大阪府,大阪市,中央区大阪城1-1ミライザ大阪城1F,大阪ビジネスパーク駅徒歩10分以上,06-6942-3050,"平日：9:00〜19:00
土：9:00〜19:00
日祝：9:00〜19:00",https://map.tullys.co.jp/tullys/detailMap?account=tullys&accmd=0&bid=906,FALSE,FALSE,FALSE,FALSE,34.6858783,135.5265243
576,大阪赤十字病院店 | タリーズコーヒー,大阪府,大阪市,天王寺区筆ヶ崎町5-30本館2F,鶴橋駅徒歩7分以上,06-6773-3004,"平日：7:00〜20:00
土：9:00〜18:00
日祝：9:00〜18:00",https://map.tullys.co.jp/tullys/detailMap?account=tullys&accmd=0&bid=683,TRUE,FALSE,FALSE,TRUE,34.664605,135.5254805
577,天王寺公園店 | タリーズコーヒー,大阪府,大阪市,天王寺区茶臼山町5番55号,天王寺駅徒歩2分以上,06-6711-0911,"平日：8:00〜21:00
土：8:00〜21:00
日祝：8:00〜21:00",https://map.tullys.co.jp/tullys/detailMap?account=tullys&accmd=0&bid=789,TRUE,TRUE,TRUE,TRUE,34.6480929,135.5115989
578,堂島新藤田ビル店 | タリーズコーヒー,大阪府,大阪市,北区堂島2-4-27新藤田ビル1F,北新地駅徒歩6分以上,06-4796-5514,"平日：7:30〜20:00
土：休業日
日祝：休業日",https://map.tullys.co.jp/tullys/detailMap?account=tullys&accmd=0&bid=203,TRUE,FALSE,TRUE,TRUE,34.6957981,135.4929358
579,梅田ＮＵ ｃｈａｙａｍａｃｈｉ店 | タリーズコーヒー,大阪府,大阪市,北区茶屋町10-3,梅田駅徒歩1分以上,06-6375-2166,"平日：8:30〜22:30
土：8:30〜22:30
日祝：8:30〜22:30",https://map.tullys.co.jp/tullys/detailMap?account=tullys&accmd=0&bid=276,TRUE,FALSE,TRUE,FALSE,34.7066946,135.4991428
580,梅田スクエアビルディング店 | タリーズコーヒー,大阪府,大阪市,北区梅田1-12-17,東梅田駅徒歩2分以上,06-6346-0385,"平日：7:30〜23:00
土：8:00〜23:00
日祝：8:00〜23:00",https://map.tullys.co.jp/tullys/detailMap?account=tullys&accmd=0&bid=53,TRUE,FALSE,TRUE,TRUE,34.7004702,135.497968
581,梅田阪急ビル店 | タリーズコーヒー,大阪府,大阪市,北区角田町8-1梅田阪急ビルオフィスタワー15F,東梅田駅徒歩3分以内,06-6365-0566,"平日：8:00〜21:00
土：10:00〜21:00
日祝：10:00〜21:00",https://map.tullys.co.jp/tullys/detailMap?account=tullys&accmd=0&bid=462,TRUE,TRUE,TRUE,TRUE,34.7023693,135.4990711
582,梅田茶屋町ＭＢＳ店 | タリーズコーヒー,大阪府,大阪市,北区茶屋町17-1毎日放送本社ビル1F,梅田駅徒歩3分以上,06-6359-2020,"平日：8:00〜22:30
土：8:00〜22:30
（日祝前日）日祝：8:00〜22:30",https://map.tullys.co.jp/tullys/detailMap?account=tullys&accmd=0&bid=186,TRUE,TRUE,TRUE,FALSE,34.7083916,135.4998983
583,府立総合医療センター店 | タリーズコーヒー,大阪府,大阪市,住吉区万代東3-1-56,帝塚山四丁目駅徒歩8分以上,06-6690-5560,"平日：7:00〜20:00
土：9:00〜19:00
日祝：9:00〜19:00",https://map.tullys.co.jp/tullys/detailMap?account=tullys&accmd=0&bid=408,TRUE,FALSE,FALSE,FALSE,34.6169745,135.5056779
584,淀屋橋店 | タリーズコーヒー,大阪府,大阪市,中央区高麗橋4-2-16大阪朝日生命会館1F,淀屋橋駅徒歩4分以上,06-6202-0177,"平日：7:00〜21:00
土：7:30〜20:00
日祝：8:00〜20:00",https://map.tullys.co.jp/tullys/detailMap?account=tullys&accmd=0&bid=65,TRUE,TRUE,TRUE,TRUE,34.689752,135.500399
585,PLiCO六甲道店 | タリーズコーヒー,兵庫県,神戸市,灘区永手町4-1-1プリコ六甲道中央館2F,六甲道駅徒歩3分以内,078-200-5786,"平日：7:30〜21:00
土：8:00〜21:00
日祝：8:00〜21:00",https://map.tullys.co.jp/tullys/detailMap?account=tullys&accmd=0&bid=695,TRUE,FALSE,TRUE,TRUE,34.715006,135.238635
586,TSUKASHiN店 | タリーズコーヒー,兵庫県,尼崎市,塚口本町4-8-1「グンゼタウンセンターつかしん」内にしまち１F,稲野駅徒歩6分以上,06-6422-5057,"平日：9:00〜22:00
土：9:00〜22:00
日祝：9:00〜22:00",https://map.tullys.co.jp/tullys/detailMap?account=tullys&accmd=0&bid=605,TRUE,FALSE,TRUE,FALSE,34.7611067,135.4179347
587,TSUTAYA 西明石店 | タリーズコーヒー,兵庫県,明石市,藤江中谷928,西明石駅徒歩12分以上,078-929-8310,"平日：10:00〜22:00
土：10:00〜22:00
日祝：10:00〜22:00",https://map.tullys.co.jp/tullys/detailMap?account=tullys&accmd=0&bid=858,FALSE,FALSE,FALSE,FALSE,34.672237,134.953134
588,with U 西宮阪急店 | タリーズコーヒー,兵庫県,西宮市,高松町14-1西宮阪急4F,西宮北口駅徒歩3分以上,0798-62-7647,"平日：10:00〜20:00
土：10:00〜20:00
祝日：10:00〜20:00",https://map.tullys.co.jp/tullys/detailMap?account=tullys&accmd=0&bid=915,FALSE,FALSE,FALSE,FALSE,34.7440354,135.3586876
589,イオンモール神戸南店 | タリーズコーヒー,兵庫県,神戸市,兵庫区中之島2丁目1番1号イオンモール神戸南1F,中央市場前駅徒歩2分以上,078-335-8304,"平日：9:00〜21:00
土：9:00〜21:00
日祝：9:00〜21:00",https://map.tullys.co.jp/tullys/detailMap?account=tullys&accmd=0&bid=905,FALSE,FALSE,FALSE,FALSE,34.6658113,135.1740938
590,イオンモール神戸北店 | タリーズコーヒー,兵庫県,神戸市,北区上津台8-1-1イオンモール神戸北1F,道場南口駅徒歩36分以上,078-940-5508,"平日：9:00〜21:00
土：9:00〜21:00
日祝：9:00〜21:00",https://map.tullys.co.jp/tullys/detailMap?account=tullys&accmd=0&bid=868,FALSE,FALSE,FALSE,FALSE,34.8609218,135.1958864
591,ヤマトヤシキ加古川店 | タリーズコーヒー,兵庫県,加古川市,加古川町篠原21-8ヤマトヤシキ百貨店加古川店1F,加古川駅徒歩2分以上,079-456-1450,"平日：8:00〜21:00
土：8:00〜21:00
日祝：8:00〜21:00",https://map.tullys.co.jp/tullys/detailMap?account=tullys&accmd=0&bid=583,TRUE,FALSE,TRUE,FALSE,34.7662492,134.8390196
592,伊丹店 | タリーズコーヒー,兵庫県,伊丹市,中央3-5,伊丹駅徒歩5分以上,072-783-1010,"平日：7:00〜23:00
土：7:00〜23:00
日祝：7:00〜23:00",https://map.tullys.co.jp/tullys/detailMap?account=tullys&accmd=0&bid=746,FALSE,TRUE,FALSE,FALSE,34.7805288,135.4174705
593,加古川中央市民病院店 | タリーズコーヒー,兵庫県,加古川市,加古川町本町439番地加古川中央市民病院1F,加古川駅徒歩11分以上,079-456-6188,"平日：7:00〜19:00
土：8:00〜18:00
日祝：8:00〜18:00",https://map.tullys.co.jp/tullys/detailMap?account=tullys&accmd=0&bid=842,FALSE,FALSE,FALSE,FALSE,34.7714262,134.8324607
594,阪急三宮サンキタ通り店 | タリーズコーヒー,兵庫県,神戸市,中央区北長狭通1-1-1神戸阪急ビル西館1階,三宮駅徒歩3分以上,078-335-0650,"月〜木：7:00〜23:00
金・土：7:00〜23:00
日祝：7:00〜23:00",https://map.tullys.co.jp/tullys/detailMap?account=tullys&accmd=0&bid=568,TRUE,TRUE,TRUE,TRUE,34.693282,135.1929474
595,阪急西宮ガーデンズ店 | タリーズコーヒー,兵庫県,西宮市,高松町14-2-104阪急西宮ガーデンズ1F,西宮北口駅徒歩5分以上,0798-61-0080,"平日：10:00〜21:00
土：10:00〜21:00
日祝：10:00〜21:00",https://map.tullys.co.jp/tullys/detailMap?account=tullys&accmd=0&bid=403,TRUE,TRUE,TRUE,FALSE,34.7439412,135.3598934
596,阪急西宮北口店 | タリーズコーヒー,兵庫県,西宮市,高松町6-20区画番号140-206,西宮北口駅徒歩3分以内,0798-65-8230,"平日：7:00〜22:00
土：7:00〜22:00
日祝：7:00〜22:00",https://map.tullys.co.jp/tullys/detailMap?account=tullys&accmd=0&bid=861,FALSE,FALSE,FALSE,FALSE,34.7458987,135.3566464
597,三井アウトレットパークマリンピア神戸店 | タリーズコーヒー,兵庫県,神戸市,垂水区海岸通12-2三井アウトレットパークマリンピア神戸ファクトリーアウトレッツセントラル2F,垂水駅徒歩7分以上,078-704-5703,"平日：10:00〜20:00
土：10:00〜20:00
日祝：10:00〜20:00",https://map.tullys.co.jp/tullys/detailMap?account=tullys&accmd=0&bid=399,TRUE,FALSE,TRUE,FALSE,34.6266114,135.0484142
598,神戸ファッションマート店 | タリーズコーヒー,兵庫県,神戸市,東灘区向洋町中6-9神戸ファッションマート1F,アイランドセンター駅徒歩1分以上,078-845-2007,"平日：7:30〜20:00
土：8:30〜20:00
日祝：8:30〜20:00",https://map.tullys.co.jp/tullys/detailMap?account=tullys&accmd=0&bid=76,TRUE,FALSE,TRUE,FALSE,34.6891397,135.2681585
599,神戸中央市民病院店 | タリーズコーヒー,兵庫県,神戸市,中央区港島南町２丁目１番１号,南公園駅徒歩8分以上,078-304-7886,"平日：7：00〜20：00
土曜：9：00〜18：00
日祝：9：00〜18：00",https://map.tullys.co.jp/tullys/detailMap?account=tullys&accmd=0&bid=533,FALSE,FALSE,FALSE,FALSE,34.6598834,135.2143907
600,神戸北野坂店 | タリーズコーヒー,兵庫県,神戸市,中央区山本通1-7-16ダルビッシュコート1-2F,三ノ宮駅徒歩8分以上,078-241-0668,"平日：8:00〜20:00
土：8:00〜20:00
日祝：8:00〜20:00",https://map.tullys.co.jp/tullys/detailMap?account=tullys&accmd=0&bid=688,FALSE,FALSE,TRUE,TRUE,34.6988672,135.1911868
601,兵庫医科大学病院店 | タリーズコーヒー,兵庫県,西宮市,武庫川町1番１号1号館附属棟3F,武庫川駅徒歩2分以上,0798-44-0360,"平日：7:00〜20:00
土：7:00〜20:00
日・祝：7:00〜20:00",https://map.tullys.co.jp/tullys/detailMap?account=tullys&accmd=0&bid=556,FALSE,FALSE,FALSE,TRUE,34.7186704,135.3791633
602,宝塚店 | タリーズコーヒー,兵庫県,宝塚市,向月町3-1,清荒神駅徒歩11分以上,0797-85-1122,"平日：7:00〜23:00
土：7:00〜23:00
日祝：7:00〜23:00",https://map.tullys.co.jp/tullys/detailMap?account=tullys&accmd=0&bid=729,FALSE,FALSE,FALSE,FALSE,34.8061916,135.3601644
603,宝塚北SA店 | タリーズコーヒー,兵庫県,宝塚市,玉瀬字奥之焼1-125,武田尾駅徒歩17分以上,079-724-9023,"平日：8:00〜22:00
土：8:00〜22:00
日祝：8:00〜22:00",https://map.tullys.co.jp/tullys/detailMap?account=tullys&accmd=0&bid=922,FALSE,FALSE,FALSE,FALSE,34.8654185,135.3104202
604,奈良ファミリー店 | タリーズコーヒー,奈良県,奈良市,西大寺東町2-4-1奈良ファミリーB1F,大和西大寺駅徒歩3分以上,0742-30-1320,"平日：9:00〜21:00
土：9:00〜21:00
日祝：9:00〜21:00",https://map.tullys.co.jp/tullys/detailMap?account=tullys&accmd=0&bid=98,TRUE,FALSE,TRUE,FALSE,34.6951079,135.7852128
605,TSUTAYA WAY 橋本店 | タリーズコーヒー,和歌山県,橋本市,妻2-2-25,橋本駅徒歩11分以上,0736-39-3009,"平日：9:00〜21:00
土：9:00〜21:00
日祝：9:00〜21:00",https://map.tullys.co.jp/tullys/detailMap?account=tullys&accmd=0&bid=665,FALSE,FALSE,FALSE,FALSE,34.3200498,135.6234831
606,日本赤十字社和歌山医療センター店 | タリーズコーヒー,和歌山県,和歌山市,小松原通4-20,築地橋駅徒歩15分以上,073-435-0234,"平日：7：00〜19：00
土：11：00〜18：00
日祝：11：00〜18：00",https://map.tullys.co.jp/tullys/detailMap?account=tullys&accmd=0&bid=546,TRUE,FALSE,FALSE,FALSE,34.2203986,135.1685836
607,和歌山MIO店 | タリーズコーヒー,和歌山県,和歌山市,美園町5-61和歌山MIO1F,和歌山駅徒歩1分以上,073-402-7484,"平日：7:30〜20:00
土：7:30〜20:00
日祝：7:30〜20:00",https://map.tullys.co.jp/tullys/detailMap?account=tullys&accmd=0&bid=754,TRUE,FALSE,FALSE,FALSE,34.2321061,135.1911398
608,和歌山マリーナシティ店 | タリーズコーヒー,和歌山県,和歌山市,毛見1527番地,冷水浦駅徒歩29分以上,073-446-7536,"平日：10:00〜18:00
土：10:00〜18:00
日祝：10:00〜18:00",https://map.tullys.co.jp/tullys/detailMap?account=tullys&accmd=0&bid=876,FALSE,FALSE,FALSE,FALSE,34.154115,135.1760645
609,鳥取大学医学部附属病院店 | タリーズコーヒー,鳥取県,米子市,西町36-11F,米子駅徒歩18分以上,0859-39-2555,"平日：7:00〜19:00
土：10：00〜17：00
日祝：10:00〜17:00",https://map.tullys.co.jp/tullys/detailMap?account=tullys&accmd=0&bid=711,FALSE,FALSE,FALSE,TRUE,35.4288104,133.3246256
610,イオンモール出雲店 | タリーズコーヒー,島根県,出雲市,渡橋町1066イオンモール出雲1F,電鉄出雲市駅徒歩23分以上,0853-24-7321,"平日：9:00〜21:00
土：9:00〜21:00
日祝：9:00〜21:00",https://map.tullys.co.jp/tullys/detailMap?account=tullys&accmd=0&bid=815,TRUE,FALSE,FALSE,FALSE,35.367586,132.73903
611,出雲店 | タリーズコーヒー,島根県,出雲市,高岡1237-1,武志駅徒歩15分以上,0853-20-0961,"平日：10:00〜22:00
土：10:00〜22:00
日祝：10:00〜22:00",https://map.tullys.co.jp/tullys/detailMap?account=tullys&accmd=0&bid=270,TRUE,FALSE,TRUE,TRUE,35.3837555,132.7622326
612,松江店 | タリーズコーヒー,島根県,松江市,東朝日町151イオン松江1F,松江駅徒歩8分以上,0852-20-2580,"平日：8:00〜21:00
土：8:00〜21:00
日祝：8:00〜21:00",https://map.tullys.co.jp/tullys/detailMap?account=tullys&accmd=0&bid=178,TRUE,TRUE,TRUE,FALSE,35.4639773,133.0694928
613,島根大学医学部附属病院店 | タリーズコーヒー,島根県,出雲市,塩冶町89-11F,出雲市駅徒歩21分以上,0853-24-7721,"平日：7:00〜21:00
土：9:00〜18:00
日祝：9:00〜18:00",https://map.tullys.co.jp/tullys/detailMap?account=tullys&accmd=0&bid=774,FALSE,FALSE,FALSE,TRUE,35.3477318,132.7528572
614,アリオ倉敷店 | タリーズコーヒー,岡山県,倉敷市,寿町12番2号アリオ倉敷2F,倉敷駅徒歩3分以上,086-435-7223,"平日：9：00〜21：00
土：9：00〜21：00
日祝：9：00〜21：00",https://map.tullys.co.jp/tullys/detailMap?account=tullys&accmd=0&bid=547,FALSE,FALSE,TRUE,FALSE,34.6033423,133.764184
615,イオンモール岡山店 | タリーズコーヒー,岡山県,岡山市,北区下石井1丁目2番1号イオンモール岡山6F,岡山駅前駅徒歩5分以上,086-206-7017,"平日：11:00〜23:00
土：11:00〜23:00
日祝：11:00〜23:00",https://map.tullys.co.jp/tullys/detailMap?account=tullys&accmd=0&bid=739,FALSE,FALSE,FALSE,FALSE,34.662267,133.917801
616,フタバ図書ＭＥＧＡ岡山店 | タリーズコーヒー,岡山県,岡山市,南区泉田22-3フタバ図書MEGA青江店1Ｆ,備前西市駅徒歩18分以上,086-803-6025,"平日：10:00〜22:00
土：10:00〜22:00
日祝：10:00〜22:00",https://map.tullys.co.jp/tullys/detailMap?account=tullys&accmd=0&bid=340,TRUE,FALSE,TRUE,FALSE,34.628824,133.913878
617,岡山市民病院店 | タリーズコーヒー,岡山県,岡山市,北区北長瀬表町三丁目20番1号岡山市民病院1F,大安寺駅徒歩17分以上,086-244-0085,"平日：7:30〜19:00
土：8:30〜19:00
日祝：8:30〜18:00",https://map.tullys.co.jp/tullys/detailMap?account=tullys&accmd=0&bid=768,FALSE,FALSE,FALSE,FALSE,34.6519769,133.8847795
618,TSUTAYA東広島店 | タリーズコーヒー,広島県,東広島市,西条御条6-203階,西条駅徒歩16分以上,082-431-4317,"平日：10:00〜22:00
土：10:00〜22:00
日祝：10:00〜22:00",https://map.tullys.co.jp/tullys/detailMap?account=tullys&accmd=0&bid=781,TRUE,FALSE,FALSE,FALSE,34.4209616,132.7450569
619,イオンモール広島府中店 | タリーズコーヒー,広島県,安芸郡,府中町大須2-1-1イオンモール広島府中店1F,矢賀駅徒歩7分以上,082-510-5013,"平日：9:00〜22:00
土：9:00〜22:00
日祝：9:00〜22:00",https://map.tullys.co.jp/tullys/detailMap?account=tullys&accmd=0&bid=175,TRUE,FALSE,TRUE,FALSE,34.3946461,132.4989686
620,エールエール 広島駅前店 | タリーズコーヒー,広島県,広島市,南区松原町9-1エールエールＡ館B2F,広島駅駅徒歩2分以上,082-568-5730,"平日：7:30〜20:00
土：7:30〜20:00
日祝：7:30〜20:00",https://map.tullys.co.jp/tullys/detailMap?account=tullys&accmd=0&bid=644,TRUE,FALSE,TRUE,FALSE,34.3963802,132.4737745
621,スタートラム広島店 | タリーズコーヒー,広島県,広島市,中区八丁堀16番11号スタートラム1F,立町駅徒歩3分以内,082-511-1880,"平日：7:30〜20:00
土：9:00〜20:00
日祝：9:00〜20:00",https://map.tullys.co.jp/tullys/detailMap?account=tullys&accmd=0&bid=919,FALSE,FALSE,FALSE,FALSE,34.3944355,132.461839
622,フタバ横川新館店 | タリーズコーヒー,広島県,広島市,西区横川町三丁目2番34号,横川駅徒歩3分以内,082-232-1021,"平日：7:00〜22:00
土：7:00〜22:00
日祝：7:00〜22:00",https://map.tullys.co.jp/tullys/detailMap?account=tullys&accmd=0&bid=910,FALSE,FALSE,TRUE,FALSE,34.4098312,132.4495364
623,フタバ図書 ジ アウトレット広島店 | タリーズコーヒー,広島県,広島市,佐伯区石内東4丁目1番1号1001THEOUTLETHIROSHIMA1Ｆ,高須駅徒歩40分以上,082-961-5305,"平日：10:00〜20:00
土：10:00〜20:00
日祝：10:00〜20:00",https://map.tullys.co.jp/tullys/detailMap?account=tullys&accmd=0&bid=937,FALSE,FALSE,FALSE,FALSE,34.4093905,132.3975259
624,フタバ図書GIGA本通店 | タリーズコーヒー,広島県,広島市,中区大手町1-8-20フタバ図書ＧＩＧＡ本通内1F,本通駅徒歩1分以上,082-504-7126,"平日：7:30〜22:00
土：7：30〜22：00
日祝：7：30〜22：00",https://map.tullys.co.jp/tullys/detailMap?account=tullys&accmd=0&bid=637,TRUE,TRUE,TRUE,FALSE,34.3938772,132.4555757
625,フタバ図書MEGA中筋店 | タリーズコーヒー,広島県,広島市,安佐南区中筋4-11-7,古市駅徒歩5分以上,082-207-4555,"平日：10:00〜24:00
土：10:00〜24:00
日祝：10:00〜24:00",https://map.tullys.co.jp/tullys/detailMap?account=tullys&accmd=0&bid=909,FALSE,FALSE,FALSE,FALSE,34.4553242,132.4788739
626,フタバ図書アルティアルパーク北棟店 | タリーズコーヒー,広島県,広島市,西区草津南4丁目7番地1号アルパーク北棟2階,商工センター入口駅徒歩1分以上,082-270-5735,"平日：10:00〜24:00
土：10:00〜24:00
日祝：10:00〜24:00",https://map.tullys.co.jp/tullys/detailMap?account=tullys&accmd=0&bid=506,TRUE,FALSE,TRUE,FALSE,34.3755459,132.3933173
627,フタバ図書アルティ福山店 | タリーズコーヒー,広島県,福山市,明神町一丁目14番20号,東福山駅徒歩16分以上,084-973-8788,"平日：10:00〜23:30
土：10:00〜23:30
日祝：10:00〜23:30",https://map.tullys.co.jp/tullys/detailMap?account=tullys&accmd=0&bid=419,TRUE,TRUE,TRUE,FALSE,34.4896435,133.39548
628,呉中通り店 | タリーズコーヒー,広島県,呉市,中通3-5-3呉ポポロビル1F,呉駅徒歩11分以上,0823-32-1311,"平日：10:00〜20:00
土：10:00〜20:00
日祝：10:00〜20:00",https://map.tullys.co.jp/tullys/detailMap?account=tullys&accmd=0&bid=430,TRUE,FALSE,TRUE,TRUE,34.2460935,132.5660103
629,広島シャレオ店 | タリーズコーヒー,広島県,広島市,中区紙屋町2丁目地下街527号紙屋町シャレオ内,紙屋町西駅徒歩3分以内,082-545-3805,"平日:7:30〜22:00
土:7:30〜22:00
日祝:7:30〜22:00",https://map.tullys.co.jp/tullys/detailMap?account=tullys&accmd=0&bid=569,FALSE,FALSE,TRUE,FALSE,34.3952858,132.4571274
630,広島神辺店 | タリーズコーヒー,広島県,福山市,神辺町字道上75フジグラン神辺1F,道上駅徒歩15分以上,084-960-3446,"平日：9:00〜21:00
土：9:00〜21:00
日祝：9:00〜21:00",https://map.tullys.co.jp/tullys/detailMap?account=tullys&accmd=0&bid=258,TRUE,FALSE,TRUE,FALSE,34.5446798,133.3569763
631,広島段原店 | タリーズコーヒー,広島県,広島市,南区段原南1丁目3-52,比治山下駅徒歩6分以上,082-568-2033,"平日：8:00〜21:00
土：8:00〜21:00
日祝：8:00〜21:00",https://map.tullys.co.jp/tullys/detailMap?account=tullys&accmd=0&bid=741,TRUE,TRUE,TRUE,FALSE,34.3852255,132.4760186
632,広島中央通り店 | タリーズコーヒー,広島県,広島市,中区堀川町5-4,八丁堀駅徒歩1分以上,082-544-1233,"平日：9:00〜22:00
土：9:00〜23:00
日祝：9:00〜21:00",https://map.tullys.co.jp/tullys/detailMap?account=tullys&accmd=0&bid=467,TRUE,FALSE,TRUE,FALSE,34.3926468,132.4628668
633,広島本通店 | タリーズコーヒー,広島県,広島市,中区本通5-5,本通駅徒歩2分以上,082-546-5015,"月〜木：7:30〜22:00金・土：7:30〜23:00
日祝：9:00〜22:00",https://map.tullys.co.jp/tullys/detailMap?account=tullys&accmd=0&bid=91,TRUE,TRUE,TRUE,FALSE,34.3933606,132.4586116
634,広島緑井店 | タリーズコーヒー,広島県,広島市,安佐南区緑井1-5-2フジグラン緑井1F,緑井駅徒歩1分以上,082-831-8166,"平日：8:00〜22:00
土：8:00〜22:00
日祝：8:00〜22:00",https://map.tullys.co.jp/tullys/detailMap?account=tullys&accmd=0&bid=216,TRUE,FALSE,FALSE,FALSE,34.4663989,132.4766006
635,天満屋八丁堀店 | タリーズコーヒー,広島県,広島市,中区胡町5-227F,八丁堀駅徒歩3分以内,082-545-5655,"平日：10:00〜21:00
土：10:00〜21:00
日祝：10:00〜21:00",https://map.tullys.co.jp/tullys/detailMap?account=tullys&accmd=0&bid=508,TRUE,TRUE,TRUE,FALSE,34.393194,132.4637306
636,フタバ図書ＧＩＧＡ フレスタモール岩国店 | タリーズコーヒー,山口県,岩国市,室の木町1丁目2番38号フレスタモールカジル岩国内,岩国駅徒歩15分以上,0827-30-0328,"平日：9:00〜23:30
土：9:00〜23:30
日祝：9:00〜23:30",https://map.tullys.co.jp/tullys/detailMap?account=tullys&accmd=0&bid=654,FALSE,FALSE,TRUE,FALSE,34.1706218,132.2135647
637,岩国医療センター店 | タリーズコーヒー,山口県,岩国市,愛宕町1-1-1,南岩国駅徒歩13分以上,0827-34-0655,"平日：7:30〜18:30
土：9:00〜17:00
日祝：休業日",https://map.tullys.co.jp/tullys/detailMap?account=tullys&accmd=0&bid=647,TRUE,FALSE,FALSE,FALSE,34.1433061,132.2034965
638,山口葵TSUTAYA店 | タリーズコーヒー,山口県,山口市,葵1-4-70,湯田温泉駅徒歩12分以上,083-995-2000,"平日：9:00〜22:00
土：9：00〜22：00
日祝：9：00〜22：00",https://map.tullys.co.jp/tullys/detailMap?account=tullys&accmd=0&bid=635,TRUE,FALSE,FALSE,FALSE,34.1603664,131.4508055
639,山口葵店 | タリーズコーヒー,山口県,山口市,葵町1-4-70,湯田温泉駅徒歩12分以上,083-901-3939,"平日：8:00〜22:00（※金⇒8：00〜23：00）土：8:00〜23:00
日祝：8:00〜22:00",https://map.tullys.co.jp/tullys/detailMap?account=tullys&accmd=0&bid=663,TRUE,FALSE,TRUE,FALSE,34.1603664,131.4508055
640,山口県立総合医療センター店 | タリーズコーヒー,山口県,防府市,大字大崎77番地山口県立総合医療センター1F,防府駅徒歩39分以上,0835-27-3011,"平日：7:30〜19:00
土：10:00〜17:00
日祝：10:00〜17:00",https://map.tullys.co.jp/tullys/detailMap?account=tullys&accmd=0&bid=767,TRUE,FALSE,FALSE,TRUE,34.0660633,131.5424358
641,フジグラン北島店 | タリーズコーヒー,徳島県,板野郡,北島町鯛浜西ノ須174フジグラン北島2F,吉成駅徒歩23分以上,088-697-2581,"平日：9:00〜21:00
土：9:00〜21:00
日祝：9:00〜21:00",https://map.tullys.co.jp/tullys/detailMap?account=tullys&accmd=0&bid=710,TRUE,FALSE,TRUE,FALSE,34.1121212,134.5469157
642,徳島駅前店 | タリーズコーヒー,徳島県,徳島市,元町1-5-1ホテルサンルート徳島1F,徳島駅徒歩2分以上,088-611-3915,"平日：7:00〜22:00
土：7:00〜22:00
日祝：7:00〜22:00",https://map.tullys.co.jp/tullys/detailMap?account=tullys&accmd=0&bid=292,TRUE,FALSE,TRUE,TRUE,34.0732198,134.5506913
643,徳島大学病院店 | タリーズコーヒー,徳島県,徳島市,蔵本町2-50-1徳島大学病院内,蔵本駅徒歩5分以上,088-634-1533,"平日：7:30〜18:30
土：休業日
日祝：休業日",https://map.tullys.co.jp/tullys/detailMap?account=tullys&accmd=0&bid=248,FALSE,FALSE,FALSE,TRUE,34.0757376,134.5186241
644,徳島田宮店 | タリーズコーヒー,徳島県,徳島市,南田宮2-2-46,佐古駅徒歩9分以上,088-634-3231,"平日：9:30〜22:00
土：9:30〜22:00
日祝：9:30〜22:00",https://map.tullys.co.jp/tullys/detailMap?account=tullys&accmd=0&bid=410,FALSE,FALSE,TRUE,TRUE,34.0858347,134.5427333
645,イオンモール綾川店 | タリーズコーヒー,香川県,綾歌郡,綾川町萱原822-1イオンモール綾川店１F,滝宮駅徒歩12分以上,087-876-6035,"平日：9:00〜22:00
土：9:00〜22:00
日祝：9:00〜22:00",https://map.tullys.co.jp/tullys/detailMap?account=tullys&accmd=0&bid=440,FALSE,FALSE,FALSE,FALSE,34.2514352,133.9311439
646,高松サンシャイン通り店 | タリーズコーヒー,香川県,高松市,林町2217-20,太田駅徒歩24分以上,087-864-3410,"平日：9:00〜23:00
土：9:00〜23:00
祝日：9:00〜23:00",https://map.tullys.co.jp/tullys/detailMap?account=tullys&accmd=0&bid=874,FALSE,FALSE,FALSE,FALSE,34.2929319,134.0634416
647,高松シンボルタワー店 | タリーズコーヒー,香川県,高松市,サンポート2-1マリタイムプラザ高松ホール棟1階,高松駅徒歩2分以上,087-825-5550,"平日：7:30〜21:00
土：8:00〜21:00
日祝：8:00〜21:00",https://map.tullys.co.jp/tullys/detailMap?account=tullys&accmd=0&bid=176,TRUE,FALSE,TRUE,FALSE,34.3523287,134.0472156
648,西宝店 | タリーズコーヒー,香川県,高松市,西宝町2丁目7-47,昭和町駅徒歩5分以上,087-837-3183,"平日：9:00〜23:00
土：9:00〜23:00
日祝：9:00〜23:00",https://map.tullys.co.jp/tullys/detailMap?account=tullys&accmd=0&bid=675,TRUE,FALSE,TRUE,FALSE,34.3414431,134.0290441
649,エミフルＭＡＳＡＫＩ店 | タリーズコーヒー,愛媛県,伊予郡,松前町筒井850エミフルMASAKI1F,古泉駅徒歩4分以上,089-984-2688,"平日：9:00〜21:00
土：9:00〜21:00
日祝：9:00〜21:00",https://map.tullys.co.jp/tullys/detailMap?account=tullys&accmd=0&bid=370,TRUE,FALSE,TRUE,FALSE,33.7897159,132.7160747
650,フジグラン松山店 | タリーズコーヒー,愛媛県,松山市,宮西一丁目2番1号フジグラン松山1F,宮田町駅徒歩1分以上,089-911-2110,"平日：9:00〜21:00
土：9:00〜21:00
日祝：9:00〜21:00",https://map.tullys.co.jp/tullys/detailMap?account=tullys&accmd=0&bid=873,FALSE,FALSE,FALSE,FALSE,33.8449457,132.7530662
651,愛媛大学病院店 | タリーズコーヒー,愛媛県,東温市,志津川454愛媛大学医学部付属病院内,横河原駅徒歩5分以上,089-960-5088,"平日：7:30〜18:30
土日：9:30〜17:00祝：休業日",https://map.tullys.co.jp/tullys/detailMap?account=tullys&accmd=0&bid=436,FALSE,FALSE,FALSE,FALSE,33.8029561,132.8799055
652,松山銀天街店 | タリーズコーヒー,愛媛県,松山市,湊町4丁目8−8,松山市駅前駅徒歩5分以上,089-945-8888,"平日：8:00〜21:00
土：8:00〜21:00
日祝：8:00〜21:00",https://map.tullys.co.jp/tullys/detailMap?account=tullys&accmd=0&bid=448,TRUE,FALSE,TRUE,FALSE,33.8359745,132.7673723
653,松山赤十字病院店 | タリーズコーヒー,愛媛県,松山市,文京町1番地,赤十字病院前駅徒歩3分以内,089-911-1288,"平日：7：30〜19：00
土：9：00〜17：00
日祝：9：00〜1700",https://map.tullys.co.jp/tullys/detailMap?account=tullys&accmd=0&bid=525,TRUE,FALSE,FALSE,FALSE,33.8484232,132.7732301
654,高知大学病院店 | タリーズコーヒー,高知県,南国市,岡豊町小蓮高知大学医学部附属病院内,土佐大津駅徒歩27分以上,088-880-2112,"平日：8:00〜19:00
土：9:00〜18:00
日祝：9:00〜18:00",https://map.tullys.co.jp/tullys/detailMap?account=tullys&accmd=0&bid=645,FALSE,FALSE,FALSE,FALSE,33.5941614,133.6141226
655,ＴＮＣ放送会館店 | タリーズコーヒー,福岡県,福岡市,早良区百道浜2-3-2TNC放送会館1F,西新駅徒歩16分以上,092-832-7715,"平日：8:00〜20:00
土：9:00〜20:00
日祝：9:00〜20:00",https://map.tullys.co.jp/tullys/detailMap?account=tullys&accmd=0&bid=126,TRUE,TRUE,FALSE,FALSE,33.5924893,130.3523357
656,イオンモール香椎浜店 | タリーズコーヒー,福岡県,福岡市,東区香椎浜3-12-1イオンモール香椎浜1F,西鉄香椎駅徒歩15分以上,092-673-6365,"平日：9:00〜21：00
土：9:00〜21:00
日祝：9:00〜21:00",https://map.tullys.co.jp/tullys/detailMap?account=tullys&accmd=0&bid=149,TRUE,FALSE,TRUE,FALSE,33.6570988,130.4298255
657,イオンモール大牟田店 | タリーズコーヒー,福岡県,大牟田市,岬町3-4イオンモール大牟田1F,大牟田駅徒歩21分以上,0944-41-0547,"平日：10:00〜22:00
土：10:00〜22:00
日祝：10:00〜22:00",https://map.tullys.co.jp/tullys/detailMap?account=tullys&accmd=0&bid=493,FALSE,FALSE,TRUE,FALSE,33.0304935,130.4260424
658,イオンモール筑紫野店 | タリーズコーヒー,福岡県,筑紫野市,立明寺434-1,天拝山駅徒歩5分以上,092-918-3145,"平日：9:00〜21:00
土：9:00〜21:00
日祝：9:00〜21:00",https://map.tullys.co.jp/tullys/detailMap?account=tullys&accmd=0&bid=407,TRUE,FALSE,TRUE,FALSE,33.4809383,130.5267763
659,イオンモール直方店 | タリーズコーヒー,福岡県,直方市,湯野原二丁目1番1号イオンモール直方2F,遠賀野駅徒歩26分以上,0949-29-2770,"平日：9:00〜21:00
土：9:00〜21:00
日祝：9:00〜21:00",https://map.tullys.co.jp/tullys/detailMap?account=tullys&accmd=0&bid=255,TRUE,FALSE,TRUE,FALSE,33.7673237,130.7506631
660,イオンモール福津店 | タリーズコーヒー,福岡県,福津市,日蒔野6丁目16-1イオンモール福津2F,福間駅徒歩18分以上,0940-38-5078,"平日：9:00〜22:00
土：9：00〜22：00
日祝：9：00〜22：00",https://map.tullys.co.jp/tullys/detailMap?account=tullys&accmd=0&bid=578,FALSE,FALSE,TRUE,FALSE,33.7534128,130.4939746
661,キャナルシティ博多店 | タリーズコーヒー,福岡県,福岡市,博多区祇園町9-2,祗園駅徒歩6分以上,092-263-8757,"平日：8:00〜21：00
土：8:00〜21:00
日祝：8:00〜21:00",https://map.tullys.co.jp/tullys/detailMap?account=tullys&accmd=0&bid=551,TRUE,TRUE,TRUE,FALSE,33.5901215,130.4124868
662,コムシティ黒崎店 | タリーズコーヒー,福岡県,北九州市,八幡西区黒崎3-15-3COMCITY3F,西黒崎駅徒歩2分以上,093-616-0800,"平日：7:30〜21:00
土：8:00〜21:00
日祝：8:00〜21:00",https://map.tullys.co.jp/tullys/detailMap?account=tullys&accmd=0&bid=653,TRUE,TRUE,TRUE,FALSE,33.866376,130.7642649
663,トリアス久山店 | タリーズコーヒー,福岡県,糟屋郡,久山町大字山田1111トリアス久山H棟1F,土井駅徒歩40分以上,092-652-3077,"平日：10:00〜21:00
土：10:00〜21:00
日祝：10:00〜21:00",https://map.tullys.co.jp/tullys/detailMap?account=tullys&accmd=0&bid=221,FALSE,FALSE,TRUE,FALSE,33.6527544,130.488887
664,フタバ図書TERAイオンモール福岡店 | タリーズコーヒー,福岡県,糟屋郡,粕屋町大字酒殿字老ノ木192-1-2001イオンモール福岡2F,酒殿駅徒歩13分以上,092-939-7275,"平日：9：00-21：00
土：9:00〜21:00
日祝：9:00〜21:00",https://map.tullys.co.jp/tullys/detailMap?account=tullys&accmd=0&bid=913,FALSE,FALSE,FALSE,FALSE,33.5953539,130.4811133
665,ホテルユニゾ福岡天神店 | タリーズコーヒー,福岡県,福岡市,中央区今泉1-22-14ホテルユニゾ福岡天神1F,天神南駅徒歩4分以上,092-738-0023,"平日：7:00〜25:00
土：7:00〜25:00
日祝：7:00〜25:00",https://map.tullys.co.jp/tullys/detailMap?account=tullys&accmd=0&bid=552,TRUE,TRUE,TRUE,FALSE,33.5868522,130.3994687
666,丸の内 CAFE 会 博多マルイ店 | タリーズコーヒー,福岡県,福岡市,博多区博多駅中央街9番1号博多マルイ2F,博多駅徒歩3分以上,092-260-9490,"平日：10:00〜23:00
土：10:00〜23:00
日祝：10:00〜23:00",https://map.tullys.co.jp/tullys/detailMap?account=tullys&accmd=0&bid=818,TRUE,FALSE,FALSE,FALSE,33.5888442,130.4192182
667,九州大学伊都キャンパス店 | タリーズコーヒー,福岡県,福岡市,西区元岡744番地,波多江駅徒歩51分以上,092-836-5358,"平日：9:00〜19:00
土：休業日
日祝：休業日",https://map.tullys.co.jp/tullys/detailMap?account=tullys&accmd=0&bid=788,TRUE,FALSE,FALSE,TRUE,33.5959171,130.2200575
668,古賀SA下り店 | タリーズコーヒー,福岡県,古賀市,薦野1100番地,東福間駅徒歩57分以上,092-946-3124,"平日：7:00〜20:00
土：7:00〜20:00
日祝：7:00〜20:00",https://map.tullys.co.jp/tullys/detailMap?account=tullys&accmd=0&bid=935,FALSE,FALSE,FALSE,FALSE,33.7384111,130.5204795
669,産業医科大学病院店 | タリーズコーヒー,福岡県,北九州市,八幡西区医生ヶ丘1-1産業医科大学病院1F,本城駅徒歩12分以上,093-603-1323,"平日：7:30〜19:00
土：10:30〜17:30
日祝：10:30〜17:30",https://map.tullys.co.jp/tullys/detailMap?account=tullys&accmd=0&bid=375,FALSE,FALSE,FALSE,FALSE,33.8778801,130.713837
670,小倉貴船店 | タリーズコーヒー,福岡県,北九州市,小倉北区貴船町1-1,南小倉駅徒歩8分以上,093-967-3767,"平日：9:00〜22:00
土：9:00〜22:00
日祝：9:00〜22:00",https://map.tullys.co.jp/tullys/detailMap?account=tullys&accmd=0&bid=827,TRUE,FALSE,FALSE,FALSE,33.8705161,130.8708695
671,小倉店 | タリーズコーヒー,福岡県,北九州市,小倉北区船場町4-25紫江’sII1F,平和通駅徒歩5分以上,093-533-1755,"平日：9:00〜22:00
土：9:00〜22:00
日祝：9:00〜22:00",https://map.tullys.co.jp/tullys/detailMap?account=tullys&accmd=0&bid=196,TRUE,FALSE,TRUE,FALSE,33.8847286,130.877702
672,西鉄久留米店 | タリーズコーヒー,福岡県,久留米市,東町315-2西鉄久留米駅ビル2階,西鉄久留米駅徒歩3分以内,0942-36-8315,"平日：8:00〜22:00
土：8:00〜22:00
日祝：8:00〜21:00",https://map.tullys.co.jp/tullys/detailMap?account=tullys&accmd=0&bid=315,TRUE,TRUE,TRUE,FALSE,33.3123168,130.5208057
673,大川高木病院店 | タリーズコーヒー,福岡県,大川市,酒見141-11高木病院内,蒲池駅徒歩61分以上,0944-89-5110,"平日：9:00〜19:00
土：9:00〜19:00
祝日：9:00〜18:00",https://map.tullys.co.jp/tullys/detailMap?account=tullys&accmd=0&bid=252,FALSE,FALSE,FALSE,FALSE,33.206491,130.38005
674,中洲ゲイツ店 | タリーズコーヒー,福岡県,福岡市,博多区中洲3-7-24gate’s1階,中洲川端駅徒歩1分以上,092-283-0610,"平日：8:00〜26:30
土：8:00〜26:30
日祝：8:00〜26:30",https://map.tullys.co.jp/tullys/detailMap?account=tullys&accmd=0&bid=416,TRUE,TRUE,TRUE,FALSE,33.5936356,130.4060191
675,天神新天町店 | タリーズコーヒー,福岡県,福岡市,中央区天神2丁目7-241新天町内,西鉄福岡駅徒歩2分以上,092-717-6767,"平日：8：00〜21:00
土：8:00〜21:00
日祝：8:00〜21:00",https://map.tullys.co.jp/tullys/detailMap?account=tullys&accmd=0&bid=606,TRUE,TRUE,TRUE,FALSE,33.590088,130.397096
676,天神店 | タリーズコーヒー,福岡県,福岡市,中央区天神2-14-33,天神駅徒歩2分以上,092-761-3771,"平日：7:30〜23:00
土：7:30〜23:00
日祝：9:00〜22:00",https://map.tullys.co.jp/tullys/detailMap?account=tullys&accmd=0&bid=133,TRUE,FALSE,TRUE,FALSE,33.5916155,130.3968992
677,博多マルイ店 | タリーズコーヒー,福岡県,福岡市,博多区博多駅中央街9番1号博多マルイ1F,博多駅徒歩3分以上,092-260-8470,"平日：7:00〜23:00
土：7:00〜23:00
日祝：7:00〜23:00",https://map.tullys.co.jp/tullys/detailMap?account=tullys&accmd=0&bid=817,TRUE,FALSE,FALSE,FALSE,33.5888442,130.4192182
678,博多駅マイング店 | タリーズコーヒー,福岡県,福岡市,博多区博多駅中央街1-1,博多駅徒歩3分以内,092-474-4787,"平日：9:00〜21:00
土：9:00〜21:00
日祝：9:00〜21:00",https://map.tullys.co.jp/tullys/detailMap?account=tullys&accmd=0&bid=477,TRUE,TRUE,TRUE,FALSE,33.59053,130.4210556
679,福岡徳洲会病院店 | タリーズコーヒー,福岡県,春日市,須玖北4丁目5番地福岡徳洲会病院1階,井尻駅徒歩13分以上,092-589-3001,"平日：7:30〜19:00
土曜：7:30〜19:00
日祝：9:30〜17:00",https://map.tullys.co.jp/tullys/detailMap?account=tullys&accmd=0&bid=731,FALSE,FALSE,FALSE,FALSE,33.5440552,130.4468938
680,モラージュ佐賀店 | タリーズコーヒー,佐賀県,佐賀市,巨勢町大字牛島730モラージュ佐賀1F,佐賀駅徒歩33分以上,0952-27-7708,"平日：10:00〜21:00
土：10:00〜21:00
日祝：10:00〜21:00",https://map.tullys.co.jp/tullys/detailMap?account=tullys&accmd=0&bid=108,TRUE,FALSE,TRUE,FALSE,33.2525769,130.3188002
681,鳥栖プレミアム・アウトレット店 | タリーズコーヒー,佐賀県,鳥栖市,弥生が丘8-1鳥栖プレミアム・アウトレット内区画NO.430,弥生が丘駅徒歩22分以上,0942-87-5522,"平日：9:30〜20:00
土：9:30〜20:00
日祝：9:30〜20:00",https://map.tullys.co.jp/tullys/detailMap?account=tullys&accmd=0&bid=554,TRUE,FALSE,TRUE,FALSE,33.4064854,130.5116369
682,アミュプラザ長崎店 | タリーズコーヒー,長崎県,長崎市,尾上町1-1アミュプラザ長崎1F,長崎駅前駅徒歩1分以上,095-811-2370,"平日：8:30〜21:00
土：8:30〜21:00
日祝：8:30〜21:00",https://map.tullys.co.jp/tullys/detailMap?account=tullys&accmd=0&bid=316,FALSE,FALSE,FALSE,FALSE,32.7516742,129.8708897
683,佐世保京町店 | タリーズコーヒー,長崎県,佐世保市,上京町4-4番地,佐世保中央駅徒歩3分以上,0956-37-0511,"平日（月〜木）：7:00〜23:00
金土：7:00〜25:00
日祝：7:00〜23:00（※祝前日も金土と同様の時間帯となります）",https://map.tullys.co.jp/tullys/detailMap?account=tullys&accmd=0&bid=704,FALSE,TRUE,TRUE,FALSE,33.1696968,129.7230953
684,長崎大学病院店 | タリーズコーヒー,長崎県,長崎市,坂本1丁目7番1号長崎大学病院1F,浜口町駅徒歩5分以上,095-813-0202,"平日：8:00〜19:30
土：9:00〜18:00
日祝：休業日",https://map.tullys.co.jp/tullys/detailMap?account=tullys&accmd=0&bid=831,TRUE,FALSE,FALSE,FALSE,32.7698777,129.8688298
685,イオンモール熊本店 | タリーズコーヒー,熊本県,上益城郡,嘉島町大字上島字長池2232-2114イオンモール熊本店2F,健軍町駅徒歩68分以上,096-235-7331,"平日：9:00〜21:00
土：9:00〜21:00
日祝：9:00〜21:00",https://map.tullys.co.jp/tullys/detailMap?account=tullys&accmd=0&bid=279,TRUE,FALSE,TRUE,FALSE,32.73795,130.7434685
686,ゆめタウンはません店 | タリーズコーヒー,熊本県,熊本市,南区田井島1-2-1ゆめタウンはません3F,商業高校前駅徒歩27分以上,096-214-3232,"平日：9:30〜22:00
土：9:30〜22:00
日祝：9:30〜22:00",https://map.tullys.co.jp/tullys/detailMap?account=tullys&accmd=0&bid=249,TRUE,FALSE,TRUE,FALSE,32.771458,130.726559
687,熊本大学医学部附属病院店 | タリーズコーヒー,熊本県,熊本市,中央区本荘1-1-1熊本大学医学部附属病院１階,九品寺交差点駅徒歩9分以上,096-373-5871,"平日：7:00〜20:00
土：7:00〜20:00
日祝：7:00〜20:00",https://map.tullys.co.jp/tullys/detailMap?account=tullys&accmd=0&bid=725,FALSE,FALSE,FALSE,FALSE,32.796106,130.7121338
688,ゆめタウン別府店 | タリーズコーヒー,大分県,別府市,楠町382-7ゆめタウン別府1階,東別府駅徒歩11分以上,0977-21-8520,"平日：9:30〜22:00
土曜：9:30〜22:00
日祝：9:30〜22:00",https://map.tullys.co.jp/tullys/detailMap?account=tullys&accmd=0&bid=730,TRUE,FALSE,TRUE,FALSE,33.2763878,131.5076847
689,イオンモール宮崎店 | タリーズコーヒー,宮崎県,宮崎市,新別府町江口862-1イオンモール宮崎店1階区画No.175,宮崎駅徒歩34分以上,0985-62-0508,"平日：10:00〜21:00
土：10:00〜21:00
日祝：10:00〜21:00",https://map.tullys.co.jp/tullys/detailMap?account=tullys&accmd=0&bid=260,TRUE,FALSE,TRUE,FALSE,31.9227641,131.4563511
690,イオン延岡店 | タリーズコーヒー,宮崎県,延岡市,旭町2-2-1,南延岡駅徒歩21分以上,0982-26-5566,"平日：10：00〜21：00
土曜：10：00〜21：00
日祝：10：00〜21：00",https://map.tullys.co.jp/tullys/detailMap?account=tullys&accmd=0&bid=539,TRUE,FALSE,TRUE,FALSE,32.5723427,131.6700874
691,イオン都城店 | タリーズコーヒー,宮崎県,都城市,早鈴町1990イオン都城ショッピングセンター1F,西都城駅徒歩27分以上,0986-24-2082,"平日：9:00〜21:00
土：9:00〜21:00
日祝：9:00〜21:00",https://map.tullys.co.jp/tullys/detailMap?account=tullys&accmd=0&bid=116,TRUE,FALSE,FALSE,FALSE,31.7147312,131.0757815
692,ハンズマン吉尾店 | タリーズコーヒー,宮崎県,都城市,吉尾町772番地,日向庄内駅徒歩26分以上,0986-38-0338,"平日：9:00〜22:00
土：9:00〜22:00
日祝：9:00〜22:00",https://map.tullys.co.jp/tullys/detailMap?account=tullys&accmd=0&bid=424,TRUE,FALSE,FALSE,TRUE,31.7548793,131.0798611
693,宮崎橘通り店 | タリーズコーヒー,宮崎県,宮崎市,橘通西3-10-36,宮崎駅徒歩11分以上,0985-61-8255,"平日：8:00〜23:00（金：25:00）土：9:00〜25:00
日祝：9:00〜21:00",https://map.tullys.co.jp/tullys/detailMap?account=tullys&accmd=0&bid=70,TRUE,TRUE,TRUE,TRUE,31.915595,131.4225851
694,宮崎高千穂通り店 | タリーズコーヒー,宮崎県,宮崎市,橘通り東4-10カリーノ宮崎1F,宮崎駅徒歩8分以上,0985-31-6107,"平日：7:30〜23:00
土：9:00〜23:00
日祝：9:00〜21:00",https://map.tullys.co.jp/tullys/detailMap?account=tullys&accmd=0&bid=106,TRUE,FALSE,TRUE,TRUE,31.9166722,131.4252917
695,イオンタウン姶良店 | タリーズコーヒー,鹿児島県,姶良市,西餅田264-1イオンタウン姶良1F,帖佐駅徒歩11分以上,0995-67-8050,"平日：10:00〜21:00
土：10:00〜21:00
日祝：10:00〜21:00",https://map.tullys.co.jp/tullys/detailMap?account=tullys&accmd=0&bid=825,TRUE,FALSE,FALSE,FALSE,31.7324698,130.6263719
696,イオン鹿児島鴨池店 | タリーズコーヒー,鹿児島県,鹿児島市,鴨池2-26-30イオン鹿児島鴨池1F,郡元駅徒歩2分以上,099-812-6866,"平日：9:00〜21:00
土：9:00〜21:00
日祝：9:00〜21:00",https://map.tullys.co.jp/tullys/detailMap?account=tullys&accmd=0&bid=452,TRUE,TRUE,TRUE,FALSE,31.5626127,130.5509277
697,ハンズマン宇宿店 | タリーズコーヒー,鹿児島県,鹿児島市,宇宿2-14-6ハンズマン宇宿店本館2F,脇田駅徒歩5分以上,099-812-6755,"平日：9:00〜22:00
土：9:00〜22:00
日祝：9:00〜22:00",https://map.tullys.co.jp/tullys/detailMap?account=tullys&accmd=0&bid=614,TRUE,FALSE,FALSE,TRUE,31.5419723,130.5411376
698,レム鹿児島店 | タリーズコーヒー,鹿児島県,鹿児島市,東千石町1丁目-32,天文館通駅徒歩2分以上,099-248-9612,"平日（月〜木）：7:00〜23:00
金・土：7:00〜24:00（祝日の前日も含む）
日祝：7:00〜23:00",https://map.tullys.co.jp/tullys/detailMap?account=tullys&accmd=0&bid=553,TRUE,FALSE,TRUE,TRUE,31.5899596,130.5530643
699,鹿児島ドルフィンポート店 | タリーズコーヒー,鹿児島県,鹿児島市,本港新町5-4ドルフィンポート2階,いづろ通駅徒歩7分以上,099-226-3830,"平日：10：00〜20：00
土曜：10：00〜21：00
日祝：10：00〜21：00",https://map.tullys.co.jp/tullys/detailMap?account=tullys&accmd=0&bid=536,TRUE,FALSE,FALSE,FALSE,31.5922688,130.5630606
700,鹿児島中町店 | タリーズコーヒー,鹿児島県,鹿児島市,中町4-23,いづろ通駅徒歩2分以上,099-222-5919,"平日：8:00〜21:00
土：8:00〜21:00
日祝：8:00〜21:00",https://map.tullys.co.jp/tullys/detailMap?account=tullys&accmd=0&bid=80,TRUE,FALSE,TRUE,TRUE,31.5922346,130.5559716
701,鹿児島天文館店 | タリーズコーヒー,鹿児島県,鹿児島市,呉服町1-3チサンイン鹿児島1F,いづろ通駅徒歩2分以上,099-219-4655,"平日：7:00〜22:00
土：7:00〜22:00
日祝：7:00〜22:00",https://map.tullys.co.jp/tullys/detailMap?account=tullys&accmd=0&bid=742,TRUE,TRUE,TRUE,TRUE,31.590873,130.556164
702,イオンモール沖縄ライカム店 | タリーズコーヒー,沖縄県,中頭郡,北中城村アワセ土地区画整理事業地内,errererror,098-931-0301,"平日：10:00〜22:00
土：10:00〜22:00
日祝：10:00〜22:00",https://map.tullys.co.jp/tullys/detailMap?account=tullys&accmd=0&bid=761,TRUE,FALSE,FALSE,FALSE,26.3139037,127.7972326
703,サンエー那覇メインプレイス店 | タリーズコーヒー,沖縄県,那覇市,おもろまち4丁目4-9サンエー那覇メインプレイス2F,おもろまち駅徒歩5分以上,098-951-3654,"平日：9:00〜23:00
土：9:00〜23:00
日祝：9:00〜23:00",https://map.tullys.co.jp/tullys/detailMap?account=tullys&accmd=0&bid=779,TRUE,FALSE,TRUE,FALSE,26.2251631,127.6952731
704,マチナトシティ店 | タリーズコーヒー,沖縄県,浦添市,城間2008-1,古島駅徒歩39分以上,098-879-4111,"平日：9:00〜22:00
土：9:00〜22:00
日祝：9:00〜22:00",https://map.tullys.co.jp/tullys/detailMap?account=tullys&accmd=0&bid=679,TRUE,FALSE,TRUE,FALSE,26.2551067,127.7092908
705,八重瀬シティ店 | タリーズコーヒー,沖縄県,島尻郡,八重瀬町屋宜原99番１サンエー八重瀬シティ内,errererror,098-998-3111,"平日：9:00〜22:00
土：9:00〜22:00
日祝：9:00〜22:00",https://map.tullys.co.jp/tullys/detailMap?account=tullys&accmd=0&bid=657,TRUE,FALSE,TRUE,FALSE,26.1612476,127.7298724