id,name,prefecture,city,other_address,access,tel,business_hour,hp,wifi,socket,smoking,iccard,lat,lng,chair
0,ニュー秋葉原店 | 喫茶室ルノアール,東京都,千代田区,外神田1-16-10ニュー秋葉原センタービルB1F,JR秋葉原駅電気街口出てワシントンホテル方面徒歩1分,03-3251-0210,"平日 ：7：30-22：00
土曜日：7：30-22：00
日祝日：8：00-21：00",https://www.ginza-renoir.co.jp/shopsearch/shops/view/48,TRUE,TRUE,TRUE,FALSE,35.697417,139.772689,"114席
(禁煙:54/喫煙:60)"
1,ニュー新宿3丁目店 | 喫茶室ルノアール,東京都,新宿区,新宿3-4-1東新宿ビルB2F,都営地下鉄新宿3丁目駅徒歩0分,03-3355-1299,"平日 ：7：30-23：00
土曜日：8：00-23：00
日祝日：8：00-22：00",https://www.ginza-renoir.co.jp/shopsearch/shops/view/121,TRUE,TRUE,TRUE,FALSE,35.690739,139.7055,"70席
(禁煙:42/喫煙:28)"
2,横浜関内駅前店 | 喫茶室ルノアール ,神奈川県,横浜市,中区港町2-6横浜関内ビル2F,JR関内駅南口徒歩0分スタジアム側下りてすぐ関内駅前ビル2階,045-641-0223,"平日 ：7：30-23：00
土曜日：7：30-23：00
日祝日：8：00-23：00",https://www.ginza-renoir.co.jp/shopsearch/shops/view/78,TRUE,TRUE,TRUE,TRUE,35.4440838,139.6367212,"58席
(禁煙:33/喫煙:25)"
3,横浜元町店 | 喫茶室ルノアール ,神奈川県,横浜市,中区元町1-18石川ビル1F,"みなとみらい線元町･中華街駅5出口から元町通り商店街を行き一つ目角を右へ
 
 JR石川町駅南口徒歩9分元町通り商店街元町プラザ向かい",045-641-3331,全日 ：8：00-22：00,https://www.ginza-renoir.co.jp/shopsearch/shops/view/65,TRUE,TRUE,TRUE,TRUE,35.441476,139.650263,"94席
(禁煙:72/喫煙:22)"
4,横浜西口北幸店 | 喫茶室ルノアール ,神奈川県,横浜市,西区北幸1-8-6三栄ビル1F,横浜駅より相鉄口を出て右に高島屋方面へ徒歩4分。一つ目の交差点を斜向かいのＪＴＢ側に渡り、みずほ証券の隣りのビルの１Ｆ。,045-595-9935,"月～土：7：00-23：00
日祝日：8：00-23：00",https://www.ginza-renoir.co.jp/shopsearch/shops/view/63,TRUE,TRUE,TRUE,TRUE,35.4659732,139.6187928,"98席
(禁煙:70/喫煙:28)"
5,歌舞伎座前店 | 喫茶室ルノアール ,東京都,中央区,銀座5-15-1南海東京ビル2F,都営浅草線東銀座南海ビル口すぐ南海東京ビル内2階,03-5565-1833,"平日 ：7：30-23：00
土曜日：7：30-22：00
日祝日：8：00-22：00",https://www.ginza-renoir.co.jp/shopsearch/shops/view/128,TRUE,TRUE,TRUE,FALSE,35.6686219,139.7676913,"67席
(禁煙:49/喫煙:18)"
6,蒲田西口店 | 喫茶室ルノアール ,東京都,大田区,西蒲田8-1-7グランタウンビル2F,JR蒲田駅西口徒歩3分西口大階段下って左手へ真直ぐ,03-3735-2508,"平日 ：7：30-23：00
土曜日：8：00-23：00
日祝日：8：00-23：00",https://www.ginza-renoir.co.jp/shopsearch/shops/view/124,TRUE,TRUE,TRUE,FALSE,35.5612766,139.714873,"80席
(禁煙:34/喫煙:46)"
7,鎌倉駅前店 | 喫茶室ルノアール ,神奈川県,鎌倉市,小町1-6-19アラビル2F,JR鎌倉駅東口ロータリー左手,046-725-0452,全日 ：8：00-21：00,https://www.ginza-renoir.co.jp/shopsearch/shops/view/113,TRUE,TRUE,TRUE,FALSE,35.319488,139.551111,"64席
(禁煙:29/喫煙:35)"
8,京急川崎駅前店 | 喫茶室ルノアール ,神奈川県,川崎市,川崎区砂子1-1-10夏原ビル2F,京急川崎駅徒歩1分砂子1交差点右手前,044-211-8071,"平日 ：7：30-23：00
土曜日：8：00-23：00
日祝日：8：00-23：00",https://www.ginza-renoir.co.jp/shopsearch/shops/view/107,TRUE,TRUE,TRUE,FALSE,35.5313706,139.7010494,"52席
(禁煙:28/喫煙:24)"
9,京成上野駅前店 | 喫茶室ルノアール ,東京都,台東区,上野2-14-31上野レイクサイドビル2F,"JR上野駅中央改札 徒歩3分 約200ｍ
 
 JR上野駅不忍口改札 徒歩2分 約150ｍ
 
 京成上野駅池之端口 徒歩0分 約50ｍ",03-6803-2232,全日 ：8：00-23：00,https://www.ginza-renoir.co.jp/shopsearch/shops/view/55,TRUE,TRUE,TRUE,FALSE,35.710559,139.773127,"57席
(禁煙:30/喫煙:27)"
10,金町店 | 喫茶室ルノアール,東京都,葛飾区,東金町1-42-11金子ビル1F,JR金町駅北口徒歩1分ロータリー右手2つ目角右折すぐ,03-3600-1380,全日：8：00-18：00,https://www.ginza-renoir.co.jp/shopsearch/shops/view/35,TRUE,TRUE,TRUE,FALSE,35.7703545,139.8710663,"100席
(禁煙:70/喫煙:30)"
11,銀座1丁目柳通り店 | 喫茶室ルノアール ,東京都,中央区,銀座1-6-11土志田ビルディングB1F,地下鉄有楽町線銀座一丁目駅６出入口出て右徒歩1分,03-5250-1860,"平日 ：8：00-23：00
土曜日：8：00-23：00
日祝日：9：00-22：00",https://www.ginza-renoir.co.jp/shopsearch/shops/view/41,TRUE,TRUE,TRUE,FALSE,35.674447,139.767281,"71席
(禁煙:26/喫煙:45)"
12,銀座2丁目店 | 喫茶室ルノアール ,東京都,中央区,銀座2-7-18藤田ビルB1F,地下鉄銀座線銀座駅徒歩1分メルサ右隣地下1階,03-3561-3856,全日：8：00-23：00,https://www.ginza-renoir.co.jp/shopsearch/shops/view/8,TRUE,TRUE,TRUE,FALSE,35.673297,139.767564,"94席
(禁煙:60/喫煙:34)"
13,銀座6丁目店 | 喫茶室ルノアール ,東京都,中央区,銀座6-12-10旭ビル1F及び2F,地下鉄銀座線銀座駅Ａ3出口徒歩約4分、中央通りを新橋方面に進み、GINZASIXと銀座ライオンの間の道を左折して約100m直進左手,03-3574-7876,"平日 ：7：30-22：00
土曜日：7：30-22：00
日祝日：8：00-22：00",https://www.ginza-renoir.co.jp/shopsearch/shops/view/43,TRUE,TRUE,TRUE,FALSE,35.668766,139.764225,"61席
(禁煙:37/喫煙:24)"
14,銀座マロニエ通り店 | 喫茶室ルノアール ,東京都,中央区,銀座2-8-12ユニデン銀座ビル2F,"銀座駅A13番出口徒歩3分
 
 銀座一丁目駅9番出口徒歩2分
 
 東銀座駅A8出口から徒歩1分",03-6263-0784,全日 8：00-23：00,https://www.ginza-renoir.co.jp/shopsearch/shops/view/1,TRUE,TRUE,TRUE,FALSE,35.672477,139.767745,"84席
(禁煙:58/喫煙:26)"
15,銀座松屋通り店 | 喫茶室ルノアール ,東京都,中央区,銀座3-3-11稲垣ビル2F,地下鉄銀座線銀座駅Ａ9出口徒歩2分松屋通りと銀座レンガ通りの交差地点,03-3567-7266,,https://www.ginza-renoir.co.jp/shopsearch/shops/view/100,TRUE,TRUE,TRUE,FALSE,35.6727135,139.7651481,"55席
(禁煙:27/喫煙:28)"
16,御徒町南口駅前店 | 喫茶室ルノアール ,東京都,台東区,上野3-27-1十仁タワー2F,JR御徒町駅南口を出て、右線路沿い徒歩1分,03-3836-1211,"平日 ：7：30-23：00
土曜日：8：00-23：00
日祝日：8：00-22：00",https://www.ginza-renoir.co.jp/shopsearch/shops/view/72,TRUE,TRUE,TRUE,FALSE,35.7071379,139.774374,"81席
(禁煙:37/喫煙:44)"
17,高円寺北口駅前店 | 喫茶室ルノアール,東京都,杉並区,高円寺北2-4-4一栄ビル2F,JR高円寺駅北口を出てロータリー右手前,03-3336-1264,"平日 ：7：30-23：00
土曜日：8：00-23：00
日祝日：8：00-22：00",https://www.ginza-renoir.co.jp/shopsearch/shops/view/49,TRUE,TRUE,TRUE,FALSE,35.705825,139.650527,"180席
(禁煙:75/喫煙:105)"
18,高田馬場1丁目店 | 喫茶室ルノアール,東京都,新宿区,高田馬場1-34-12竹内ビル1F,JR高田馬場駅早稲田口徒歩2分ビッグボックス裏1階,03-3200-6834,"平日 ：7：30-23：00
土曜日：7：30-23：00
日祝日：8：00-23：00",https://www.ginza-renoir.co.jp/shopsearch/shops/view/192,TRUE,TRUE,TRUE,TRUE,35.7119775,139.7042623,"113席
(禁煙:57/喫煙:56)"
19,高田馬場2丁目店 | 喫茶室ルノアール,東京都,新宿区,高田馬場2-18-6柳屋ビル1F,JR高田馬場駅東口駅前ロータリーから、早稲田通りを横断し直進徒歩2分,03-3209-1727,"平日 ：7：30-23：00
土曜日：8：00-23：00
日祝日：8：00-23：00",https://www.ginza-renoir.co.jp/shopsearch/shops/view/21,TRUE,TRUE,TRUE,FALSE,35.7139814,139.7049787,"88席
(禁煙:50/喫煙:38)"
20,喫茶室ルノアール 三鷹北口駅前店,東京都,武蔵野市,中町1-6-7朝日生命ビル1F及び2F,JR三鷹駅北口より徒歩0分ロータリー左向こう,042-253-0958,"平日 ：7：00-22：00
金曜日：7：00-23：00
土曜日：7：00-23：00
日祝日：7：00-22：00",https://www.ginza-renoir.co.jp/shopsearch/shops/view/81,TRUE,TRUE,TRUE,FALSE,35.7037322,139.5604051,"97席
(禁煙:55/喫煙:42)"
21,四谷店 | 喫茶室ルノアール,東京都,新宿区,四谷1-3-22,JR四谷駅四谷口より徒歩2分新みち通り入口すぐ左,03-3351-1052,"平日 ：7：30-23：00
金曜日：7：30-23：30
土曜日：7：30-23：00
日祝日：8：00-23：00",https://www.ginza-renoir.co.jp/shopsearch/shops/view/85,TRUE,TRUE,TRUE,FALSE,35.6863529,139.7290972,"90席
(禁煙:40/喫煙:50)"
22,市ヶ谷駅前店 | 喫茶室ルノアール,東京都,千代田区,五番町4-2東プレビル1F,JR総武線市ヶ谷駅から新坂を上り徒歩2分右側,03-3263-5980,"平日 ：7：30-23：00
土曜日：8：00-22：00
日祝日：8：00-20：00",https://www.ginza-renoir.co.jp/shopsearch/shops/view/42,TRUE,TRUE,TRUE,FALSE,35.6903057,139.7354951,
23,市ヶ谷外堀通り店 | 喫茶室ルノアール,東京都,新宿区,市谷田町1-3片倉ビル2F,JR総武線市ヶ谷駅から市ヶ谷橋を渡り市谷見附交差点を右に曲がりすぐ左手2階,03-5225-7665,"平日 ：7：30-23：00
土曜日：8：00-22：00
日祝日：9：00-20：00",https://www.ginza-renoir.co.jp/shopsearch/shops/view/22,TRUE,TRUE,TRUE,FALSE,35.6927191,139.7354449,"76席
(禁煙:30/喫煙:46)"
24,芝大門店 | 喫茶室ルノアール ,東京都,港区,芝大門2-3-1常泉ビル2F,JR浜松町駅北口改札出て左手東京タワー方面徒歩3分マクドナルド2階,03-3431-9147,"平日 ：7：30-23：00
土曜日：7：30-23：00
日祝日：8：00-23：00",https://www.ginza-renoir.co.jp/shopsearch/shops/view/19,TRUE,TRUE,TRUE,FALSE,35.6566678,139.7538479,"78席
(禁煙:31/喫煙:47)"
25,秋葉原店 | 喫茶室ルノアール ,東京都,千代田区,外神田1-11-6小暮ビル2F,JR秋葉原駅電気街口出て中央通りソフマップ本館角交差点すぐ徒歩3分,03-3253-2773,"平日 ：8：00-22：00
土曜日：8：00-22：00
日祝日：8：00-21：00",https://www.ginza-renoir.co.jp/shopsearch/shops/view/59,TRUE,TRUE,TRUE,FALSE,35.6994773,139.7709787,"97席
(禁煙:42/喫煙:55)"
26,秋葉原電気街口店 | 喫茶室ルノアール ,東京都,千代田区,外神田1-18-19新秋葉原ビルB1F,JR秋葉原駅電気街口徒歩約1分,03-5577-5307,全日: 7:30-22:00,https://www.ginza-renoir.co.jp/shopsearch/shops/view/68,TRUE,TRUE,TRUE,FALSE,35.698739,139.771997,
27,渋谷シオノギビル店 | 喫茶室ルノアール ,東京都,渋谷区,渋谷2-17-5シオノギ渋谷ビル2F,JR渋谷駅東口徒歩１分,03-5469-0850,"平日 ：7：30-22：00
木～金：7：30-23：00
土曜日：8：00-23：00",https://www.ginza-renoir.co.jp/shopsearch/shops/view/67,TRUE,TRUE,TRUE,FALSE,35.6590538,139.7044202,
28,渋谷宮下公園店 | 喫茶室ルノアール ,東京都,渋谷区,渋谷1-16-14渋谷地下鉄ビル2F,JR渋谷駅東口徒歩3分宮下公園前,03-3400-5413,"平日 ：8：00-23：00
土曜日：8：00-23：00
日祝日：8：00-22：00",https://www.ginza-renoir.co.jp/shopsearch/shops/view/118,TRUE,TRUE,TRUE,FALSE,35.6615867,139.702755,
29,渋谷東急ハンズ前店 | 喫茶室ルノアール ,東京都,渋谷区,宇田川町36-2ノアビル2F,JR渋谷駅ハチ公口徒歩５分東急ハンズ横井の頭通り沿い2階,03-3464-4863,"平日 ：8：00-23：00
土曜日：8：00-23：00
日祝日：9：00-23：00",https://www.ginza-renoir.co.jp/shopsearch/shops/view/70,TRUE,TRUE,TRUE,FALSE,35.6620215,139.6972095,
30,渋谷南口店 | 喫茶室ルノアール ,東京都,渋谷区,桜丘町15-15NKG東京第二ビル2F,JR渋谷駅南口徒歩３分桜ヶ丘中程,03-3461-7360,"平日 ：7：30-23：00
土曜日：7：30-23：00
日祝日：8：00-21：00",https://www.ginza-renoir.co.jp/shopsearch/shops/view/23,TRUE,TRUE,TRUE,FALSE,35.6560355,139.701548,
31,上野しのばず口店 | 喫茶室ルノアール ,東京都,台東区,上野4-10-7タツミビルB1F,JR上野駅しのばず口出口より徒歩2分中央通り,03-3835-4493,全日 ：8：00-22：00,https://www.ginza-renoir.co.jp/shopsearch/shops/view/99,TRUE,TRUE,TRUE,FALSE,35.710934,139.774339,"72席
(禁煙:19/喫煙:53)"
32,新橋サンルート店 | 喫茶室ルノアール ,東京都,港区,新橋4-10-2ホテルサンルート新橋2F,JR新橋駅烏森口から徒歩4分,03-5401-0734,"平日 ：7：00-23：00
土曜日：7：00-20：00
日祝日：7：00-20：00",https://www.ginza-renoir.co.jp/shopsearch/shops/view/11,TRUE,TRUE,TRUE,FALSE,35.664972,139.756334,"101席
(禁煙:40/喫煙:61)"
33,新橋汐留口駅前店 | 喫茶室ルノアール ,東京都,港区,新橋2-21-1新橋駅前ビル2号館1F,JR新橋駅汐留口出てすぐ,03-3571-3077,"平日 ：7：00-23：00
土曜日：7：00-23：00
日祝日：8：00-21：00",https://www.ginza-renoir.co.jp/shopsearch/shops/view/18,TRUE,TRUE,TRUE,FALSE,35.665539,139.7590186,
34,新宿3丁目ビッグスビル店 | 喫茶室ルノアール,東京都,新宿区,新宿2-19-1ビッグスビルB2F,都営地下鉄新宿3丁目駅徒歩分1分ビックスビル地下2階,03-5379-2766,"平日 ：8：00-22：30
土曜日：8：00-22：30
日祝日：9：00-20：00",https://www.ginza-renoir.co.jp/shopsearch/shops/view/103,TRUE,TRUE,TRUE,FALSE,35.691127,139.707678,
35,新宿TOHOシネマズ前店 | 喫茶室ルノアール ,東京都,新宿区,歌舞伎町1-14-4川新ビル2F,靖国通りからドンキホーテ角をセントラルロードに入り右手am/pmの2階,03-3200-2076,全日 ：8：00-23：30,https://www.ginza-renoir.co.jp/shopsearch/shops/view/36,TRUE,TRUE,TRUE,FALSE,35.6944748,139.7019669,"36席
(禁煙:0/喫煙:36)"
36,新宿アルタ横店 | 喫茶室ルノアール ,東京都,新宿区,新宿3-24-2アオキビルB1F,JR新宿駅東口徒歩1分新宿アルタ隣,03-3356-3738,"平日 ：7：00-23：30
土曜日：8：00-23：30
日祝日：8：00-23：30",https://www.ginza-renoir.co.jp/shopsearch/shops/view/66,TRUE,TRUE,TRUE,FALSE,35.692514,139.701353,"92席
(禁煙:54/喫煙:38)"
37,新宿ハルク横店 | 喫茶室ルノアール,東京都,新宿区,西新宿1-5-11三葉ビルB1F,JR新宿西口徒歩１分小田急ハルク横地下1階,03-5381-1885,"平日 ：7：30-23：30
土曜日：7：30-23：30
日祝日：8：00-23：00",https://www.ginza-renoir.co.jp/shopsearch/shops/view/126,TRUE,TRUE,TRUE,FALSE,35.692765,139.698028,
38,新宿区役所横店 | 喫茶室ルノアール,東京都,新宿区,歌舞伎町1-3-5相模ビル1F及び2F,JR新宿駅東口徒歩7分 新宿区役所真裏,03-3209-6175,"平日 ：8：00-翌6：00
土曜日：8：00-翌6：00
日曜日：8：00-23：00",https://www.ginza-renoir.co.jp/shopsearch/shops/view/6,TRUE,TRUE,TRUE,FALSE,35.694502,139.703548,"88席
(禁煙:52/喫煙:36)"
39,新宿小滝橋通り店 | 喫茶室ルノアール,東京都,新宿区,西新宿7-9-7新宿ニッカビル1F,JR新宿駅西口小滝橋通り馬場方面徒歩3分,03-3364-1618,"平日 ：7：30-22：30
土曜日：7：30-22：30
日祝日：8：00-22：00",https://www.ginza-renoir.co.jp/shopsearch/shops/view/123,TRUE,TRUE,TRUE,FALSE,35.6949732,139.698061,"48席
(禁煙:24/喫煙:24)"
40,新宿西口1丁目店 | 喫茶室ルノアール,東京都,新宿区,西新宿1-4-1西新宿プリンスビルB1F,JR新宿西口徒歩2分,03-6279-4922,"月-土：7：30-23：30
日祝日：8：00-23：00",https://www.ginza-renoir.co.jp/shopsearch/shops/view/50,TRUE,TRUE,TRUE,FALSE,35.692986,139.698931,
41,新宿西口エステックビル店 | 喫茶室ルノアール,東京都,新宿区,西新宿1-24-1エステック情報ビルB1F,JR新宿駅西口徒歩6分新宿中央公園方面地下道左手沿いエステック情報ビル地下1階,03-3348-1470,"平日 ：7：00-22：00
土曜日：8：00-22：00
日祝日：8：00-21：00",https://www.ginza-renoir.co.jp/shopsearch/shops/view/46,TRUE,TRUE,TRUE,FALSE,35.690348,139.695967,"68席
(禁煙:32/喫煙:36)"
42,新宿西口駅前店 | 喫茶室ルノアール,東京都,新宿区,西新宿1-17-1日本生命西新宿ビル2F,JR新宿南口徒歩3分甲州街道沿いファーストキッチン裏手,03-3348-5761,"平日 ：7：30-23：30
土曜日：7：30-23：30
日祝日：7：30-23：00",https://www.ginza-renoir.co.jp/shopsearch/shops/view/87,TRUE,TRUE,TRUE,FALSE,35.6891512,139.6983967,"136席
(禁煙:72/喫煙:64)"
43,新宿大ガード店 | 喫茶室ルノアール,東京都,新宿区,西新宿7-1-1新宿カレイドビル2F,JR新宿駅西口大ガードスグ横,03-3363-1929,全日：7：30-23：00,https://www.ginza-renoir.co.jp/shopsearch/shops/view/120,TRUE,TRUE,TRUE,FALSE,35.6942031,139.6991945,"84席
(禁煙:36/喫煙:48)"
44,新宿南口ルミネ前店 | 喫茶室ルノアール,東京都,新宿区,西新宿1-18-1小川ビルB1F,JR新宿南口徒歩3分甲州街道沿いファーストキッチン横地下１階,03-5323-3117,全日 ：8：00-23：30,https://www.ginza-renoir.co.jp/shopsearch/shops/view/73,TRUE,TRUE,TRUE,FALSE,35.688957,139.698613,"61席
(禁煙:43/喫煙:18)"
45,新宿南口甲州街道店 | 喫茶室ルノアール,東京都,新宿区,西新宿1-19-5新宿幸容ビルB1F,JR新宿南口徒歩5分甲州街道沿い,03-5381-5660,全日 ：7：30-23：00,https://www.ginza-renoir.co.jp/shopsearch/shops/view/88,TRUE,TRUE,TRUE,FALSE,35.688215,139.697174,"82席
(禁煙:32/喫煙:50)"
46,新宿明治通り店 | 喫茶室ルノアール,東京都,新宿区,新宿3-13-5クリハシビル2F,都営地下鉄新宿3丁目駅E3出口を出たら右へ。右手角にあるコンビニと同ビルの2階になります。,03-6273-0135,全日 ：8：00-23：00,https://www.ginza-renoir.co.jp/shopsearch/shops/view/60,TRUE,TRUE,TRUE,FALSE,35.6920669,139.7058763,"62席
(禁煙:28/喫煙:34)"
47,新宿靖国通り店 | 喫茶室ルノアール ,東京都,新宿区,歌舞伎町1-1-19同栄新宿ビル1F,JR新宿駅東口徒歩8分 靖国通り新宿区役所前交差点横,03-3202-1870,"平日 ：8：00-翌6：00
土曜日：8：00-翌6：00
日曜日：8：00-23：00",https://www.ginza-renoir.co.jp/shopsearch/shops/view/31,TRUE,TRUE,TRUE,FALSE,35.6932073,139.7039415,"56席
(禁煙:29/喫煙:27)"
48,新大久保駅前店 | 喫茶室ルノアール ,東京都,新宿区,百人町2-11-25新戸山ビル2F,JR新大久保駅徒歩1分大久保通り沿い、JR大久保駅方向2つ目向う角2階,03-3361-0269,"平日 ：7：30-23：00
土曜日：7：30-23：00
日祝日：8：00-22：00",https://www.ginza-renoir.co.jp/shopsearch/shops/view/116,TRUE,TRUE,TRUE,FALSE,35.7017754,139.6991746,"69席
(禁煙:42/喫煙:27)"
49,新有楽町ビル店 | 喫茶室ルノアール ,東京都,千代田区,有楽町1-12-1新有楽町ビル1F,"JR山手線有楽町駅、京橋口より徒歩4分ビックカメラ向かい
 
 東京メトロ有楽町線有楽町駅下車、D2出口よりすぐ",03-6213-5580,"平日 ：7：30-23：00
土曜日：8：00-23：00
日祝日：10：00-22：00",https://www.ginza-renoir.co.jp/shopsearch/shops/view/25,TRUE,TRUE,TRUE,FALSE,35.6755361,139.7618536,"54席
(禁煙:0/喫煙:54)"
50,神田南口駅前店 | 喫茶室ルノアール,東京都,千代田区,鍛冶町2-1-4東和ビル2F,JR神田駅南口を出てすぐ前,03-5289-8456,"平日 ：7：00-23：00
土曜日：7：00-23：00
日祝日：8：00-20：00",https://www.ginza-renoir.co.jp/shopsearch/shops/view/122,TRUE,TRUE,TRUE,FALSE,35.6911807,139.7712183,"45席
(禁煙:45/喫煙:0)"
51,神田北口駅前店 | 喫茶室ルノアール,東京都,千代田区,内神田3-21-8神田駅北口合同ビル2F,JR神田駅北口を出て正面,03-3255-8620,"平日 ：7：00-23：00
土曜日：8：00-23：00
日祝日：8：00-20：00",https://www.ginza-renoir.co.jp/shopsearch/shops/view/57,TRUE,TRUE,TRUE,FALSE,35.6927498,139.7706712,"50席
(禁煙:50/喫煙:0)"
52,水道橋西口店 | 喫茶室ルノアール,東京都,千代田区,神田三崎町3-6-13山京中央ビル1F,JR総武線水道橋駅西口交差点を渡り飯田橋方面徒歩1分,03-3288-1578,"平日 ：7：30-23：00
土曜日：7：30-23：00
日祝日：8：00-23：00",https://www.ginza-renoir.co.jp/shopsearch/shops/view/111,TRUE,TRUE,TRUE,FALSE,35.70172,139.7515323,"95席
(禁煙:53/喫煙:42)"
53,西銀座店 | 喫茶室ルノアール ,東京都,中央区,銀座2-5-5共同ビル西銀座1F,地下鉄銀座線銀座駅Ａ9出口徒歩2分ガス灯通り沿い,03-3567-7014,"平日 ：7：30-23：00
土曜日：8：00-23：00
日祝日：8：00-22：00",https://www.ginza-renoir.co.jp/shopsearch/shops/view/14,TRUE,TRUE,TRUE,FALSE,35.673821,139.766936,"118席
(禁煙:55/喫煙:63)"
54,西日暮里第一店 | 喫茶室ルノアール,東京都,荒川区,西日暮里5-23-6ホワイトハウス2F,JR西日暮里駅東口駅前,03-3801-2230,"平日 ：7：30-23：00
土曜日：7：30-23：00
日祝日：8：00-23：00",https://www.ginza-renoir.co.jp/shopsearch/shops/view/45,TRUE,TRUE,TRUE,FALSE,35.732044,139.767608,
55,西武新宿駅前店 | 喫茶室ルノアール,東京都,新宿区,歌舞伎町1-26-6灯ビル2F,西武新宿駅0分駅前すぐロッテリア2階,03-5285-1405,全日：7：00-23：30,https://www.ginza-renoir.co.jp/shopsearch/shops/view/115,TRUE,TRUE,TRUE,FALSE,35.6950485,139.700451,"81席
(禁煙:30/喫煙:51)"
56,赤坂見附店 | 喫茶室ルノアール,東京都,港区,赤坂3-10-2赤坂コマースビル2F,地下鉄丸の内線または銀座線赤坂見附駅より徒歩1分,03-5549-4707,"平日 ：7：30-23：00
土曜日：8：00-23：00
日祝日：11：00-20：00",https://www.ginza-renoir.co.jp/shopsearch/shops/view/10,TRUE,TRUE,TRUE,FALSE,35.6763262,139.7366823,"57席
(禁煙:28/喫煙:29)"
57,千駄ヶ谷駅前店 | 喫茶室ルノアール,東京都,渋谷区,千駄ヶ谷1-30-8ダヴィンチ千駄ヶ谷1F,JR千駄ヶ谷駅徒歩0分交差点渡り右手すぐ1階,03-3408-9125,"平日 ：7：30-23：00
土曜日：7：30-23：00
日祝日：8：00-23：00",https://www.ginza-renoir.co.jp/shopsearch/shops/view/30,TRUE,TRUE,TRUE,FALSE,35.6809357,139.7100254,"90席
(禁煙:68/喫煙:22)"
58,川越店 | 喫茶室ルノアール,埼玉県,川越市,脇田町103川越マイン3F,JR川越駅東口川越マイン3階,049-224-4420,全日:10:00-22:00,https://www.ginza-renoir.co.jp/shopsearch/shops/view/4,TRUE,TRUE,TRUE,TRUE,35.907267,139.48418,"72席
(禁煙:32/喫煙:40)"
59,川崎銀柳街店 | 喫茶室ルノアール ,神奈川県,川崎市,川崎区駅前本町3-3ムラタビル2F,JR川崎駅東口徒歩4分銀柳街中程,044-245-4164,全日 ：7：30-23：00,https://www.ginza-renoir.co.jp/shopsearch/shops/view/37,TRUE,TRUE,TRUE,FALSE,35.529705,139.699179,"59席
(禁煙:39/喫煙:20)"
60,川崎東口駅前店 | 喫茶室ルノアール ,神奈川県,川崎市,川崎区駅前本町11-1パシフィックマークス川崎2F,"JR川崎駅中央東口より徒歩2分
 
 京急川崎駅より徒歩3分",044-589-5730,全日 7:30-23:00,https://www.ginza-renoir.co.jp/shopsearch/shops/view/20,TRUE,TRUE,TRUE,TRUE,35.5316938,139.6990349,"46席
(禁煙:22/喫煙:24)"
61,巣鴨駅前店 | 喫茶室ルノアール,東京都,豊島区,巣鴨1-15-1宮田ビル2F,JR巣鴨駅南口徒歩0分ロータリー左手パチンコ店2階,03-3942-9349,全日：7：30-23：00,https://www.ginza-renoir.co.jp/shopsearch/shops/view/104,TRUE,TRUE,TRUE,FALSE,35.7331841,139.7399226,"70席
(禁煙:30/喫煙:40)"
62,代々木西口駅前店 | 喫茶室ルノアール,東京都,渋谷区,代々木1-30-6第一U・Iビル1F,JR代々木駅西口交差点左手坂を下り約50ｍ右側1階,03-3379-0583,"平日 ：7：30-23：00
土曜日：7：30-23：00
日祝日：8：00-22：00",https://www.ginza-renoir.co.jp/shopsearch/shops/view/27,TRUE,TRUE,TRUE,FALSE,35.681642,139.7019669,"60席
(禁煙:28/喫煙:32)"
63,大久保店 | 喫茶室ルノアール,東京都,新宿区,百人町1-18-8大久保角ビル2F,JR総武線大久保駅北口を左手へ大久保通り沿い、北新宿1丁目交差点の手前左手角徒歩1分,03-3368-2209,"平日 ：7：30-23：00
土曜日：8：00-22：00
日祝日：8：00-22：00",https://www.ginza-renoir.co.jp/shopsearch/shops/view/58,TRUE,TRUE,TRUE,FALSE,35.701708,139.695522,"93席
(禁煙:13/喫煙:80)"
64,大船店 | 喫茶室ルノアール ,神奈川県,鎌倉市,大船1-7-1サザンウインズ大船ビル2F,JR大船駅東口徒歩2分サザンウインズ大船ビル2階,0467-44-9790,"平日 ：7：30-22：30
土曜日：8：00-22：00
日祝日：8：00-22：00",https://www.ginza-renoir.co.jp/shopsearch/shops/view/90,TRUE,TRUE,TRUE,FALSE,35.3538,139.532238,"60席
(禁煙:0/喫煙:60)"
65,池袋サンシャイン60通り店 | 喫茶室ルノアール ,東京都,豊島区,東池袋1-11-4大和ビル2F,ＪＲ池袋駅東口より徒歩2分,03-5396-0012,"平日 ：7：30-23：30
土曜日：7：30-23：30
日祝日：8：00-23：00",https://www.ginza-renoir.co.jp/shopsearch/shops/view/12,TRUE,TRUE,TRUE,TRUE,35.7296955,139.7142546,"85席
(禁煙:64/喫煙:21)"
66,池袋パルコ横店 | 喫茶室ルノアール,東京都,豊島区,東池袋1-42-8第一イン池袋ビルB1F,JR池袋駅東口出て大通りから駅ビル「パルコ」左横の駅前「東京点心包家」角から左に入って30m,03-5957-7085,全日：7：30-23：00,https://www.ginza-renoir.co.jp/shopsearch/shops/view/114,TRUE,TRUE,TRUE,FALSE,35.732041,139.712825,"86席
(禁煙:32/喫煙:54)"
67,池袋東口店 | 喫茶室ルノアール,東京都,豊島区,東池袋1-40-2池袋籏ビル2F,JR池袋駅東口出て明治通り左並びの東池袋1丁目交差点ヤマダ電機隣,03-3980-6352,全日：7：30-23：00,https://www.ginza-renoir.co.jp/shopsearch/shops/view/51,TRUE,TRUE,TRUE,FALSE,35.7320312,139.7137359,"56席
(禁煙:28/喫煙:28)"
68,池袋北口駅前店 | 喫茶室ルノアール,東京都,豊島区,西池袋1-28-1第二西池ビル2F,JR池袋駅北口20c番出口を出てすぐ,03-3988-9010,"平日 ：7：30-23：30
土曜日：7：30-23：30
日祝日：8：00-23：00",https://www.ginza-renoir.co.jp/shopsearch/shops/view/54,TRUE,TRUE,TRUE,FALSE,35.7313392,139.7106664,"110席
(禁煙:34/喫煙:76)"
69,中野サンプラザ前店 | 喫茶室ルノアール,東京都,中野区,中野5-67-5長谷部ビル2F,JR中野駅北口徒歩3分中野通り沿いペットショップ2階,03-3388-2477,全日：8：00-22：00,https://www.ginza-renoir.co.jp/shopsearch/shops/view/98,TRUE,TRUE,TRUE,FALSE,35.708242,139.6653582,
70,中野南口駅前店 | 喫茶室ルノアール,東京都,中野区,中野3-36-15ニュークリアビルB1F,JR中野駅南口を出て右の信号を渡った目の前のビルの地下1階,03-5340-6222,"平日 ：7：30-23：00
土曜日：7：30-23：00
日祝日：8：00-22：00",https://www.ginza-renoir.co.jp/shopsearch/shops/view/64,TRUE,TRUE,TRUE,FALSE,35.705317,139.665258,"56席
(禁煙:0/喫煙:56)"
71,中野北口店 | 喫茶室ルノアール,東京都,中野区,中野5-61-2立見ビル2F,JR中野駅北口徒歩1分ロータリー右角路地入り1つ目角右折すぐ,03-3387-2982,"平日 ：7：30-23：00
土曜日：8：00-23：00
日祝日：8：00-23：00",https://www.ginza-renoir.co.jp/shopsearch/shops/view/71,TRUE,TRUE,TRUE,FALSE,35.706765,139.666517,"120席
(禁煙:76/喫煙:44)"
72,田町三田口駅前店 | 喫茶室ルノアール ,東京都,港区,芝5-34-7田町センタービル1F,JR田町駅三田口を出て左手田町センタービル手前から入りエスカレータにて1階,03-3453-7761,"平日 ：7：00-23：00
土曜日：8：00-22：00
日祝日：9：00-21：00",https://www.ginza-renoir.co.jp/shopsearch/shops/view/44,TRUE,TRUE,TRUE,FALSE,35.6462308,139.7469212,
73,東京駅八重洲1丁目店 | 喫茶室ルノアール,東京都,中央区,八重洲1-4-18八重洲ヒロセビル1F,東京駅八重洲北口を出て外堀通りを渡り左へ、「ヤマダ電機ConceptLABITOKYO」を通り過ぎた角を右折してすぐの左側,03-6262-6355,"平日 ：7：30-23：00
土曜日：8：00-23：00
日祝日：8：00-22：00",https://www.ginza-renoir.co.jp/shopsearch/shops/view/76,TRUE,TRUE,TRUE,FALSE,35.682402,139.7708389,"96席
(禁煙:73/喫煙:23)"
74,東京駅八重洲北口店 | 喫茶室ルノアール,東京都,中央区,八重洲1-6-17八重洲勧業ビル1F及びB1F,東京駅八重洲北口を出て外堀通りを渡り八重洲北口通りを入り左手すぐ徒歩0分,03-3517-8722,"平日 ：7：30-23：00
金曜日：7：30-23：30
土曜日：8：00-23：00
日祝日：8：00-23：00",https://www.ginza-renoir.co.jp/shopsearch/shops/view/69,TRUE,TRUE,TRUE,FALSE,35.68137,139.770144,"70席
(禁煙:38/喫煙:32)"
75,東池袋1丁目店 | 喫茶室ルノアール ,東京都,豊島区,東池袋1-15-2音羽ビル1F,"ＪＲ山手線他【池袋駅】東口 徒歩５分、東京メトロ丸ノ内線【池袋駅】徒歩５分
 
 西武池袋線、東京メトロ有楽町線【池袋駅】徒歩７分",03-3986-8555,"平日 ：7：30-23：30
土曜日：7：30-23：30
日祝日：8：00-23：00",https://www.ginza-renoir.co.jp/shopsearch/shops/view/29,TRUE,TRUE,TRUE,FALSE,35.7308243,139.7150127,
76,日暮里谷中店 | 喫茶室ルノアール,東京都,台東区,谷中7-20-6谷中ホ-ムズ1F,JR日暮里駅北口徒歩1分,03-3822-8102,"平日 ：7：30-22：00
土曜日：7：30-22：00
日祝日：8：00-22：00",https://www.ginza-renoir.co.jp/shopsearch/shops/view/108,TRUE,TRUE,TRUE,FALSE,35.727673,139.768951,"46席
(禁煙:23/喫煙:23)"
77,日暮里東口店 | 喫茶室ルノアール,東京都,荒川区,東日暮里5-51-11静屋ビル2F,JR日暮里駅東口徒歩1分ロ−タリー右手前,03-3802-2316,"平日 ：7：30-23：00
土曜日：8：00-23：00
日祝日：8：00-23：00",https://www.ginza-renoir.co.jp/shopsearch/shops/view/83,TRUE,TRUE,TRUE,FALSE,35.7282142,139.7721768,"102席
(禁煙:34/喫煙:68)"
78,日本橋高島屋前店 | 喫茶室ルノアール,東京都,中央区,日本橋2-3-6日本土地ビルB1F,地下鉄銀座線日本橋駅3番出口関東銀行地下徒歩0分,03-3272-8048,"平日 ：7：30-22：00
土曜日：8：00-22：00
日祝日：9：00-21：00",https://www.ginza-renoir.co.jp/shopsearch/shops/view/39,TRUE,TRUE,TRUE,FALSE,35.681439,139.772668,
79,箱根湯本駅前店 | 喫茶室ルノアール,神奈川県,足柄下郡,箱根町湯本白石下706-35箱根登山鉄道湯本駅前ビル2F,小田急線箱根湯本駅横断橋渡りすぐ,0460-85-8379,全日：8：00-20：00,https://www.ginza-renoir.co.jp/shopsearch/shops/view/101,TRUE,TRUE,TRUE,FALSE,35.233183,139.104085,"95席
(禁煙:63/喫煙:32)"
80,八王子北口駅前店 | 喫茶室ルノアール,東京都,八王子市,旭町7-1豊栄第一ビルB1F,JR八王子駅北口徒歩約2分,042-686-0272,"平日 ：7：30-23：00
土曜日：7：30-23：00
日祝日：8：00-22：00",https://www.ginza-renoir.co.jp/shopsearch/shops/view/32,TRUE,TRUE,TRUE,FALSE,35.6570664,139.3380647,
81,飯田橋西口店 | 喫茶室ルノアール,東京都,千代田区,富士見2-2-6今井ビル2F,JR総武線飯田橋駅西口を出て早稲田通を左へ2つ目交差点を渡り左手の2階,03-5226-6345,"平日 ：7：30-23：00
土曜日：7：30-23：00
日祝日：8：00-22：00",https://www.ginza-renoir.co.jp/shopsearch/shops/view/77,TRUE,TRUE,TRUE,FALSE,35.6992412,139.7452645,
82,品川港南口店 | 喫茶室ルノアール ,東京都,港区,港南2-3-29シ-ゲンビル1F,JR品川駅港南口を出て徒歩2分、ビックエコーの角を左折した先の右手に見えるビルの1階,03-3450-1948,"平日 ：7：00-23：00
土曜日：8：00-22：00
日祝日：8：00-20：00",https://www.ginza-renoir.co.jp/shopsearch/shops/view/52,TRUE,TRUE,TRUE,FALSE,35.6290876,139.7429492,
83,品川高輪口店 | 喫茶室ルノアール ,東京都,港区,高輪3-25-22カネオビル1F,JR品川駅高輪口出て、右手国道沿いに徒歩約2分カネオビル1階,03-3447-7595,"平日 ：7：30-23：00
土曜日：7：30-23：00
日祝日：7：30-22：00",https://www.ginza-renoir.co.jp/shopsearch/shops/view/62,TRUE,TRUE,TRUE,FALSE,35.6304654,139.7378264,
84,有楽町駅前店 | 喫茶室ルノアール ,東京都,千代田区,有楽町2-8-2ジョイパックビル2F,JR有楽町駅銀座口出てすぐ、セブンイレブンの2階,03-6268-0102,全日 ：7：30-23：00,https://www.ginza-renoir.co.jp/shopsearch/shops/view/86,TRUE,TRUE,TRUE,FALSE,35.674365,139.76282,"68席
(禁煙:26/喫煙:42)"
85,立川南口店 | 喫茶室ルノアール,東京都,立川市,柴崎町3-4-14ベルトリーサビル2F,JR立川駅南口より徒歩0分,042-521-3221,"平日 ：7：30-22：00
金曜日：7：30-23：00
土曜日：7：30-23：00
日曜日：7：30-22：00
 祭日 ：8：00-22：00",https://www.ginza-renoir.co.jp/shopsearch/shops/view/3,TRUE,TRUE,TRUE,FALSE,35.6966287,139.4146561,"64席
(禁煙:34/喫煙:30)"
86,立川北口駅前店 | 喫茶室ルノアール,東京都,立川市,曙町2-13-10賀屋登ビル2F,JR立川駅北口より徒歩１分立川郵便局となり2階,042-525-3917,"平日 ：7：30-23：00
土曜日：8：00-23：00
日祝日：8：00-23：00",https://www.ginza-renoir.co.jp/shopsearch/shops/view/15,TRUE,TRUE,TRUE,FALSE,35.6987827,139.4151235,"105席
(禁煙:41/喫煙:64)"
87,六本木ラピロス店 | 喫茶室ルノアール ,東京都,港区,六本木6-1-24ラピロス六本木2F,東京メトロ日比谷線・都営大江戸線「六本木駅」3番出口から地下鉄連絡通路を経て徒歩1分,03-3405-6440,"平日 ：8：00-23：30
土曜日：8：00-23：30
日祝日：8：00-23：00",https://www.ginza-renoir.co.jp/shopsearch/shops/view/26,TRUE,TRUE,TRUE,FALSE,35.6625951,139.7319127,"76席
(禁煙:26/喫煙:50)"
88,吉祥寺店 | 喫茶室ルノアール,東京都,武蔵野市,吉祥寺南町1-4-3ニューセンタービル2F,"JR中央・総武線吉祥寺駅
 
 京王井の頭線吉祥寺駅
 
 公園口出て右徒歩1分",042-249-5435,"平日 ：9：00-22：00
土曜日：9：00-23：00
日祝日：9：00-22：00",https://www.ginza-renoir.co.jp/shopsearch/shops/view/506,FALSE,FALSE,TRUE,FALSE,35.7024662,139.5794491,"96席
(禁煙:74/喫煙:22)"
89,恵比寿第一店 | 喫茶室ルノアール,東京都,渋谷区,恵比寿南1-5-2成信恵比寿ビル1F,JR恵比寿駅西口徒歩1分,03-3793-5303,全日：8：00-23：00,https://www.ginza-renoir.co.jp/shopsearch/shops/view/502,FALSE,FALSE,TRUE,FALSE,35.6468534,139.7096264,
90,恵比寿東口店 | 喫茶室ルノアール,東京都,渋谷区,恵比寿1-13-10恵比寿壱番館1F,"ＪＲ山手線他【恵比寿駅】西口 徒歩２分
 
 東京メトロ日比谷線【恵比寿駅】徒歩４分",03-3447-6434,全日：8：00-23：00,https://www.ginza-renoir.co.jp/shopsearch/shops/view/503,FALSE,FALSE,TRUE,FALSE,35.6471224,139.7116811,
91,新小岩店 | 喫茶室ルノアール,東京都,葛飾区,西新小岩1-2-11喜久屋ビル2F,ＪＲ新小岩駅北口からすぐ左,03-3696-3641,7:00-22:00,https://www.ginza-renoir.co.jp/shopsearch/shops/view/505,FALSE,TRUE,TRUE,FALSE,35.717273,139.8574663,"84席
(禁煙:29/喫煙:55)"
92,神田淡路町店 | 喫茶室ルノアール,東京都,千代田区,神田小川町1-1山甚ビルB1F,東京メトロ丸の内線淡路町駅・都営新宿線小川町駅A4出口出てすぐ,03-3233-1795,"平日 ：7：30-20：00
土曜日：10：00-19：00
祝日 ：10：00-18：00",https://www.ginza-renoir.co.jp/shopsearch/shops/view/501,FALSE,TRUE,TRUE,FALSE,35.695003,139.7670461,
93,大塚店 | 喫茶室ルノアール,東京都,豊島区,北大塚2-2-2ランドマーク2F,JR山手線大塚駅北口出て左徒歩1分,03-3915-1021,"平日 ：8：00-22：00
土曜日：8：00-22：00
日祝日：8：00-21：00",https://www.ginza-renoir.co.jp/shopsearch/shops/view/504,FALSE,FALSE,TRUE,FALSE,35.7320814,139.7280872,