id,name,prefecture,city,other_address,access,tel,business_hour,hp,wifi,socket,smoking,iccard,lat,lon,chair
0,高田馬場1丁目店 | NEW YORKER'S Cafe,東京都,新宿区,高田馬場1-33-13千年ビル1F,JR高田馬場駅東口徒歩2分ビッグボックス裏1階,03-3208-9037,"平日 ：7：00-22：30
土曜日：7：00-22：30
日祝日：7：30-22：30",https://www.ginza-renoir.co.jp/shopsearch/shops/view/79,TRUE,TRUE,TRUE,TRUE,35.7114143,139.7039415,54席(禁煙:36席/喫煙:18席)
1,駿河台4丁目店 | NEW YORKER'S Cafe,東京都,千代田区,神田駿河台4-1-1ウエルトンビル1F,JR御茶ノ水駅聖橋口を出て本郷通りを下り徒歩3分,03-3293-9460,"平日 ：7：00-22：30
土曜日：8：00-22：30
日祝日：8：00-21：30",https://www.ginza-renoir.co.jp/shopsearch/shops/view/92,TRUE,TRUE,TRUE,FALSE,35.6976067,139.7655075,104席(禁煙:34席/喫煙:70席)
2,新宿エステックビル店 | NEW YORKER'S Cafe,東京都,新宿区,西新宿1-24-1エステック情報ビル1F,JR新宿駅西口徒歩6分新宿中央公園方面地下道左手沿いエステック情報ビル1階,03-5339-2922,"平日 ：7：00-22：00
土曜日：7：00-22：00
日祝日：8：00-21：30",https://www.ginza-renoir.co.jp/shopsearch/shops/view/38,TRUE,TRUE,TRUE,FALSE,35.69034,139.6960034,86席(禁煙:43席/喫煙:43席)
3,水道橋東口店 | NEW YORKER'S Cafe,東京都,文京区,本郷1-4-1全水道会館1F,JR水道橋駅東口を出て外堀通りを横断してすぐ,03-3818-4584,"平日 ：7：00-22：30
土曜日：7：00-22：30
日祝日：7：30-22：30",https://www.ginza-renoir.co.jp/shopsearch/shops/view/75,TRUE,TRUE,TRUE,FALSE,35.7031842,139.7555848,76席(禁煙:26席/喫煙:50席)
4,町田中央通り店 | NEW YORKER'S Cafe,東京都,町田市,原町田4-9-8サウスフロントタワー町田シエロ1F,小田急線町田駅西口より徒歩8分,042-739-4135,"平日 ：7：00-22：30
土曜日：7：00-22：30
日祝日：8：00-22：30",https://www.ginza-renoir.co.jp/shopsearch/shops/view/127,TRUE,TRUE,TRUE,FALSE,35.5413583,139.4497613,61席(禁煙:23席/喫煙:38席)
5,町田店 | NEW YORKER'S Cafe,東京都,町田市,森野1-13-14日生町田ビル1F,小田急線町田駅西口より徒歩2分,042-728-8749,"平日 ：7：00-22：30
土曜日：7：00-22：30
日祝日：7：30-22：00",https://www.ginza-renoir.co.jp/shopsearch/shops/view/16,TRUE,TRUE,TRUE,FALSE,35.544211,139.443184,61席(禁煙:37席/喫煙:24席)
6,調布北口店 | NEW YORKER'S Cafe,東京都,調布市,布田1-41-2原政ビル1F,京王線調布駅北口すぐ,042-488-9065,"平日 ：7：00-22：30
土曜日：7：30-22：00
日祝日：8：00-21：00",https://www.ginza-renoir.co.jp/shopsearch/shops/view/94,TRUE,TRUE,TRUE,FALSE,35.6522556,139.5446073,82席(禁煙:82席/喫煙:0席)